<?xml version="1.0" encoding="UTF-8"?>
<kml xmlns="http://www.opengis.net/kml/2.2"><Document>
  <name>L'aqueduc et la corniche de la Fraze</name><description>15.7 km. D+ 208 m. 68 % de chemins. Depart : Ars-sur-Moselle, pres de la gare (20 min de Metz). Les arches romaines de Jouy, puis la corniche calcaire qui surplombe la Moselle et le plateau boise ou passait l'aqueduc, retour par les villages viticoles.</description>
  <Style id="depart"><IconStyle><scale>1.2</scale><Icon><href>http://maps.google.com/mapfiles/kml/paddle/grn-circle.png</href></Icon></IconStyle></Style>
  <Style id="etape"><IconStyle><Icon><href>http://maps.google.com/mapfiles/kml/paddle/wht-blank.png</href></Icon></IconStyle></Style>
    <Placemark><name>Depart : Ars-sur-Moselle</name><description>Depart en voiture. Se garer pres de la gare ou du centre.</description><styleUrl>#depart</styleUrl><Point><coordinates>6.0763110,49.0769680,0</coordinates></Point></Placemark>
    <Placemark><name>1. Aqueduc romain de Jouy-aux-Arches</name><description>Sept arches encore debout d'un aqueduc du IIe siecle qui amenait l'eau de Gorze a Metz. La suite de l'ouvrage se devine tout le long du vallon.</description><styleUrl>#etape</styleUrl><Point><coordinates>6.0802500,49.0652930,0</coordinates></Point></Placemark>
    <Placemark><name>2. Dornot</name><description>Hameau viticole au pied de la corniche.</description><styleUrl>#etape</styleUrl><Point><coordinates>6.0560000,49.0481000,0</coordinates></Point></Placemark>
    <Placemark><name>3. Les Roches de la Fraze</name><description>Corniche calcaire, vue plongeante sur la vallee de la Moselle.</description><styleUrl>#etape</styleUrl><Point><coordinates>6.0465750,49.0401580,0</coordinates></Point></Placemark>
    <Placemark><name>4. Croix Saint-Clement</name><description>Carrefour de chemins sur le plateau, entre Gorze et la Moselle.</description><styleUrl>#etape</styleUrl><Point><coordinates>6.0391770,49.0537800,0</coordinates></Point></Placemark>
    <Placemark><name>5. Ancy-sur-Moselle</name><description>Village au bord de l'eau, au debouche du vallon de Gorze.</description><styleUrl>#etape</styleUrl><Point><coordinates>6.0584740,49.0565610,0</coordinates></Point></Placemark>
    <Style id="t1"><LineStyle><color>ff7A4A6B</color><width>4</width></LineStyle></Style>
    <Placemark><name>L'aqueduc et la corniche de la Fraze</name><description>15.7 km. D+ 208 m. 68 % de chemins. Depart : Ars-sur-Moselle, pres de la gare (20 min de Metz). Les arches romaines de Jouy, puis la corniche calcaire qui surplombe la Moselle et le plateau boise ou passait l'aqueduc, retour par les villages viticoles.</description><styleUrl>#t1</styleUrl><LineString><tessellate>1</tessellate><coordinates>6.0761790,49.0768840,173 6.0761810,49.0768830,173 6.0764640,49.0766920,173 6.0765670,49.0766210,173 6.0766840,49.0765460,173 6.0766160,49.0765050,173 6.0763580,49.0763730,173 6.0762660,49.0763570,174 6.0760020,49.0761200,175 6.0757630,49.0759690,174 6.0759000,49.0758780,174 6.0757230,49.0757580,174 6.0758260,49.0756970,174 6.0755830,49.0755190,175 6.0756910,49.0754990,174 6.0757940,49.0754460,174 6.0758680,49.0754100,174 6.0759380,49.0753710,174 6.0758790,49.0753050,174 6.0758660,49.0752710,174 6.0758590,49.0751710,174 6.0759300,49.0751560,173 6.0760050,49.0751490,173 6.0760400,49.0751390,173 6.0761110,49.0751000,173 6.0763680,49.0749530,172 6.0770350,49.0745420,172 6.0770880,49.0745190,172 6.0771830,49.0744700,173 6.0773370,49.0743710,173 6.0772330,49.0742860,173 6.0770680,49.0741630,174 6.0769680,49.0740980,175 6.0769280,49.0740710,175 6.0770870,49.0739710,174 6.0772840,49.0738140,174 6.0774180,49.0736850,174 6.0775150,49.0735640,174 6.0777350,49.0736410,174 6.0777530,49.0736310,174 6.0778230,49.0735420,174 6.0778720,49.0733200,176 6.0779050,49.0732470,176 6.0779480,49.0731770,176 6.0780010,49.0731290,175 6.0780740,49.0730850,175 6.0782000,49.0730350,174 6.0782690,49.0729950,174 6.0783130,49.0729360,175 6.0783300,49.0728720,175 6.0783340,49.0727960,176 6.0783140,49.0727280,176 6.0782770,49.0724950,177 6.0782870,49.0722730,177 6.0785300,49.0720130,173 6.0789950,49.0715560,172 6.0791220,49.0714390,176 6.0792310,49.0713530,177 6.0793620,49.0712630,176 6.0793930,49.0712440,176 6.0796550,49.0710800,174 6.0818450,49.0698190,173 6.0818750,49.0698000,173 6.0818170,49.0697600,174 6.0816740,49.0696560,173 6.0815560,49.0695650,172 6.0814290,49.0694700,172 6.0811790,49.0692250,172 6.0806640,49.0689090,174 6.0806440,49.0688780,174 6.0806330,49.0688380,174 6.0806490,49.0687940,174 6.0806740,49.0687600,173 6.0809530,49.0686110,174 6.0810350,49.0685240,174 6.0809880,49.0684590,173 6.0805370,49.0682330,170 6.0803380,49.0681270,170 6.0797200,49.0676720,170 6.0794790,49.0674650,171 6.0790370,49.0662740,170 6.0788640,49.0658820,171 6.0790800,49.0658400,172 6.0791360,49.0658270,172 6.0795690,49.0655180,175 6.0796770,49.0654750,176 6.0800790,49.0653750,177 6.0801110,49.0653670,177 6.0802340,49.0655860,176 6.0802980,49.0655750,177 6.0803380,49.0655580,177 6.0803650,49.0655130,178 6.0803410,49.0653450,178 6.0803450,49.0653200,178 6.0803150,49.0652690,178 6.0802450,49.0652040,178 6.0802200,49.0651990,178 6.0801610,49.0652080,178 6.0802070,49.0653010,178 6.0801610,49.0652080,178 6.0802200,49.0651990,178 6.0802450,49.0652040,178 6.0803150,49.0652690,178 6.0803450,49.0653200,178 6.0803410,49.0653450,178 6.0803650,49.0655130,178 6.0803380,49.0655580,177 6.0802980,49.0655750,177 6.0802340,49.0655860,176 6.0801110,49.0653670,177 6.0800790,49.0653750,177 6.0796770,49.0654750,176 6.0795690,49.0655180,175 6.0791360,49.0658270,172 6.0790800,49.0658400,172 6.0788640,49.0658820,171 6.0790370,49.0662740,170 6.0794790,49.0674650,171 6.0797200,49.0676720,170 6.0803380,49.0681270,170 6.0805370,49.0682330,170 6.0809880,49.0684590,173 6.0810350,49.0685240,174 6.0809530,49.0686110,174 6.0806740,49.0687600,173 6.0806490,49.0687940,174 6.0806330,49.0688380,174 6.0806440,49.0688780,174 6.0806640,49.0689090,174 6.0811790,49.0692250,172 6.0814290,49.0694700,172 6.0815560,49.0695650,172 6.0816740,49.0696560,173 6.0818170,49.0697600,174 6.0818750,49.0698000,173 6.0818450,49.0698190,173 6.0796550,49.0710800,174 6.0793930,49.0712440,176 6.0793620,49.0712630,176 6.0792310,49.0713530,177 6.0791220,49.0714390,176 6.0789950,49.0715560,172 6.0785300,49.0720130,173 6.0782870,49.0722730,177 6.0782770,49.0724950,177 6.0783140,49.0727280,176 6.0783340,49.0727960,176 6.0783300,49.0728720,175 6.0783130,49.0729360,175 6.0782690,49.0729950,174 6.0782000,49.0730350,174 6.0780740,49.0730850,175 6.0780010,49.0731290,175 6.0779480,49.0731770,176 6.0779050,49.0732470,176 6.0778720,49.0733200,176 6.0778230,49.0735420,174 6.0777530,49.0736310,174 6.0777350,49.0736410,174 6.0776520,49.0736610,174 6.0775610,49.0736540,174 6.0773800,49.0735570,173 6.0765330,49.0729070,172 6.0754180,49.0721000,172 6.0746270,49.0714650,172 6.0743400,49.0711920,172 6.0739070,49.0706660,172 6.0738440,49.0705700,173 6.0737470,49.0704620,172 6.0730890,49.0697860,171 6.0725100,49.0691020,171 6.0715820,49.0679070,172 6.0713410,49.0675440,171 6.0712400,49.0674230,172 6.0711510,49.0672880,172 6.0710670,49.0671400,172 6.0704780,49.0655760,171 6.0704780,49.0653630,170 6.0699490,49.0641310,172 6.0697890,49.0638230,172 6.0695690,49.0632440,172 6.0693950,49.0628530,172 6.0692020,49.0624920,174 6.0689500,49.0621540,172 6.0686570,49.0618260,172 6.0681120,49.0613310,172 6.0673940,49.0608490,173 6.0665310,49.0604040,172 6.0659050,49.0599710,172 6.0652950,49.0595780,172 6.0649360,49.0592750,171 6.0645320,49.0589890,172 6.0642670,49.0586820,171 6.0637810,49.0582690,172 6.0635870,49.0580880,172 6.0630880,49.0574600,173 6.0629580,49.0572590,172 6.0628830,49.0571160,172 6.0628370,49.0570500,172 6.0627690,49.0569100,172 6.0626310,49.0566650,172 6.0625260,49.0564010,171 6.0624940,49.0562940,171 6.0624680,49.0560740,171 6.0624740,49.0559270,171 6.0624660,49.0558600,171 6.0624460,49.0558170,171 6.0624100,49.0557710,171 6.0622040,49.0555690,171 6.0621600,49.0554960,172 6.0621120,49.0553250,172 6.0620700,49.0551280,172 6.0620460,49.0549470,172 6.0618740,49.0544010,172 6.0618290,49.0541720,171 6.0616420,49.0536930,171 6.0612040,49.0522080,172 6.0611040,49.0521310,172 6.0605460,49.0504540,172 6.0605480,49.0504140,172 6.0604240,49.0501760,173 6.0597350,49.0480920,171 6.0597490,49.0479800,171 6.0598220,49.0478760,172 6.0599670,49.0478010,172 6.0598400,49.0477650,172 6.0596480,49.0477700,172 6.0595010,49.0477850,174 6.0592080,49.0478300,173 6.0589640,49.0478690,173 6.0588190,49.0473250,173 6.0586730,49.0472700,173 6.0585330,49.0472400,173 6.0583640,49.0472350,173 6.0579570,49.0472930,174 6.0572820,49.0474070,178 6.0565780,49.0475450,184 6.0559240,49.0476480,190 6.0560410,49.0479860,189 6.0560290,49.0481010,189 6.0560410,49.0479860,189 6.0559240,49.0476480,190 6.0555360,49.0476690,194 6.0552150,49.0476860,198 6.0549140,49.0477100,200 6.0546410,49.0476580,204 6.0542950,49.0475950,209 6.0541690,49.0475750,210 6.0537000,49.0475020,215 6.0535470,49.0475210,217 6.0533470,49.0477560,220 6.0532240,49.0478570,222 6.0530070,49.0479200,225 6.0526710,49.0479470,229 6.0523870,49.0479440,232 6.0522320,49.0479160,234 6.0521350,49.0478920,234 6.0520090,49.0478270,236 6.0518630,49.0476280,239 6.0518390,49.0475780,240 6.0518290,49.0475220,240 6.0516500,49.0475230,241 6.0515620,49.0475350,243 6.0512440,49.0476840,249 6.0510130,49.0477840,252 6.0508300,49.0478480,255 6.0504060,49.0479700,259 6.0501420,49.0480250,261 6.0499570,49.0480320,262 6.0497040,49.0479880,264 6.0495490,49.0479770,265 6.0493650,49.0479820,266 6.0477440,49.0482760,272 6.0466960,49.0484120,279 6.0466650,49.0482990,282 6.0466660,49.0482210,285 6.0466450,49.0481720,287 6.0465940,49.0481350,289 6.0464680,49.0481080,292 6.0464480,49.0480490,294 6.0464690,49.0480130,296 6.0464570,49.0479840,297 6.0464130,49.0479670,298 6.0463090,49.0479710,300 6.0462770,49.0479630,300 6.0462770,49.0479320,302 6.0462950,49.0479030,303 6.0463480,49.0478860,303 6.0463980,49.0478800,302 6.0464130,49.0478600,303 6.0463990,49.0478160,305 6.0463270,49.0477440,308 6.0462010,49.0477160,310 6.0461610,49.0476970,311 6.0461500,49.0476500,312 6.0461750,49.0475830,314 6.0461630,49.0475210,315 6.0460990,49.0474870,316 6.0459590,49.0474690,318 6.0458600,49.0474340,319 6.0456370,49.0472050,323 6.0460840,49.0471000,323 6.0468850,49.0469330,320 6.0474960,49.0467400,318 6.0479710,49.0465290,316 6.0483380,49.0463190,315 6.0486560,49.0460650,314 6.0488850,49.0457700,313 6.0490730,49.0454270,313 6.0491280,49.0452310,314 6.0491200,49.0449430,314 6.0491310,49.0445850,315 6.0490570,49.0443820,316 6.0487860,49.0441410,320 6.0485530,49.0438830,323 6.0485060,49.0436420,324 6.0484370,49.0434850,324 6.0483740,49.0433520,324 6.0482670,49.0431300,324 6.0481200,49.0429250,325 6.0479690,49.0426960,326 6.0479550,49.0426740,326 6.0475450,49.0420420,324 6.0466650,49.0408400,323 6.0464400,49.0405290,322 6.0462400,49.0402660,322 6.0464400,49.0405290,322 6.0466650,49.0408400,323 6.0475450,49.0420420,324 6.0479550,49.0426740,326 6.0463930,49.0431620,330 6.0461360,49.0432540,330 6.0449480,49.0436550,334 6.0447360,49.0437600,334 6.0444300,49.0441360,334 6.0440930,49.0445190,335 6.0437550,49.0448850,334 6.0433890,49.0453140,333 6.0432570,49.0454120,333 6.0431990,49.0454760,334 6.0431090,49.0456190,334 6.0430700,49.0456600,334 6.0430050,49.0456850,334 6.0429370,49.0456910,334 6.0428690,49.0456820,334 6.0428080,49.0456410,334 6.0427470,49.0456240,334 6.0426790,49.0456340,334 6.0426210,49.0456680,333 6.0426270,49.0457180,333 6.0426490,49.0457620,334 6.0427940,49.0458450,334 6.0428400,49.0458810,334 6.0428460,49.0459300,333 6.0428190,49.0459790,333 6.0425880,49.0462100,333 6.0423000,49.0464990,333 6.0415030,49.0475310,329 6.0405130,49.0486100,323 6.0403860,49.0488710,322 6.0403650,49.0489930,322 6.0403470,49.0490980,322 6.0403530,49.0495810,322 6.0403400,49.0498480,322 6.0403370,49.0503750,322 6.0403830,49.0507880,322 6.0404130,49.0512280,322 6.0403990,49.0513580,322 6.0403370,49.0517100,322 6.0403200,49.0519420,324 6.0403030,49.0523890,325 6.0400340,49.0527100,327 6.0398260,49.0529840,328 6.0395070,49.0532920,328 6.0392320,49.0535380,330 6.0390930,49.0537570,332 6.0388070,49.0542080,332 6.0389820,49.0541710,332 6.0391760,49.0541170,331 6.0393370,49.0540580,330 6.0396560,49.0538960,327 6.0398570,49.0537750,326 6.0399530,49.0537240,325 6.0401550,49.0536430,324 6.0404330,49.0536540,322 6.0409250,49.0537100,318 6.0414760,49.0538470,312 6.0419640,49.0540540,303 6.0420670,49.0541200,300 6.0422820,49.0542580,295 6.0425670,49.0546210,286 6.0426900,49.0549070,286 6.0428410,49.0552030,284 6.0428950,49.0552590,283 6.0429710,49.0552970,282 6.0429830,49.0552410,281 6.0429810,49.0551720,281 6.0428450,49.0547520,282 6.0428180,49.0544270,281 6.0431620,49.0542940,276 6.0434690,49.0542310,272 6.0437710,49.0542320,268 6.0440900,49.0541790,264 6.0450230,49.0540040,255 6.0452290,49.0539430,254 6.0455600,49.0538440,251 6.0460520,49.0537660,246 6.0462490,49.0537740,244 6.0464500,49.0538210,240 6.0466630,49.0538340,237 6.0476460,49.0538290,227 6.0481270,49.0538700,224 6.0483520,49.0538700,221 6.0487310,49.0538210,220 6.0489300,49.0538200,218 6.0491570,49.0538400,216 6.0492930,49.0538440,215 6.0501570,49.0538620,208 6.0504420,49.0538340,205 6.0507120,49.0538370,202 6.0514460,49.0539110,197 6.0516130,49.0538880,196 6.0519270,49.0539560,195 6.0522320,49.0540560,195 6.0525840,49.0541200,194 6.0527360,49.0541380,194 6.0528570,49.0541230,193 6.0530430,49.0540510,192 6.0531130,49.0540410,192 6.0531840,49.0540510,192 6.0538310,49.0542430,190 6.0539220,49.0542470,190 6.0540970,49.0542090,189 6.0542260,49.0542110,188 6.0544250,49.0542380,188 6.0546080,49.0542810,188 6.0554380,49.0545440,185 6.0556560,49.0543270,182 6.0561430,49.0538820,177 6.0564160,49.0536350,175 6.0572320,49.0539120,173 6.0580830,49.0541150,173 6.0581210,49.0541640,173 6.0583260,49.0544210,173 6.0584270,49.0546560,172 6.0585400,49.0548810,172 6.0587240,49.0551930,172 6.0583660,49.0554910,172 6.0582200,49.0556020,172 6.0582010,49.0556650,172 6.0583250,49.0560610,172 6.0582940,49.0563040,172 6.0584160,49.0564450,173 6.0582470,49.0565370,173 6.0582830,49.0565660,173 6.0583440,49.0566210,173 6.0582830,49.0565660,173 6.0582470,49.0565370,173 6.0575280,49.0569240,177 6.0577310,49.0572460,177 6.0578210,49.0573880,176 6.0580170,49.0577960,176 6.0580530,49.0578530,176 6.0580960,49.0579170,176 6.0580810,49.0579320,176 6.0580770,49.0579500,176 6.0580850,49.0579680,176 6.0581290,49.0579890,176 6.0581060,49.0580560,176 6.0581110,49.0580980,176 6.0580250,49.0582710,177 6.0578920,49.0585770,179 6.0578680,49.0586650,180 6.0579320,49.0589270,181 6.0580510,49.0591030,181 6.0580980,49.0591510,180 6.0582840,49.0593390,179 6.0584620,49.0595420,178 6.0585610,49.0597070,178 6.0586090,49.0598620,177 6.0586870,49.0601470,177 6.0587390,49.0604020,178 6.0587600,49.0606220,179 6.0587550,49.0607260,180 6.0587540,49.0607720,180 6.0587050,49.0609370,180 6.0587070,49.0611170,181 6.0587300,49.0612200,182 6.0587470,49.0612970,182 6.0588140,49.0614450,183 6.0588220,49.0615360,184 6.0589070,49.0617420,186 6.0590430,49.0619940,188 6.0590540,49.0620350,189 6.0594090,49.0621950,190 6.0597030,49.0623540,189 6.0600370,49.0626670,190 6.0604070,49.0628820,187 6.0608360,49.0631530,187 6.0612370,49.0633540,187 6.0616790,49.0635150,185 6.0617390,49.0635310,185 6.0618050,49.0635470,184 6.0619990,49.0636420,184 6.0623130,49.0638680,184 6.0626200,49.0640910,184 6.0627490,49.0641450,184 6.0628310,49.0641550,184 6.0629030,49.0641300,183 6.0629620,49.0640900,182 6.0630350,49.0640220,180 6.0631320,49.0640510,180 6.0633710,49.0641630,181 6.0636060,49.0643170,182 6.0643730,49.0647370,183 6.0644850,49.0648180,184 6.0646350,49.0648960,184 6.0646910,49.0649560,184 6.0646820,49.0649850,185 6.0646160,49.0650580,186 6.0646180,49.0650800,187 6.0647620,49.0651690,188 6.0651490,49.0654270,188 6.0655150,49.0656290,188 6.0660200,49.0659490,190 6.0661700,49.0660420,190 6.0663650,49.0661460,190 6.0666930,49.0663590,190 6.0668750,49.0662920,186 6.0674730,49.0667550,186 6.0676220,49.0669600,186 6.0680650,49.0673850,187 6.0682710,49.0675720,186 6.0683910,49.0676980,186 6.0684970,49.0677870,186 6.0686950,49.0679220,186 6.0690000,49.0681530,188 6.0690290,49.0681890,188 6.0691490,49.0683660,188 6.0691970,49.0684130,188 6.0693600,49.0685410,188 6.0695690,49.0687750,187 6.0696590,49.0688840,186 6.0696850,49.0689040,186 6.0696390,49.0689360,188 6.0696370,49.0689500,188 6.0698610,49.0690560,188 6.0700620,49.0692590,188 6.0702320,49.0693910,188 6.0704580,49.0695470,187 6.0707660,49.0697450,186 6.0711080,49.0699680,185 6.0712510,49.0700860,184 6.0714380,49.0704050,186 6.0715210,49.0705080,186 6.0715960,49.0705670,186 6.0717840,49.0706730,185 6.0718960,49.0707180,184 6.0720420,49.0708310,184 6.0721640,49.0710400,183 6.0722080,49.0711960,184 6.0722450,49.0713690,184 6.0722840,49.0714490,184 6.0723890,49.0716370,183 6.0726520,49.0719850,182 6.0726840,49.0722470,181 6.0727950,49.0726160,181 6.0728740,49.0728230,180 6.0720890,49.0730120,188 6.0718360,49.0730870,193 6.0718970,49.0732900,194 6.0719420,49.0733400,194 6.0720860,49.0734250,194 6.0721320,49.0734710,195 6.0722630,49.0735490,195 6.0724320,49.0736220,193 6.0725390,49.0736820,192 6.0726570,49.0737640,192 6.0727740,49.0738600,192 6.0728680,49.0739580,191 6.0728620,49.0740120,190 6.0726950,49.0746110,182 6.0726670,49.0746730,182 6.0726590,49.0746690,182 6.0726490,49.0747690,182 6.0726590,49.0748050,182 6.0727330,49.0749190,182 6.0728190,49.0749890,182 6.0731080,49.0751640,180 6.0732470,49.0752640,180 6.0733570,49.0753760,179 6.0733960,49.0754280,179 6.0735220,49.0753950,179 6.0736710,49.0753710,179 6.0736920,49.0754180,178 6.0737400,49.0754650,178 6.0750410,49.0764240,176 6.0751540,49.0763540,176 6.0752300,49.0763110,175 6.0756660,49.0765960,174 6.0761810,49.0768830,173 6.0761790,49.0768840,173</coordinates></LineString></Placemark>
</Document></kml>