<?xml version="1.0" encoding="UTF-8"?>
<gpx version="1.1" creator="olifant"
     xmlns="http://www.topografix.com/GPX/1/1"
     xmlns:xsi="http://www.w3.org/2001/XMLSchema-instance"
     xsi:schemaLocation="http://www.topografix.com/GPX/1/1 http://www.topografix.com/GPX/1/1/gpx.xsd">
  <metadata><name>L'aqueduc et la corniche de la Fraze</name><desc>15.7 km. D+ 208 m. 68 % de chemins. Depart : Ars-sur-Moselle, pres de la gare (20 min de Metz). Les arches romaines de Jouy, puis la corniche calcaire qui surplombe la Moselle et le plateau boise ou passait l'aqueduc, retour par les villages viticoles.</desc></metadata>
  <wpt lat="49.0769680" lon="6.0763110"><name>Ars-sur-Moselle</name><desc>Depart en voiture. Se garer pres de la gare ou du centre.</desc></wpt>
  <wpt lat="49.0652930" lon="6.0802500"><name>Aqueduc romain de Jouy-aux-Arches</name><desc>Sept arches encore debout d'un aqueduc du IIe siecle qui amenait l'eau de Gorze a Metz. La suite de l'ouvrage se devine tout le long du vallon.</desc></wpt>
  <wpt lat="49.0481000" lon="6.0560000"><name>Dornot</name><desc>Hameau viticole au pied de la corniche.</desc></wpt>
  <wpt lat="49.0401580" lon="6.0465750"><name>Les Roches de la Fraze</name><desc>Corniche calcaire, vue plongeante sur la vallee de la Moselle.</desc></wpt>
  <wpt lat="49.0537800" lon="6.0391770"><name>Croix Saint-Clement</name><desc>Carrefour de chemins sur le plateau, entre Gorze et la Moselle.</desc></wpt>
  <wpt lat="49.0565610" lon="6.0584740"><name>Ancy-sur-Moselle</name><desc>Village au bord de l'eau, au debouche du vallon de Gorze.</desc></wpt>
  <trk><name>L'aqueduc et la corniche de la Fraze</name><trkseg>
    <trkpt lat="49.0768840" lon="6.0761790"><ele>173.0</ele></trkpt>
    <trkpt lat="49.0768830" lon="6.0761810"><ele>173.0</ele></trkpt>
    <trkpt lat="49.0766920" lon="6.0764640"><ele>173.0</ele></trkpt>
    <trkpt lat="49.0766210" lon="6.0765670"><ele>173.0</ele></trkpt>
    <trkpt lat="49.0765460" lon="6.0766840"><ele>173.0</ele></trkpt>
    <trkpt lat="49.0765050" lon="6.0766160"><ele>173.0</ele></trkpt>
    <trkpt lat="49.0763730" lon="6.0763580"><ele>173.0</ele></trkpt>
    <trkpt lat="49.0763570" lon="6.0762660"><ele>173.5</ele></trkpt>
    <trkpt lat="49.0761200" lon="6.0760020"><ele>174.8</ele></trkpt>
    <trkpt lat="49.0759690" lon="6.0757630"><ele>174.5</ele></trkpt>
    <trkpt lat="49.0758780" lon="6.0759000"><ele>174.0</ele></trkpt>
    <trkpt lat="49.0757580" lon="6.0757230"><ele>174.2</ele></trkpt>
    <trkpt lat="49.0756970" lon="6.0758260"><ele>174.0</ele></trkpt>
    <trkpt lat="49.0755190" lon="6.0755830"><ele>174.8</ele></trkpt>
    <trkpt lat="49.0754990" lon="6.0756910"><ele>174.5</ele></trkpt>
    <trkpt lat="49.0754460" lon="6.0757940"><ele>174.0</ele></trkpt>
    <trkpt lat="49.0754100" lon="6.0758680"><ele>173.8</ele></trkpt>
    <trkpt lat="49.0753710" lon="6.0759380"><ele>173.5</ele></trkpt>
    <trkpt lat="49.0753050" lon="6.0758790"><ele>173.8</ele></trkpt>
    <trkpt lat="49.0752710" lon="6.0758660"><ele>173.8</ele></trkpt>
    <trkpt lat="49.0751710" lon="6.0758590"><ele>173.5</ele></trkpt>
    <trkpt lat="49.0751560" lon="6.0759300"><ele>173.2</ele></trkpt>
    <trkpt lat="49.0751490" lon="6.0760050"><ele>173.0</ele></trkpt>
    <trkpt lat="49.0751390" lon="6.0760400"><ele>173.0</ele></trkpt>
    <trkpt lat="49.0751000" lon="6.0761110"><ele>173.0</ele></trkpt>
    <trkpt lat="49.0749530" lon="6.0763680"><ele>172.0</ele></trkpt>
    <trkpt lat="49.0745420" lon="6.0770350"><ele>172.5</ele></trkpt>
    <trkpt lat="49.0745190" lon="6.0770880"><ele>172.5</ele></trkpt>
    <trkpt lat="49.0744700" lon="6.0771830"><ele>172.8</ele></trkpt>
    <trkpt lat="49.0743710" lon="6.0773370"><ele>173.0</ele></trkpt>
    <trkpt lat="49.0742860" lon="6.0772330"><ele>173.0</ele></trkpt>
    <trkpt lat="49.0741630" lon="6.0770680"><ele>174.5</ele></trkpt>
    <trkpt lat="49.0740980" lon="6.0769680"><ele>175.0</ele></trkpt>
    <trkpt lat="49.0740710" lon="6.0769280"><ele>174.8</ele></trkpt>
    <trkpt lat="49.0739710" lon="6.0770870"><ele>174.5</ele></trkpt>
    <trkpt lat="49.0738140" lon="6.0772840"><ele>174.2</ele></trkpt>
    <trkpt lat="49.0736850" lon="6.0774180"><ele>174.0</ele></trkpt>
    <trkpt lat="49.0735640" lon="6.0775150"><ele>173.8</ele></trkpt>
    <trkpt lat="49.0736410" lon="6.0777350"><ele>173.8</ele></trkpt>
    <trkpt lat="49.0736310" lon="6.0777530"><ele>173.8</ele></trkpt>
    <trkpt lat="49.0735420" lon="6.0778230"><ele>174.5</ele></trkpt>
    <trkpt lat="49.0733200" lon="6.0778720"><ele>175.8</ele></trkpt>
    <trkpt lat="49.0732470" lon="6.0779050"><ele>175.8</ele></trkpt>
    <trkpt lat="49.0731770" lon="6.0779480"><ele>175.5</ele></trkpt>
    <trkpt lat="49.0731290" lon="6.0780010"><ele>175.0</ele></trkpt>
    <trkpt lat="49.0730850" lon="6.0780740"><ele>174.8</ele></trkpt>
    <trkpt lat="49.0730350" lon="6.0782000"><ele>174.5</ele></trkpt>
    <trkpt lat="49.0729950" lon="6.0782690"><ele>174.5</ele></trkpt>
    <trkpt lat="49.0729360" lon="6.0783130"><ele>174.8</ele></trkpt>
    <trkpt lat="49.0728720" lon="6.0783300"><ele>175.2</ele></trkpt>
    <trkpt lat="49.0727960" lon="6.0783340"><ele>175.8</ele></trkpt>
    <trkpt lat="49.0727280" lon="6.0783140"><ele>176.0</ele></trkpt>
    <trkpt lat="49.0724950" lon="6.0782770"><ele>176.8</ele></trkpt>
    <trkpt lat="49.0722730" lon="6.0782870"><ele>177.0</ele></trkpt>
    <trkpt lat="49.0720130" lon="6.0785300"><ele>173.0</ele></trkpt>
    <trkpt lat="49.0715560" lon="6.0789950"><ele>172.2</ele></trkpt>
    <trkpt lat="49.0714390" lon="6.0791220"><ele>176.0</ele></trkpt>
    <trkpt lat="49.0713530" lon="6.0792310"><ele>177.2</ele></trkpt>
    <trkpt lat="49.0712630" lon="6.0793620"><ele>176.2</ele></trkpt>
    <trkpt lat="49.0712440" lon="6.0793930"><ele>176.2</ele></trkpt>
    <trkpt lat="49.0710800" lon="6.0796550"><ele>174.0</ele></trkpt>
    <trkpt lat="49.0698190" lon="6.0818450"><ele>173.0</ele></trkpt>
    <trkpt lat="49.0698000" lon="6.0818750"><ele>173.2</ele></trkpt>
    <trkpt lat="49.0697600" lon="6.0818170"><ele>173.5</ele></trkpt>
    <trkpt lat="49.0696560" lon="6.0816740"><ele>173.2</ele></trkpt>
    <trkpt lat="49.0695650" lon="6.0815560"><ele>172.0</ele></trkpt>
    <trkpt lat="49.0694700" lon="6.0814290"><ele>172.5</ele></trkpt>
    <trkpt lat="49.0692250" lon="6.0811790"><ele>172.2</ele></trkpt>
    <trkpt lat="49.0689090" lon="6.0806640"><ele>174.2</ele></trkpt>
    <trkpt lat="49.0688780" lon="6.0806440"><ele>174.5</ele></trkpt>
    <trkpt lat="49.0688380" lon="6.0806330"><ele>174.2</ele></trkpt>
    <trkpt lat="49.0687940" lon="6.0806490"><ele>173.5</ele></trkpt>
    <trkpt lat="49.0687600" lon="6.0806740"><ele>173.0</ele></trkpt>
    <trkpt lat="49.0686110" lon="6.0809530"><ele>173.8</ele></trkpt>
    <trkpt lat="49.0685240" lon="6.0810350"><ele>173.8</ele></trkpt>
    <trkpt lat="49.0684590" lon="6.0809880"><ele>173.2</ele></trkpt>
    <trkpt lat="49.0682330" lon="6.0805370"><ele>170.5</ele></trkpt>
    <trkpt lat="49.0681270" lon="6.0803380"><ele>170.5</ele></trkpt>
    <trkpt lat="49.0676720" lon="6.0797200"><ele>170.2</ele></trkpt>
    <trkpt lat="49.0674650" lon="6.0794790"><ele>170.8</ele></trkpt>
    <trkpt lat="49.0662740" lon="6.0790370"><ele>170.5</ele></trkpt>
    <trkpt lat="49.0658820" lon="6.0788640"><ele>170.8</ele></trkpt>
    <trkpt lat="49.0658400" lon="6.0790800"><ele>171.5</ele></trkpt>
    <trkpt lat="49.0658270" lon="6.0791360"><ele>171.8</ele></trkpt>
    <trkpt lat="49.0655180" lon="6.0795690"><ele>174.8</ele></trkpt>
    <trkpt lat="49.0654750" lon="6.0796770"><ele>175.5</ele></trkpt>
    <trkpt lat="49.0653750" lon="6.0800790"><ele>177.2</ele></trkpt>
    <trkpt lat="49.0653670" lon="6.0801110"><ele>177.2</ele></trkpt>
    <trkpt lat="49.0655860" lon="6.0802340"><ele>176.5</ele></trkpt>
    <trkpt lat="49.0655750" lon="6.0802980"><ele>177.0</ele></trkpt>
    <trkpt lat="49.0655580" lon="6.0803380"><ele>177.2</ele></trkpt>
    <trkpt lat="49.0655130" lon="6.0803650"><ele>177.8</ele></trkpt>
    <trkpt lat="49.0653450" lon="6.0803410"><ele>178.0</ele></trkpt>
    <trkpt lat="49.0653200" lon="6.0803450"><ele>178.2</ele></trkpt>
    <trkpt lat="49.0652690" lon="6.0803150"><ele>178.2</ele></trkpt>
    <trkpt lat="49.0652040" lon="6.0802450"><ele>178.0</ele></trkpt>
    <trkpt lat="49.0651990" lon="6.0802200"><ele>178.0</ele></trkpt>
    <trkpt lat="49.0652080" lon="6.0801610"><ele>178.0</ele></trkpt>
    <trkpt lat="49.0653010" lon="6.0802070"><ele>177.5</ele></trkpt>
    <trkpt lat="49.0652080" lon="6.0801610"><ele>178.0</ele></trkpt>
    <trkpt lat="49.0651990" lon="6.0802200"><ele>178.0</ele></trkpt>
    <trkpt lat="49.0652040" lon="6.0802450"><ele>178.0</ele></trkpt>
    <trkpt lat="49.0652690" lon="6.0803150"><ele>178.2</ele></trkpt>
    <trkpt lat="49.0653200" lon="6.0803450"><ele>178.2</ele></trkpt>
    <trkpt lat="49.0653450" lon="6.0803410"><ele>178.0</ele></trkpt>
    <trkpt lat="49.0655130" lon="6.0803650"><ele>177.8</ele></trkpt>
    <trkpt lat="49.0655580" lon="6.0803380"><ele>177.2</ele></trkpt>
    <trkpt lat="49.0655750" lon="6.0802980"><ele>177.0</ele></trkpt>
    <trkpt lat="49.0655860" lon="6.0802340"><ele>176.5</ele></trkpt>
    <trkpt lat="49.0653670" lon="6.0801110"><ele>177.2</ele></trkpt>
    <trkpt lat="49.0653750" lon="6.0800790"><ele>177.2</ele></trkpt>
    <trkpt lat="49.0654750" lon="6.0796770"><ele>175.5</ele></trkpt>
    <trkpt lat="49.0655180" lon="6.0795690"><ele>174.8</ele></trkpt>
    <trkpt lat="49.0658270" lon="6.0791360"><ele>171.8</ele></trkpt>
    <trkpt lat="49.0658400" lon="6.0790800"><ele>171.5</ele></trkpt>
    <trkpt lat="49.0658820" lon="6.0788640"><ele>170.8</ele></trkpt>
    <trkpt lat="49.0662740" lon="6.0790370"><ele>170.5</ele></trkpt>
    <trkpt lat="49.0674650" lon="6.0794790"><ele>170.8</ele></trkpt>
    <trkpt lat="49.0676720" lon="6.0797200"><ele>170.2</ele></trkpt>
    <trkpt lat="49.0681270" lon="6.0803380"><ele>170.5</ele></trkpt>
    <trkpt lat="49.0682330" lon="6.0805370"><ele>170.5</ele></trkpt>
    <trkpt lat="49.0684590" lon="6.0809880"><ele>173.2</ele></trkpt>
    <trkpt lat="49.0685240" lon="6.0810350"><ele>173.8</ele></trkpt>
    <trkpt lat="49.0686110" lon="6.0809530"><ele>173.8</ele></trkpt>
    <trkpt lat="49.0687600" lon="6.0806740"><ele>173.0</ele></trkpt>
    <trkpt lat="49.0687940" lon="6.0806490"><ele>173.5</ele></trkpt>
    <trkpt lat="49.0688380" lon="6.0806330"><ele>174.2</ele></trkpt>
    <trkpt lat="49.0688780" lon="6.0806440"><ele>174.5</ele></trkpt>
    <trkpt lat="49.0689090" lon="6.0806640"><ele>174.2</ele></trkpt>
    <trkpt lat="49.0692250" lon="6.0811790"><ele>172.2</ele></trkpt>
    <trkpt lat="49.0694700" lon="6.0814290"><ele>172.5</ele></trkpt>
    <trkpt lat="49.0695650" lon="6.0815560"><ele>172.0</ele></trkpt>
    <trkpt lat="49.0696560" lon="6.0816740"><ele>173.2</ele></trkpt>
    <trkpt lat="49.0697600" lon="6.0818170"><ele>173.5</ele></trkpt>
    <trkpt lat="49.0698000" lon="6.0818750"><ele>173.2</ele></trkpt>
    <trkpt lat="49.0698190" lon="6.0818450"><ele>173.0</ele></trkpt>
    <trkpt lat="49.0710800" lon="6.0796550"><ele>174.0</ele></trkpt>
    <trkpt lat="49.0712440" lon="6.0793930"><ele>176.2</ele></trkpt>
    <trkpt lat="49.0712630" lon="6.0793620"><ele>176.2</ele></trkpt>
    <trkpt lat="49.0713530" lon="6.0792310"><ele>177.2</ele></trkpt>
    <trkpt lat="49.0714390" lon="6.0791220"><ele>176.0</ele></trkpt>
    <trkpt lat="49.0715560" lon="6.0789950"><ele>172.2</ele></trkpt>
    <trkpt lat="49.0720130" lon="6.0785300"><ele>173.0</ele></trkpt>
    <trkpt lat="49.0722730" lon="6.0782870"><ele>177.0</ele></trkpt>
    <trkpt lat="49.0724950" lon="6.0782770"><ele>176.8</ele></trkpt>
    <trkpt lat="49.0727280" lon="6.0783140"><ele>176.0</ele></trkpt>
    <trkpt lat="49.0727960" lon="6.0783340"><ele>175.8</ele></trkpt>
    <trkpt lat="49.0728720" lon="6.0783300"><ele>175.2</ele></trkpt>
    <trkpt lat="49.0729360" lon="6.0783130"><ele>174.8</ele></trkpt>
    <trkpt lat="49.0729950" lon="6.0782690"><ele>174.5</ele></trkpt>
    <trkpt lat="49.0730350" lon="6.0782000"><ele>174.5</ele></trkpt>
    <trkpt lat="49.0730850" lon="6.0780740"><ele>174.8</ele></trkpt>
    <trkpt lat="49.0731290" lon="6.0780010"><ele>175.0</ele></trkpt>
    <trkpt lat="49.0731770" lon="6.0779480"><ele>175.5</ele></trkpt>
    <trkpt lat="49.0732470" lon="6.0779050"><ele>175.8</ele></trkpt>
    <trkpt lat="49.0733200" lon="6.0778720"><ele>175.8</ele></trkpt>
    <trkpt lat="49.0735420" lon="6.0778230"><ele>174.5</ele></trkpt>
    <trkpt lat="49.0736310" lon="6.0777530"><ele>173.8</ele></trkpt>
    <trkpt lat="49.0736410" lon="6.0777350"><ele>173.8</ele></trkpt>
    <trkpt lat="49.0736610" lon="6.0776520"><ele>173.8</ele></trkpt>
    <trkpt lat="49.0736540" lon="6.0775610"><ele>173.8</ele></trkpt>
    <trkpt lat="49.0735570" lon="6.0773800"><ele>173.2</ele></trkpt>
    <trkpt lat="49.0729070" lon="6.0765330"><ele>172.0</ele></trkpt>
    <trkpt lat="49.0721000" lon="6.0754180"><ele>172.2</ele></trkpt>
    <trkpt lat="49.0714650" lon="6.0746270"><ele>172.5</ele></trkpt>
    <trkpt lat="49.0711920" lon="6.0743400"><ele>172.5</ele></trkpt>
    <trkpt lat="49.0706660" lon="6.0739070"><ele>172.5</ele></trkpt>
    <trkpt lat="49.0705700" lon="6.0738440"><ele>172.8</ele></trkpt>
    <trkpt lat="49.0704620" lon="6.0737470"><ele>172.0</ele></trkpt>
    <trkpt lat="49.0697860" lon="6.0730890"><ele>171.2</ele></trkpt>
    <trkpt lat="49.0691020" lon="6.0725100"><ele>171.2</ele></trkpt>
    <trkpt lat="49.0679070" lon="6.0715820"><ele>171.8</ele></trkpt>
    <trkpt lat="49.0675440" lon="6.0713410"><ele>171.2</ele></trkpt>
    <trkpt lat="49.0674230" lon="6.0712400"><ele>171.8</ele></trkpt>
    <trkpt lat="49.0672880" lon="6.0711510"><ele>172.5</ele></trkpt>
    <trkpt lat="49.0671400" lon="6.0710670"><ele>172.5</ele></trkpt>
    <trkpt lat="49.0655760" lon="6.0704780"><ele>171.0</ele></trkpt>
    <trkpt lat="49.0653630" lon="6.0704780"><ele>170.5</ele></trkpt>
    <trkpt lat="49.0641310" lon="6.0699490"><ele>172.2</ele></trkpt>
    <trkpt lat="49.0638230" lon="6.0697890"><ele>171.8</ele></trkpt>
    <trkpt lat="49.0632440" lon="6.0695690"><ele>171.8</ele></trkpt>
    <trkpt lat="49.0628530" lon="6.0693950"><ele>172.5</ele></trkpt>
    <trkpt lat="49.0624920" lon="6.0692020"><ele>173.5</ele></trkpt>
    <trkpt lat="49.0621540" lon="6.0689500"><ele>172.2</ele></trkpt>
    <trkpt lat="49.0618260" lon="6.0686570"><ele>172.2</ele></trkpt>
    <trkpt lat="49.0613310" lon="6.0681120"><ele>172.2</ele></trkpt>
    <trkpt lat="49.0608490" lon="6.0673940"><ele>173.0</ele></trkpt>
    <trkpt lat="49.0604040" lon="6.0665310"><ele>172.0</ele></trkpt>
    <trkpt lat="49.0599710" lon="6.0659050"><ele>171.5</ele></trkpt>
    <trkpt lat="49.0595780" lon="6.0652950"><ele>171.8</ele></trkpt>
    <trkpt lat="49.0592750" lon="6.0649360"><ele>171.2</ele></trkpt>
    <trkpt lat="49.0589890" lon="6.0645320"><ele>171.5</ele></trkpt>
    <trkpt lat="49.0586820" lon="6.0642670"><ele>171.0</ele></trkpt>
    <trkpt lat="49.0582690" lon="6.0637810"><ele>171.8</ele></trkpt>
    <trkpt lat="49.0580880" lon="6.0635870"><ele>171.5</ele></trkpt>
    <trkpt lat="49.0574600" lon="6.0630880"><ele>173.2</ele></trkpt>
    <trkpt lat="49.0572590" lon="6.0629580"><ele>172.2</ele></trkpt>
    <trkpt lat="49.0571160" lon="6.0628830"><ele>172.0</ele></trkpt>
    <trkpt lat="49.0570500" lon="6.0628370"><ele>172.2</ele></trkpt>
    <trkpt lat="49.0569100" lon="6.0627690"><ele>171.8</ele></trkpt>
    <trkpt lat="49.0566650" lon="6.0626310"><ele>172.5</ele></trkpt>
    <trkpt lat="49.0564010" lon="6.0625260"><ele>171.0</ele></trkpt>
    <trkpt lat="49.0562940" lon="6.0624940"><ele>171.0</ele></trkpt>
    <trkpt lat="49.0560740" lon="6.0624680"><ele>171.2</ele></trkpt>
    <trkpt lat="49.0559270" lon="6.0624740"><ele>171.0</ele></trkpt>
    <trkpt lat="49.0558600" lon="6.0624660"><ele>171.0</ele></trkpt>
    <trkpt lat="49.0558170" lon="6.0624460"><ele>171.0</ele></trkpt>
    <trkpt lat="49.0557710" lon="6.0624100"><ele>171.2</ele></trkpt>
    <trkpt lat="49.0555690" lon="6.0622040"><ele>171.0</ele></trkpt>
    <trkpt lat="49.0554960" lon="6.0621600"><ele>171.5</ele></trkpt>
    <trkpt lat="49.0553250" lon="6.0621120"><ele>171.8</ele></trkpt>
    <trkpt lat="49.0551280" lon="6.0620700"><ele>171.8</ele></trkpt>
    <trkpt lat="49.0549470" lon="6.0620460"><ele>171.5</ele></trkpt>
    <trkpt lat="49.0544010" lon="6.0618740"><ele>171.5</ele></trkpt>
    <trkpt lat="49.0541720" lon="6.0618290"><ele>171.2</ele></trkpt>
    <trkpt lat="49.0536930" lon="6.0616420"><ele>171.2</ele></trkpt>
    <trkpt lat="49.0522080" lon="6.0612040"><ele>171.5</ele></trkpt>
    <trkpt lat="49.0521310" lon="6.0611040"><ele>171.5</ele></trkpt>
    <trkpt lat="49.0504540" lon="6.0605460"><ele>172.0</ele></trkpt>
    <trkpt lat="49.0504140" lon="6.0605480"><ele>172.0</ele></trkpt>
    <trkpt lat="49.0501760" lon="6.0604240"><ele>172.8</ele></trkpt>
    <trkpt lat="49.0480920" lon="6.0597350"><ele>171.2</ele></trkpt>
    <trkpt lat="49.0479800" lon="6.0597490"><ele>171.2</ele></trkpt>
    <trkpt lat="49.0478760" lon="6.0598220"><ele>171.5</ele></trkpt>
    <trkpt lat="49.0478010" lon="6.0599670"><ele>171.8</ele></trkpt>
    <trkpt lat="49.0477650" lon="6.0598400"><ele>171.8</ele></trkpt>
    <trkpt lat="49.0477700" lon="6.0596480"><ele>172.5</ele></trkpt>
    <trkpt lat="49.0477850" lon="6.0595010"><ele>173.5</ele></trkpt>
    <trkpt lat="49.0478300" lon="6.0592080"><ele>173.0</ele></trkpt>
    <trkpt lat="49.0478690" lon="6.0589640"><ele>172.8</ele></trkpt>
    <trkpt lat="49.0473250" lon="6.0588190"><ele>173.0</ele></trkpt>
    <trkpt lat="49.0472700" lon="6.0586730"><ele>173.0</ele></trkpt>
    <trkpt lat="49.0472400" lon="6.0585330"><ele>173.0</ele></trkpt>
    <trkpt lat="49.0472350" lon="6.0583640"><ele>173.0</ele></trkpt>
    <trkpt lat="49.0472930" lon="6.0579570"><ele>174.0</ele></trkpt>
    <trkpt lat="49.0474070" lon="6.0572820"><ele>178.2</ele></trkpt>
    <trkpt lat="49.0475450" lon="6.0565780"><ele>183.5</ele></trkpt>
    <trkpt lat="49.0476480" lon="6.0559240"><ele>189.5</ele></trkpt>
    <trkpt lat="49.0479860" lon="6.0560410"><ele>188.8</ele></trkpt>
    <trkpt lat="49.0481010" lon="6.0560290"><ele>189.0</ele></trkpt>
    <trkpt lat="49.0479860" lon="6.0560410"><ele>188.8</ele></trkpt>
    <trkpt lat="49.0476480" lon="6.0559240"><ele>189.5</ele></trkpt>
    <trkpt lat="49.0476690" lon="6.0555360"><ele>193.5</ele></trkpt>
    <trkpt lat="49.0476860" lon="6.0552150"><ele>198.2</ele></trkpt>
    <trkpt lat="49.0477100" lon="6.0549140"><ele>200.2</ele></trkpt>
    <trkpt lat="49.0476580" lon="6.0546410"><ele>204.0</ele></trkpt>
    <trkpt lat="49.0475950" lon="6.0542950"><ele>208.8</ele></trkpt>
    <trkpt lat="49.0475750" lon="6.0541690"><ele>209.8</ele></trkpt>
    <trkpt lat="49.0475020" lon="6.0537000"><ele>215.0</ele></trkpt>
    <trkpt lat="49.0475210" lon="6.0535470"><ele>217.0</ele></trkpt>
    <trkpt lat="49.0477560" lon="6.0533470"><ele>219.8</ele></trkpt>
    <trkpt lat="49.0478570" lon="6.0532240"><ele>222.0</ele></trkpt>
    <trkpt lat="49.0479200" lon="6.0530070"><ele>225.0</ele></trkpt>
    <trkpt lat="49.0479470" lon="6.0526710"><ele>228.8</ele></trkpt>
    <trkpt lat="49.0479440" lon="6.0523870"><ele>232.0</ele></trkpt>
    <trkpt lat="49.0479160" lon="6.0522320"><ele>233.8</ele></trkpt>
    <trkpt lat="49.0478920" lon="6.0521350"><ele>234.5</ele></trkpt>
    <trkpt lat="49.0478270" lon="6.0520090"><ele>235.5</ele></trkpt>
    <trkpt lat="49.0476280" lon="6.0518630"><ele>238.8</ele></trkpt>
    <trkpt lat="49.0475780" lon="6.0518390"><ele>239.5</ele></trkpt>
    <trkpt lat="49.0475220" lon="6.0518290"><ele>240.0</ele></trkpt>
    <trkpt lat="49.0475230" lon="6.0516500"><ele>241.2</ele></trkpt>
    <trkpt lat="49.0475350" lon="6.0515620"><ele>243.2</ele></trkpt>
    <trkpt lat="49.0476840" lon="6.0512440"><ele>248.8</ele></trkpt>
    <trkpt lat="49.0477840" lon="6.0510130"><ele>252.0</ele></trkpt>
    <trkpt lat="49.0478480" lon="6.0508300"><ele>255.0</ele></trkpt>
    <trkpt lat="49.0479700" lon="6.0504060"><ele>258.8</ele></trkpt>
    <trkpt lat="49.0480250" lon="6.0501420"><ele>261.0</ele></trkpt>
    <trkpt lat="49.0480320" lon="6.0499570"><ele>262.2</ele></trkpt>
    <trkpt lat="49.0479880" lon="6.0497040"><ele>264.5</ele></trkpt>
    <trkpt lat="49.0479770" lon="6.0495490"><ele>265.0</ele></trkpt>
    <trkpt lat="49.0479820" lon="6.0493650"><ele>265.8</ele></trkpt>
    <trkpt lat="49.0482760" lon="6.0477440"><ele>272.5</ele></trkpt>
    <trkpt lat="49.0484120" lon="6.0466960"><ele>279.0</ele></trkpt>
    <trkpt lat="49.0482990" lon="6.0466650"><ele>282.2</ele></trkpt>
    <trkpt lat="49.0482210" lon="6.0466660"><ele>285.0</ele></trkpt>
    <trkpt lat="49.0481720" lon="6.0466450"><ele>287.0</ele></trkpt>
    <trkpt lat="49.0481350" lon="6.0465940"><ele>289.0</ele></trkpt>
    <trkpt lat="49.0481080" lon="6.0464680"><ele>291.8</ele></trkpt>
    <trkpt lat="49.0480490" lon="6.0464480"><ele>294.2</ele></trkpt>
    <trkpt lat="49.0480130" lon="6.0464690"><ele>295.5</ele></trkpt>
    <trkpt lat="49.0479840" lon="6.0464570"><ele>297.0</ele></trkpt>
    <trkpt lat="49.0479670" lon="6.0464130"><ele>298.2</ele></trkpt>
    <trkpt lat="49.0479710" lon="6.0463090"><ele>299.8</ele></trkpt>
    <trkpt lat="49.0479630" lon="6.0462770"><ele>300.5</ele></trkpt>
    <trkpt lat="49.0479320" lon="6.0462770"><ele>301.8</ele></trkpt>
    <trkpt lat="49.0479030" lon="6.0462950"><ele>302.8</ele></trkpt>
    <trkpt lat="49.0478860" lon="6.0463480"><ele>302.8</ele></trkpt>
    <trkpt lat="49.0478800" lon="6.0463980"><ele>302.2</ele></trkpt>
    <trkpt lat="49.0478600" lon="6.0464130"><ele>303.0</ele></trkpt>
    <trkpt lat="49.0478160" lon="6.0463990"><ele>305.0</ele></trkpt>
    <trkpt lat="49.0477440" lon="6.0463270"><ele>308.2</ele></trkpt>
    <trkpt lat="49.0477160" lon="6.0462010"><ele>310.2</ele></trkpt>
    <trkpt lat="49.0476970" lon="6.0461610"><ele>311.2</ele></trkpt>
    <trkpt lat="49.0476500" lon="6.0461500"><ele>312.2</ele></trkpt>
    <trkpt lat="49.0475830" lon="6.0461750"><ele>313.5</ele></trkpt>
    <trkpt lat="49.0475210" lon="6.0461630"><ele>315.0</ele></trkpt>
    <trkpt lat="49.0474870" lon="6.0460990"><ele>316.2</ele></trkpt>
    <trkpt lat="49.0474690" lon="6.0459590"><ele>317.5</ele></trkpt>
    <trkpt lat="49.0474340" lon="6.0458600"><ele>318.8</ele></trkpt>
    <trkpt lat="49.0472050" lon="6.0456370"><ele>322.8</ele></trkpt>
    <trkpt lat="49.0471000" lon="6.0460840"><ele>322.8</ele></trkpt>
    <trkpt lat="49.0469330" lon="6.0468850"><ele>320.5</ele></trkpt>
    <trkpt lat="49.0467400" lon="6.0474960"><ele>318.2</ele></trkpt>
    <trkpt lat="49.0465290" lon="6.0479710"><ele>315.5</ele></trkpt>
    <trkpt lat="49.0463190" lon="6.0483380"><ele>314.8</ele></trkpt>
    <trkpt lat="49.0460650" lon="6.0486560"><ele>313.5</ele></trkpt>
    <trkpt lat="49.0457700" lon="6.0488850"><ele>312.8</ele></trkpt>
    <trkpt lat="49.0454270" lon="6.0490730"><ele>313.0</ele></trkpt>
    <trkpt lat="49.0452310" lon="6.0491280"><ele>313.5</ele></trkpt>
    <trkpt lat="49.0449430" lon="6.0491200"><ele>314.0</ele></trkpt>
    <trkpt lat="49.0445850" lon="6.0491310"><ele>315.0</ele></trkpt>
    <trkpt lat="49.0443820" lon="6.0490570"><ele>315.8</ele></trkpt>
    <trkpt lat="49.0441410" lon="6.0487860"><ele>320.2</ele></trkpt>
    <trkpt lat="49.0438830" lon="6.0485530"><ele>323.2</ele></trkpt>
    <trkpt lat="49.0436420" lon="6.0485060"><ele>323.8</ele></trkpt>
    <trkpt lat="49.0434850" lon="6.0484370"><ele>324.0</ele></trkpt>
    <trkpt lat="49.0433520" lon="6.0483740"><ele>324.5</ele></trkpt>
    <trkpt lat="49.0431300" lon="6.0482670"><ele>324.5</ele></trkpt>
    <trkpt lat="49.0429250" lon="6.0481200"><ele>325.2</ele></trkpt>
    <trkpt lat="49.0426960" lon="6.0479690"><ele>326.0</ele></trkpt>
    <trkpt lat="49.0426740" lon="6.0479550"><ele>325.8</ele></trkpt>
    <trkpt lat="49.0420420" lon="6.0475450"><ele>324.2</ele></trkpt>
    <trkpt lat="49.0408400" lon="6.0466650"><ele>323.0</ele></trkpt>
    <trkpt lat="49.0405290" lon="6.0464400"><ele>321.8</ele></trkpt>
    <trkpt lat="49.0402660" lon="6.0462400"><ele>322.0</ele></trkpt>
    <trkpt lat="49.0405290" lon="6.0464400"><ele>321.8</ele></trkpt>
    <trkpt lat="49.0408400" lon="6.0466650"><ele>323.0</ele></trkpt>
    <trkpt lat="49.0420420" lon="6.0475450"><ele>324.2</ele></trkpt>
    <trkpt lat="49.0426740" lon="6.0479550"><ele>325.8</ele></trkpt>
    <trkpt lat="49.0431620" lon="6.0463930"><ele>330.2</ele></trkpt>
    <trkpt lat="49.0432540" lon="6.0461360"><ele>330.5</ele></trkpt>
    <trkpt lat="49.0436550" lon="6.0449480"><ele>334.0</ele></trkpt>
    <trkpt lat="49.0437600" lon="6.0447360"><ele>334.0</ele></trkpt>
    <trkpt lat="49.0441360" lon="6.0444300"><ele>334.0</ele></trkpt>
    <trkpt lat="49.0445190" lon="6.0440930"><ele>335.0</ele></trkpt>
    <trkpt lat="49.0448850" lon="6.0437550"><ele>334.2</ele></trkpt>
    <trkpt lat="49.0453140" lon="6.0433890"><ele>333.2</ele></trkpt>
    <trkpt lat="49.0454120" lon="6.0432570"><ele>333.2</ele></trkpt>
    <trkpt lat="49.0454760" lon="6.0431990"><ele>333.5</ele></trkpt>
    <trkpt lat="49.0456190" lon="6.0431090"><ele>333.8</ele></trkpt>
    <trkpt lat="49.0456600" lon="6.0430700"><ele>333.5</ele></trkpt>
    <trkpt lat="49.0456850" lon="6.0430050"><ele>333.5</ele></trkpt>
    <trkpt lat="49.0456910" lon="6.0429370"><ele>333.5</ele></trkpt>
    <trkpt lat="49.0456820" lon="6.0428690"><ele>333.8</ele></trkpt>
    <trkpt lat="49.0456410" lon="6.0428080"><ele>333.8</ele></trkpt>
    <trkpt lat="49.0456240" lon="6.0427470"><ele>333.8</ele></trkpt>
    <trkpt lat="49.0456340" lon="6.0426790"><ele>333.5</ele></trkpt>
    <trkpt lat="49.0456680" lon="6.0426210"><ele>333.2</ele></trkpt>
    <trkpt lat="49.0457180" lon="6.0426270"><ele>333.2</ele></trkpt>
    <trkpt lat="49.0457620" lon="6.0426490"><ele>333.5</ele></trkpt>
    <trkpt lat="49.0458450" lon="6.0427940"><ele>333.8</ele></trkpt>
    <trkpt lat="49.0458810" lon="6.0428400"><ele>333.5</ele></trkpt>
    <trkpt lat="49.0459300" lon="6.0428460"><ele>333.2</ele></trkpt>
    <trkpt lat="49.0459790" lon="6.0428190"><ele>333.2</ele></trkpt>
    <trkpt lat="49.0462100" lon="6.0425880"><ele>333.0</ele></trkpt>
    <trkpt lat="49.0464990" lon="6.0423000"><ele>333.0</ele></trkpt>
    <trkpt lat="49.0475310" lon="6.0415030"><ele>328.8</ele></trkpt>
    <trkpt lat="49.0486100" lon="6.0405130"><ele>323.0</ele></trkpt>
    <trkpt lat="49.0488710" lon="6.0403860"><ele>322.0</ele></trkpt>
    <trkpt lat="49.0489930" lon="6.0403650"><ele>322.0</ele></trkpt>
    <trkpt lat="49.0490980" lon="6.0403470"><ele>322.0</ele></trkpt>
    <trkpt lat="49.0495810" lon="6.0403530"><ele>321.5</ele></trkpt>
    <trkpt lat="49.0498480" lon="6.0403400"><ele>321.8</ele></trkpt>
    <trkpt lat="49.0503750" lon="6.0403370"><ele>321.8</ele></trkpt>
    <trkpt lat="49.0507880" lon="6.0403830"><ele>321.5</ele></trkpt>
    <trkpt lat="49.0512280" lon="6.0404130"><ele>321.5</ele></trkpt>
    <trkpt lat="49.0513580" lon="6.0403990"><ele>321.5</ele></trkpt>
    <trkpt lat="49.0517100" lon="6.0403370"><ele>322.5</ele></trkpt>
    <trkpt lat="49.0519420" lon="6.0403200"><ele>323.5</ele></trkpt>
    <trkpt lat="49.0523890" lon="6.0403030"><ele>324.8</ele></trkpt>
    <trkpt lat="49.0527100" lon="6.0400340"><ele>326.8</ele></trkpt>
    <trkpt lat="49.0529840" lon="6.0398260"><ele>327.5</ele></trkpt>
    <trkpt lat="49.0532920" lon="6.0395070"><ele>328.5</ele></trkpt>
    <trkpt lat="49.0535380" lon="6.0392320"><ele>329.8</ele></trkpt>
    <trkpt lat="49.0537570" lon="6.0390930"><ele>332.2</ele></trkpt>
    <trkpt lat="49.0542080" lon="6.0388070"><ele>332.2</ele></trkpt>
    <trkpt lat="49.0541710" lon="6.0389820"><ele>331.5</ele></trkpt>
    <trkpt lat="49.0541170" lon="6.0391760"><ele>330.8</ele></trkpt>
    <trkpt lat="49.0540580" lon="6.0393370"><ele>329.8</ele></trkpt>
    <trkpt lat="49.0538960" lon="6.0396560"><ele>327.2</ele></trkpt>
    <trkpt lat="49.0537750" lon="6.0398570"><ele>326.0</ele></trkpt>
    <trkpt lat="49.0537240" lon="6.0399530"><ele>325.2</ele></trkpt>
    <trkpt lat="49.0536430" lon="6.0401550"><ele>323.8</ele></trkpt>
    <trkpt lat="49.0536540" lon="6.0404330"><ele>321.8</ele></trkpt>
    <trkpt lat="49.0537100" lon="6.0409250"><ele>318.2</ele></trkpt>
    <trkpt lat="49.0538470" lon="6.0414760"><ele>312.2</ele></trkpt>
    <trkpt lat="49.0540540" lon="6.0419640"><ele>302.8</ele></trkpt>
    <trkpt lat="49.0541200" lon="6.0420670"><ele>300.2</ele></trkpt>
    <trkpt lat="49.0542580" lon="6.0422820"><ele>294.8</ele></trkpt>
    <trkpt lat="49.0546210" lon="6.0425670"><ele>286.5</ele></trkpt>
    <trkpt lat="49.0549070" lon="6.0426900"><ele>285.5</ele></trkpt>
    <trkpt lat="49.0552030" lon="6.0428410"><ele>283.5</ele></trkpt>
    <trkpt lat="49.0552590" lon="6.0428950"><ele>282.8</ele></trkpt>
    <trkpt lat="49.0552970" lon="6.0429710"><ele>281.5</ele></trkpt>
    <trkpt lat="49.0552410" lon="6.0429830"><ele>281.0</ele></trkpt>
    <trkpt lat="49.0551720" lon="6.0429810"><ele>280.8</ele></trkpt>
    <trkpt lat="49.0547520" lon="6.0428450"><ele>281.8</ele></trkpt>
    <trkpt lat="49.0544270" lon="6.0428180"><ele>281.2</ele></trkpt>
    <trkpt lat="49.0542940" lon="6.0431620"><ele>276.0</ele></trkpt>
    <trkpt lat="49.0542310" lon="6.0434690"><ele>271.8</ele></trkpt>
    <trkpt lat="49.0542320" lon="6.0437710"><ele>268.0</ele></trkpt>
    <trkpt lat="49.0541790" lon="6.0440900"><ele>264.0</ele></trkpt>
    <trkpt lat="49.0540040" lon="6.0450230"><ele>255.2</ele></trkpt>
    <trkpt lat="49.0539430" lon="6.0452290"><ele>254.0</ele></trkpt>
    <trkpt lat="49.0538440" lon="6.0455600"><ele>251.2</ele></trkpt>
    <trkpt lat="49.0537660" lon="6.0460520"><ele>246.5</ele></trkpt>
    <trkpt lat="49.0537740" lon="6.0462490"><ele>243.8</ele></trkpt>
    <trkpt lat="49.0538210" lon="6.0464500"><ele>240.2</ele></trkpt>
    <trkpt lat="49.0538340" lon="6.0466630"><ele>237.0</ele></trkpt>
    <trkpt lat="49.0538290" lon="6.0476460"><ele>227.0</ele></trkpt>
    <trkpt lat="49.0538700" lon="6.0481270"><ele>223.5</ele></trkpt>
    <trkpt lat="49.0538700" lon="6.0483520"><ele>221.2</ele></trkpt>
    <trkpt lat="49.0538210" lon="6.0487310"><ele>219.5</ele></trkpt>
    <trkpt lat="49.0538200" lon="6.0489300"><ele>218.0</ele></trkpt>
    <trkpt lat="49.0538400" lon="6.0491570"><ele>215.8</ele></trkpt>
    <trkpt lat="49.0538440" lon="6.0492930"><ele>214.8</ele></trkpt>
    <trkpt lat="49.0538620" lon="6.0501570"><ele>207.5</ele></trkpt>
    <trkpt lat="49.0538340" lon="6.0504420"><ele>204.8</ele></trkpt>
    <trkpt lat="49.0538370" lon="6.0507120"><ele>202.0</ele></trkpt>
    <trkpt lat="49.0539110" lon="6.0514460"><ele>197.0</ele></trkpt>
    <trkpt lat="49.0538880" lon="6.0516130"><ele>196.0</ele></trkpt>
    <trkpt lat="49.0539560" lon="6.0519270"><ele>195.0</ele></trkpt>
    <trkpt lat="49.0540560" lon="6.0522320"><ele>194.8</ele></trkpt>
    <trkpt lat="49.0541200" lon="6.0525840"><ele>194.2</ele></trkpt>
    <trkpt lat="49.0541380" lon="6.0527360"><ele>193.8</ele></trkpt>
    <trkpt lat="49.0541230" lon="6.0528570"><ele>193.2</ele></trkpt>
    <trkpt lat="49.0540510" lon="6.0530430"><ele>192.0</ele></trkpt>
    <trkpt lat="49.0540410" lon="6.0531130"><ele>191.8</ele></trkpt>
    <trkpt lat="49.0540510" lon="6.0531840"><ele>191.5</ele></trkpt>
    <trkpt lat="49.0542430" lon="6.0538310"><ele>190.5</ele></trkpt>
    <trkpt lat="49.0542470" lon="6.0539220"><ele>190.2</ele></trkpt>
    <trkpt lat="49.0542090" lon="6.0540970"><ele>188.8</ele></trkpt>
    <trkpt lat="49.0542110" lon="6.0542260"><ele>188.5</ele></trkpt>
    <trkpt lat="49.0542380" lon="6.0544250"><ele>188.5</ele></trkpt>
    <trkpt lat="49.0542810" lon="6.0546080"><ele>188.0</ele></trkpt>
    <trkpt lat="49.0545440" lon="6.0554380"><ele>185.2</ele></trkpt>
    <trkpt lat="49.0543270" lon="6.0556560"><ele>182.5</ele></trkpt>
    <trkpt lat="49.0538820" lon="6.0561430"><ele>176.8</ele></trkpt>
    <trkpt lat="49.0536350" lon="6.0564160"><ele>174.8</ele></trkpt>
    <trkpt lat="49.0539120" lon="6.0572320"><ele>173.0</ele></trkpt>
    <trkpt lat="49.0541150" lon="6.0580830"><ele>172.8</ele></trkpt>
    <trkpt lat="49.0541640" lon="6.0581210"><ele>172.8</ele></trkpt>
    <trkpt lat="49.0544210" lon="6.0583260"><ele>173.0</ele></trkpt>
    <trkpt lat="49.0546560" lon="6.0584270"><ele>172.5</ele></trkpt>
    <trkpt lat="49.0548810" lon="6.0585400"><ele>172.0</ele></trkpt>
    <trkpt lat="49.0551930" lon="6.0587240"><ele>172.2</ele></trkpt>
    <trkpt lat="49.0554910" lon="6.0583660"><ele>172.0</ele></trkpt>
    <trkpt lat="49.0556020" lon="6.0582200"><ele>172.2</ele></trkpt>
    <trkpt lat="49.0556650" lon="6.0582010"><ele>172.2</ele></trkpt>
    <trkpt lat="49.0560610" lon="6.0583250"><ele>172.0</ele></trkpt>
    <trkpt lat="49.0563040" lon="6.0582940"><ele>172.5</ele></trkpt>
    <trkpt lat="49.0564450" lon="6.0584160"><ele>172.8</ele></trkpt>
    <trkpt lat="49.0565370" lon="6.0582470"><ele>173.0</ele></trkpt>
    <trkpt lat="49.0565660" lon="6.0582830"><ele>173.0</ele></trkpt>
    <trkpt lat="49.0566210" lon="6.0583440"><ele>172.8</ele></trkpt>
    <trkpt lat="49.0565660" lon="6.0582830"><ele>173.0</ele></trkpt>
    <trkpt lat="49.0565370" lon="6.0582470"><ele>173.0</ele></trkpt>
    <trkpt lat="49.0569240" lon="6.0575280"><ele>176.8</ele></trkpt>
    <trkpt lat="49.0572460" lon="6.0577310"><ele>177.2</ele></trkpt>
    <trkpt lat="49.0573880" lon="6.0578210"><ele>176.5</ele></trkpt>
    <trkpt lat="49.0577960" lon="6.0580170"><ele>176.0</ele></trkpt>
    <trkpt lat="49.0578530" lon="6.0580530"><ele>176.0</ele></trkpt>
    <trkpt lat="49.0579170" lon="6.0580960"><ele>175.8</ele></trkpt>
    <trkpt lat="49.0579320" lon="6.0580810"><ele>175.8</ele></trkpt>
    <trkpt lat="49.0579500" lon="6.0580770"><ele>175.8</ele></trkpt>
    <trkpt lat="49.0579680" lon="6.0580850"><ele>175.8</ele></trkpt>
    <trkpt lat="49.0579890" lon="6.0581290"><ele>175.5</ele></trkpt>
    <trkpt lat="49.0580560" lon="6.0581060"><ele>175.8</ele></trkpt>
    <trkpt lat="49.0580980" lon="6.0581110"><ele>175.8</ele></trkpt>
    <trkpt lat="49.0582710" lon="6.0580250"><ele>177.0</ele></trkpt>
    <trkpt lat="49.0585770" lon="6.0578920"><ele>179.0</ele></trkpt>
    <trkpt lat="49.0586650" lon="6.0578680"><ele>179.5</ele></trkpt>
    <trkpt lat="49.0589270" lon="6.0579320"><ele>181.0</ele></trkpt>
    <trkpt lat="49.0591030" lon="6.0580510"><ele>180.8</ele></trkpt>
    <trkpt lat="49.0591510" lon="6.0580980"><ele>180.5</ele></trkpt>
    <trkpt lat="49.0593390" lon="6.0582840"><ele>179.2</ele></trkpt>
    <trkpt lat="49.0595420" lon="6.0584620"><ele>178.2</ele></trkpt>
    <trkpt lat="49.0597070" lon="6.0585610"><ele>177.5</ele></trkpt>
    <trkpt lat="49.0598620" lon="6.0586090"><ele>177.0</ele></trkpt>
    <trkpt lat="49.0601470" lon="6.0586870"><ele>177.0</ele></trkpt>
    <trkpt lat="49.0604020" lon="6.0587390"><ele>178.0</ele></trkpt>
    <trkpt lat="49.0606220" lon="6.0587600"><ele>179.0</ele></trkpt>
    <trkpt lat="49.0607260" lon="6.0587550"><ele>179.5</ele></trkpt>
    <trkpt lat="49.0607720" lon="6.0587540"><ele>179.8</ele></trkpt>
    <trkpt lat="49.0609370" lon="6.0587050"><ele>180.2</ele></trkpt>
    <trkpt lat="49.0611170" lon="6.0587070"><ele>181.0</ele></trkpt>
    <trkpt lat="49.0612200" lon="6.0587300"><ele>181.5</ele></trkpt>
    <trkpt lat="49.0612970" lon="6.0587470"><ele>182.0</ele></trkpt>
    <trkpt lat="49.0614450" lon="6.0588140"><ele>182.8</ele></trkpt>
    <trkpt lat="49.0615360" lon="6.0588220"><ele>183.8</ele></trkpt>
    <trkpt lat="49.0617420" lon="6.0589070"><ele>185.5</ele></trkpt>
    <trkpt lat="49.0619940" lon="6.0590430"><ele>188.2</ele></trkpt>
    <trkpt lat="49.0620350" lon="6.0590540"><ele>189.0</ele></trkpt>
    <trkpt lat="49.0621950" lon="6.0594090"><ele>189.8</ele></trkpt>
    <trkpt lat="49.0623540" lon="6.0597030"><ele>189.0</ele></trkpt>
    <trkpt lat="49.0626670" lon="6.0600370"><ele>190.2</ele></trkpt>
    <trkpt lat="49.0628820" lon="6.0604070"><ele>187.0</ele></trkpt>
    <trkpt lat="49.0631530" lon="6.0608360"><ele>187.2</ele></trkpt>
    <trkpt lat="49.0633540" lon="6.0612370"><ele>186.8</ele></trkpt>
    <trkpt lat="49.0635150" lon="6.0616790"><ele>184.8</ele></trkpt>
    <trkpt lat="49.0635310" lon="6.0617390"><ele>184.8</ele></trkpt>
    <trkpt lat="49.0635470" lon="6.0618050"><ele>184.5</ele></trkpt>
    <trkpt lat="49.0636420" lon="6.0619990"><ele>184.5</ele></trkpt>
    <trkpt lat="49.0638680" lon="6.0623130"><ele>184.0</ele></trkpt>
    <trkpt lat="49.0640910" lon="6.0626200"><ele>183.8</ele></trkpt>
    <trkpt lat="49.0641450" lon="6.0627490"><ele>183.8</ele></trkpt>
    <trkpt lat="49.0641550" lon="6.0628310"><ele>183.5</ele></trkpt>
    <trkpt lat="49.0641300" lon="6.0629030"><ele>182.8</ele></trkpt>
    <trkpt lat="49.0640900" lon="6.0629620"><ele>182.0</ele></trkpt>
    <trkpt lat="49.0640220" lon="6.0630350"><ele>180.5</ele></trkpt>
    <trkpt lat="49.0640510" lon="6.0631320"><ele>180.2</ele></trkpt>
    <trkpt lat="49.0641630" lon="6.0633710"><ele>180.8</ele></trkpt>
    <trkpt lat="49.0643170" lon="6.0636060"><ele>182.0</ele></trkpt>
    <trkpt lat="49.0647370" lon="6.0643730"><ele>182.8</ele></trkpt>
    <trkpt lat="49.0648180" lon="6.0644850"><ele>183.5</ele></trkpt>
    <trkpt lat="49.0648960" lon="6.0646350"><ele>184.0</ele></trkpt>
    <trkpt lat="49.0649560" lon="6.0646910"><ele>184.5</ele></trkpt>
    <trkpt lat="49.0649850" lon="6.0646820"><ele>185.0</ele></trkpt>
    <trkpt lat="49.0650580" lon="6.0646160"><ele>186.5</ele></trkpt>
    <trkpt lat="49.0650800" lon="6.0646180"><ele>187.0</ele></trkpt>
    <trkpt lat="49.0651690" lon="6.0647620"><ele>187.5</ele></trkpt>
    <trkpt lat="49.0654270" lon="6.0651490"><ele>188.0</ele></trkpt>
    <trkpt lat="49.0656290" lon="6.0655150"><ele>188.5</ele></trkpt>
    <trkpt lat="49.0659490" lon="6.0660200"><ele>189.8</ele></trkpt>
    <trkpt lat="49.0660420" lon="6.0661700"><ele>190.2</ele></trkpt>
    <trkpt lat="49.0661460" lon="6.0663650"><ele>190.5</ele></trkpt>
    <trkpt lat="49.0663590" lon="6.0666930"><ele>190.0</ele></trkpt>
    <trkpt lat="49.0662920" lon="6.0668750"><ele>186.5</ele></trkpt>
    <trkpt lat="49.0667550" lon="6.0674730"><ele>185.8</ele></trkpt>
    <trkpt lat="49.0669600" lon="6.0676220"><ele>186.5</ele></trkpt>
    <trkpt lat="49.0673850" lon="6.0680650"><ele>186.8</ele></trkpt>
    <trkpt lat="49.0675720" lon="6.0682710"><ele>186.5</ele></trkpt>
    <trkpt lat="49.0676980" lon="6.0683910"><ele>186.5</ele></trkpt>
    <trkpt lat="49.0677870" lon="6.0684970"><ele>186.2</ele></trkpt>
    <trkpt lat="49.0679220" lon="6.0686950"><ele>186.5</ele></trkpt>
    <trkpt lat="49.0681530" lon="6.0690000"><ele>187.5</ele></trkpt>
    <trkpt lat="49.0681890" lon="6.0690290"><ele>187.5</ele></trkpt>
    <trkpt lat="49.0683660" lon="6.0691490"><ele>188.2</ele></trkpt>
    <trkpt lat="49.0684130" lon="6.0691970"><ele>188.2</ele></trkpt>
    <trkpt lat="49.0685410" lon="6.0693600"><ele>187.5</ele></trkpt>
    <trkpt lat="49.0687750" lon="6.0695690"><ele>187.0</ele></trkpt>
    <trkpt lat="49.0688840" lon="6.0696590"><ele>186.5</ele></trkpt>
    <trkpt lat="49.0689040" lon="6.0696850"><ele>186.5</ele></trkpt>
    <trkpt lat="49.0689360" lon="6.0696390"><ele>187.8</ele></trkpt>
    <trkpt lat="49.0689500" lon="6.0696370"><ele>188.0</ele></trkpt>
    <trkpt lat="49.0690560" lon="6.0698610"><ele>188.0</ele></trkpt>
    <trkpt lat="49.0692590" lon="6.0700620"><ele>188.2</ele></trkpt>
    <trkpt lat="49.0693910" lon="6.0702320"><ele>187.8</ele></trkpt>
    <trkpt lat="49.0695470" lon="6.0704580"><ele>187.0</ele></trkpt>
    <trkpt lat="49.0697450" lon="6.0707660"><ele>186.2</ele></trkpt>
    <trkpt lat="49.0699680" lon="6.0711080"><ele>184.8</ele></trkpt>
    <trkpt lat="49.0700860" lon="6.0712510"><ele>184.5</ele></trkpt>
    <trkpt lat="49.0704050" lon="6.0714380"><ele>185.5</ele></trkpt>
    <trkpt lat="49.0705080" lon="6.0715210"><ele>185.5</ele></trkpt>
    <trkpt lat="49.0705670" lon="6.0715960"><ele>185.5</ele></trkpt>
    <trkpt lat="49.0706730" lon="6.0717840"><ele>184.8</ele></trkpt>
    <trkpt lat="49.0707180" lon="6.0718960"><ele>184.0</ele></trkpt>
    <trkpt lat="49.0708310" lon="6.0720420"><ele>183.8</ele></trkpt>
    <trkpt lat="49.0710400" lon="6.0721640"><ele>183.2</ele></trkpt>
    <trkpt lat="49.0711960" lon="6.0722080"><ele>183.8</ele></trkpt>
    <trkpt lat="49.0713690" lon="6.0722450"><ele>184.5</ele></trkpt>
    <trkpt lat="49.0714490" lon="6.0722840"><ele>184.2</ele></trkpt>
    <trkpt lat="49.0716370" lon="6.0723890"><ele>183.2</ele></trkpt>
    <trkpt lat="49.0719850" lon="6.0726520"><ele>181.8</ele></trkpt>
    <trkpt lat="49.0722470" lon="6.0726840"><ele>181.0</ele></trkpt>
    <trkpt lat="49.0726160" lon="6.0727950"><ele>180.8</ele></trkpt>
    <trkpt lat="49.0728230" lon="6.0728740"><ele>179.8</ele></trkpt>
    <trkpt lat="49.0730120" lon="6.0720890"><ele>188.5</ele></trkpt>
    <trkpt lat="49.0730870" lon="6.0718360"><ele>192.8</ele></trkpt>
    <trkpt lat="49.0732900" lon="6.0718970"><ele>194.0</ele></trkpt>
    <trkpt lat="49.0733400" lon="6.0719420"><ele>194.0</ele></trkpt>
    <trkpt lat="49.0734250" lon="6.0720860"><ele>194.2</ele></trkpt>
    <trkpt lat="49.0734710" lon="6.0721320"><ele>194.8</ele></trkpt>
    <trkpt lat="49.0735490" lon="6.0722630"><ele>194.8</ele></trkpt>
    <trkpt lat="49.0736220" lon="6.0724320"><ele>193.2</ele></trkpt>
    <trkpt lat="49.0736820" lon="6.0725390"><ele>192.0</ele></trkpt>
    <trkpt lat="49.0737640" lon="6.0726570"><ele>191.5</ele></trkpt>
    <trkpt lat="49.0738600" lon="6.0727740"><ele>192.2</ele></trkpt>
    <trkpt lat="49.0739580" lon="6.0728680"><ele>190.8</ele></trkpt>
    <trkpt lat="49.0740120" lon="6.0728620"><ele>190.5</ele></trkpt>
    <trkpt lat="49.0746110" lon="6.0726950"><ele>181.5</ele></trkpt>
    <trkpt lat="49.0746730" lon="6.0726670"><ele>181.5</ele></trkpt>
    <trkpt lat="49.0746690" lon="6.0726590"><ele>181.5</ele></trkpt>
    <trkpt lat="49.0747690" lon="6.0726490"><ele>181.5</ele></trkpt>
    <trkpt lat="49.0748050" lon="6.0726590"><ele>181.8</ele></trkpt>
    <trkpt lat="49.0749190" lon="6.0727330"><ele>181.8</ele></trkpt>
    <trkpt lat="49.0749890" lon="6.0728190"><ele>181.8</ele></trkpt>
    <trkpt lat="49.0751640" lon="6.0731080"><ele>180.5</ele></trkpt>
    <trkpt lat="49.0752640" lon="6.0732470"><ele>179.5</ele></trkpt>
    <trkpt lat="49.0753760" lon="6.0733570"><ele>179.0</ele></trkpt>
    <trkpt lat="49.0754280" lon="6.0733960"><ele>179.0</ele></trkpt>
    <trkpt lat="49.0753950" lon="6.0735220"><ele>179.0</ele></trkpt>
    <trkpt lat="49.0753710" lon="6.0736710"><ele>178.8</ele></trkpt>
    <trkpt lat="49.0754180" lon="6.0736920"><ele>178.5</ele></trkpt>
    <trkpt lat="49.0754650" lon="6.0737400"><ele>178.5</ele></trkpt>
    <trkpt lat="49.0764240" lon="6.0750410"><ele>175.8</ele></trkpt>
    <trkpt lat="49.0763540" lon="6.0751540"><ele>175.5</ele></trkpt>
    <trkpt lat="49.0763110" lon="6.0752300"><ele>175.2</ele></trkpt>
    <trkpt lat="49.0765960" lon="6.0756660"><ele>174.0</ele></trkpt>
    <trkpt lat="49.0768830" lon="6.0761810"><ele>173.0</ele></trkpt>
    <trkpt lat="49.0768840" lon="6.0761790"><ele>173.0</ele></trkpt>
  </trkseg></trk>
</gpx>