<?xml version="1.0" encoding="UTF-8"?>
<kml xmlns="http://www.opengis.net/kml/2.2"><Document>
  <name>Les bois de l'est</name><description>12.3 km. D+ 71 m. 38 % de chemins. La meme entree en matiere, puis on pousse jusqu'au bois de la Macabee, le plus grand massif qu'on puisse atteindre a pied depuis la gare, et on rentre par les parcs de Borny.</description>
  <Style id="depart"><IconStyle><scale>1.2</scale><Icon><href>http://maps.google.com/mapfiles/kml/paddle/grn-circle.png</href></Icon></IconStyle></Style>
  <Style id="etape"><IconStyle><Icon><href>http://maps.google.com/mapfiles/kml/paddle/wht-blank.png</href></Icon></IconStyle></Style>
    <Placemark><name>Depart : Gare de Metz, parvis</name><description>Point de ralliement des boucles a pied : a moins d'un quart d'heure de marche pour tout le monde. Abrite, cafe ouvert tot, toilettes.</description><styleUrl>#depart</styleUrl><Point><coordinates>6.1770130,49.1092770,0</coordinates></Point></Placemark>
    <Placemark><name>1. Parc de la Seille</name><description>Prairies humides et roselieres au bord de la Seille. Herons.</description><styleUrl>#etape</styleUrl><Point><coordinates>6.1849680,49.1066100,0</coordinates></Point></Placemark>
    <Placemark><name>2. Fort de Queuleu</name><description>Fort du XIXe siecle, memorial de la Resistance. Le bois autour est ouvert et sillonne de chemins.</description><styleUrl>#etape</styleUrl><Point><coordinates>6.1954340,49.0984520,0</coordinates></Point></Placemark>
    <Placemark><name>3. Bois de la Macabee</name><description>Le plus grand massif accessible a pied depuis Metz, hetres et charmes.</description><styleUrl>#etape</styleUrl><Point><coordinates>6.2321060,49.1013970,0</coordinates></Point></Placemark>
    <Placemark><name>4. Parc de Gloucester</name><description>Allees en terre et pieces d'eau, a la lisiere est de Borny.</description><styleUrl>#etape</styleUrl><Point><coordinates>6.2261210,49.1132260,0</coordinates></Point></Placemark>
    <Placemark><name>5. Parc de la Cheneau</name><description>Grand parc boise a l'est de Metz, etang et allees en terre.</description><styleUrl>#etape</styleUrl><Point><coordinates>6.2079150,49.1132910,0</coordinates></Point></Placemark>
    <Style id="t1"><LineStyle><color>ff3E6B4F</color><width>4</width></LineStyle></Style>
    <Placemark><name>Les bois de l'est</name><description>12.3 km. D+ 71 m. 38 % de chemins. La meme entree en matiere, puis on pousse jusqu'au bois de la Macabee, le plus grand massif qu'on puisse atteindre a pied depuis la gare, et on rentre par les parcs de Borny.</description><styleUrl>#t1</styleUrl><LineString><tessellate>1</tessellate><coordinates>6.1769770,49.1093080,180 6.1771540,49.1093930,180 6.1771030,49.1094370,180 6.1771660,49.1094690,180 6.1772910,49.1095290,180 6.1773130,49.1095400,180 6.1773630,49.1095730,180 6.1774310,49.1096070,180 6.1774510,49.1095900,180 6.1776440,49.1094230,179 6.1777310,49.1093450,179 6.1778550,49.1092350,179 6.1779350,49.1091650,179 6.1781230,49.1090000,179 6.1785370,49.1086340,176 6.1785780,49.1085970,176 6.1789650,49.1086370,174 6.1790320,49.1086290,174 6.1792300,49.1086030,172 6.1794770,49.1085900,172 6.1795900,49.1084890,172 6.1799530,49.1086990,172 6.1800090,49.1087230,172 6.1800320,49.1087070,172 6.1800720,49.1086810,172 6.1801050,49.1086560,172 6.1801210,49.1086420,172 6.1801710,49.1085990,172 6.1801950,49.1085640,172 6.1803040,49.1083640,172 6.1804210,49.1081720,172 6.1804690,49.1081500,172 6.1805360,49.1080360,171 6.1806140,49.1080420,171 6.1807420,49.1080150,171 6.1809290,49.1077440,171 6.1809750,49.1077000,171 6.1810350,49.1076610,171 6.1811230,49.1076290,171 6.1811800,49.1076210,171 6.1812390,49.1076120,171 6.1825490,49.1076960,171 6.1829870,49.1077260,173 6.1829890,49.1077060,172 6.1829990,49.1076110,172 6.1830050,49.1075710,172 6.1830140,49.1075180,171 6.1831850,49.1075310,170 6.1832290,49.1075150,170 6.1832440,49.1074910,170 6.1833290,49.1074970,170 6.1834120,49.1075020,170 6.1836170,49.1075120,170 6.1836340,49.1074180,170 6.1838590,49.1074340,170 6.1839010,49.1074370,170 6.1847110,49.1066060,170 6.1849620,49.1066240,170 6.1849640,49.1066090,169 6.1850090,49.1063120,169 6.1851430,49.1061660,169 6.1852270,49.1060850,169 6.1855070,49.1058050,167 6.1857570,49.1055370,166 6.1856800,49.1053470,166 6.1856370,49.1051920,166 6.1856370,49.1049580,166 6.1856480,49.1048890,166 6.1856840,49.1047800,166 6.1857520,49.1046910,165 6.1858460,49.1045240,165 6.1858970,49.1043850,166 6.1859790,49.1042080,166 6.1860670,49.1039590,165 6.1860860,49.1034710,166 6.1863350,49.1031920,165 6.1864150,49.1025860,165 6.1864740,49.1021940,166 6.1864800,49.1021550,166 6.1864820,49.1021370,166 6.1864840,49.1021220,167 6.1864870,49.1021060,167 6.1864900,49.1020830,167 6.1864920,49.1020640,168 6.1864950,49.1020450,168 6.1864980,49.1020230,168 6.1865010,49.1020040,168 6.1865050,49.1019670,168 6.1864960,49.1019350,169 6.1867280,49.1018920,168 6.1868080,49.1018400,168 6.1868500,49.1017250,169 6.1869180,49.1013120,169 6.1870680,49.1013220,169 6.1870870,49.1012120,169 6.1871300,49.1009570,169 6.1872290,49.1008470,169 6.1874520,49.1006410,170 6.1874980,49.1006450,170 6.1875000,49.1006370,170 6.1875120,49.1005900,170 6.1875180,49.1005390,170 6.1875850,49.1005420,168 6.1884670,49.1006100,169 6.1884960,49.1005760,169 6.1885710,49.1006010,170 6.1886570,49.1006110,170 6.1887110,49.1006260,170 6.1893440,49.1006890,174 6.1894840,49.1006970,174 6.1897220,49.1006930,175 6.1899800,49.1006880,175 6.1902010,49.1006920,175 6.1905000,49.1007160,176 6.1911310,49.1008020,176 6.1912260,49.1004680,175 6.1912440,49.1004040,174 6.1912920,49.1002020,174 6.1913320,49.1001980,174 6.1913780,49.1001830,175 6.1915380,49.1001410,176 6.1916010,49.1001030,176 6.1917820,49.1000510,177 6.1922070,49.0999620,179 6.1923330,49.0999160,179 6.1923760,49.0998850,179 6.1924630,49.0998380,179 6.1926080,49.0997980,179 6.1927750,49.0997850,179 6.1929260,49.0997990,180 6.1930810,49.0998340,180 6.1935910,49.1000280,182 6.1936250,49.1000410,182 6.1940260,49.0995470,180 6.1940650,49.0994980,180 6.1940790,49.0994790,180 6.1940940,49.0994590,180 6.1944260,49.0991140,182 6.1946190,49.0989540,182 6.1946840,49.0989180,183 6.1947850,49.0988850,183 6.1948910,49.0988640,183 6.1949670,49.0988690,184 6.1950220,49.0988870,184 6.1950980,49.0987100,183 6.1952140,49.0985050,182 6.1952350,49.0984270,180 6.1952140,49.0985050,182 6.1950980,49.0987100,183 6.1950220,49.0988870,184 6.1951090,49.0989250,185 6.1951460,49.0989750,185 6.1951690,49.0990510,185 6.1951660,49.0991600,186 6.1951330,49.0992900,184 6.1950910,49.0994120,184 6.1948950,49.0997020,182 6.1948830,49.0997200,182 6.1948710,49.0997390,182 6.1949480,49.0997610,182 6.1956500,49.0999440,184 6.1958210,49.0999740,184 6.1961260,49.1000150,185 6.1964300,49.1000770,187 6.1971230,49.1002570,190 6.1973020,49.1003140,190 6.1973480,49.1003270,190 6.1976740,49.1004040,192 6.1979750,49.1004480,193 6.1982620,49.1004570,194 6.1984180,49.1004630,194 6.1984210,49.1004950,194 6.1984210,49.1005350,194 6.1984050,49.1007410,194 6.1983890,49.1009450,194 6.1983780,49.1010800,194 6.1983680,49.1012130,194 6.1983600,49.1013130,194 6.1983480,49.1014540,194 6.1983460,49.1014780,194 6.1983440,49.1015530,193 6.1984820,49.1015560,194 6.1985450,49.1015570,194 6.1988980,49.1015780,195 6.1990560,49.1015830,196 6.1991940,49.1015850,196 6.1993440,49.1015770,197 6.1994600,49.1015820,197 6.1998490,49.1015910,198 6.1998730,49.1016040,198 6.2000090,49.1016090,199 6.2002310,49.1016140,200 6.2003690,49.1016220,200 6.2004250,49.1016300,200 6.2004760,49.1016390,200 6.2006130,49.1016530,201 6.2006580,49.1016700,201 6.2007280,49.1016980,202 6.2014320,49.1019760,204 6.2014870,49.1019980,204 6.2015270,49.1020140,204 6.2028300,49.1025280,211 6.2032410,49.1027050,213 6.2032830,49.1027290,214 6.2033100,49.1027500,214 6.2033400,49.1027630,214 6.2034110,49.1027300,214 6.2034550,49.1027330,214 6.2035140,49.1027660,214 6.2035640,49.1027850,214 6.2036650,49.1028180,214 6.2037200,49.1028310,214 6.2037120,49.1029120,214 6.2037690,49.1030010,214 6.2038210,49.1030410,214 6.2038950,49.1030710,214 6.2040760,49.1030880,214 6.2041690,49.1030810,215 6.2046270,49.1031130,215 6.2046870,49.1031140,215 6.2051940,49.1030800,214 6.2062610,49.1030010,211 6.2063160,49.1029960,211 6.2063210,49.1030220,211 6.2064640,49.1030550,210 6.2068640,49.1030280,209 6.2069260,49.1030240,209 6.2074190,49.1029910,208 6.2074300,49.1029900,207 6.2079220,49.1029570,206 6.2082790,49.1029300,206 6.2084000,49.1029230,205 6.2085380,49.1029080,205 6.2087210,49.1028600,204 6.2088480,49.1028030,204 6.2089680,49.1027230,204 6.2090660,49.1026400,204 6.2092160,49.1025200,204 6.2093880,49.1023820,203 6.2096780,49.1021500,203 6.2108800,49.1027470,202 6.2112740,49.1028940,202 6.2114950,49.1029990,201 6.2115930,49.1030620,201 6.2117090,49.1031220,201 6.2117640,49.1031580,201 6.2118100,49.1032040,200 6.2118420,49.1032660,200 6.2118610,49.1033310,200 6.2119110,49.1033570,201 6.2120120,49.1034090,200 6.2120480,49.1034260,200 6.2120760,49.1034350,200 6.2121170,49.1034410,200 6.2126020,49.1034370,200 6.2126450,49.1034090,200 6.2127950,49.1033170,201 6.2128340,49.1033020,201 6.2128870,49.1033000,200 6.2129340,49.1033110,200 6.2131170,49.1033940,200 6.2132810,49.1034100,200 6.2134260,49.1034470,200 6.2135130,49.1035200,200 6.2136030,49.1036480,199 6.2136920,49.1037400,198 6.2137620,49.1037770,198 6.2138600,49.1038060,198 6.2140660,49.1039630,198 6.2143320,49.1041030,198 6.2145500,49.1042410,197 6.2146950,49.1043230,197 6.2148630,49.1043700,196 6.2150750,49.1041110,197 6.2153870,49.1037190,198 6.2154660,49.1035960,198 6.2155590,49.1034130,198 6.2156640,49.1031130,198 6.2158680,49.1025360,199 6.2158780,49.1025060,199 6.2159090,49.1024470,199 6.2159140,49.1024140,199 6.2159550,49.1023180,199 6.2161980,49.1018650,199 6.2163450,49.1016360,199 6.2164850,49.1014340,199 6.2166540,49.1012190,198 6.2167220,49.1012430,198 6.2167790,49.1012630,198 6.2170160,49.1011670,198 6.2172730,49.1010930,197 6.2173670,49.1010610,197 6.2174590,49.1010590,196 6.2175860,49.1010730,196 6.2176530,49.1010800,196 6.2177980,49.1010940,196 6.2179200,49.1011130,196 6.2179450,49.1011170,196 6.2180010,49.1010720,196 6.2186070,49.1007050,198 6.2186430,49.1006830,198 6.2188000,49.1006890,198 6.2194580,49.1007080,201 6.2201130,49.1007240,202 6.2211950,49.1007440,204 6.2212790,49.1007460,204 6.2214510,49.1007510,205 6.2216680,49.1007120,205 6.2217530,49.1006890,206 6.2218540,49.1006350,206 6.2220760,49.1006230,206 6.2224870,49.1006170,207 6.2227100,49.1006160,207 6.2235280,49.1006640,209 6.2240790,49.1006840,210 6.2240760,49.1007730,210 6.2241660,49.1007750,210 6.2241780,49.1007760,210 6.2242260,49.1007770,210 6.2243600,49.1007820,210 6.2244220,49.1007840,210 6.2244410,49.1007850,210 6.2244460,49.1006860,210 6.2249300,49.1006850,210 6.2250760,49.1006920,210 6.2253070,49.1007200,211 6.2255430,49.1007830,211 6.2257120,49.1008510,211 6.2258650,49.1009400,211 6.2263680,49.1012970,212 6.2273870,49.1020270,214 6.2274520,49.1019890,214 6.2274430,49.1019820,214 6.2282440,49.1015220,214 6.2287720,49.1018960,215 6.2296810,49.1020980,214 6.2302460,49.1022580,215 6.2308710,49.1025170,217 6.2312110,49.1027200,218 6.2314340,49.1029470,218 6.2316360,49.1030940,219 6.2319330,49.1032050,220 6.2321370,49.1028630,219 6.2326710,49.1021820,218 6.2329370,49.1018100,216 6.2330380,49.1015590,215 6.2329370,49.1018100,216 6.2326710,49.1021820,218 6.2321370,49.1028630,219 6.2319330,49.1032050,220 6.2316810,49.1035000,218 6.2315140,49.1039980,218 6.2315450,49.1042470,218 6.2314920,49.1043180,217 6.2314130,49.1043880,218 6.2311970,49.1045740,217 6.2310280,49.1047020,216 6.2310380,49.1047180,216 6.2310510,49.1047980,216 6.2310310,49.1048740,216 6.2311230,49.1049520,215 6.2311880,49.1050150,215 6.2312800,49.1051280,214 6.2314660,49.1053620,214 6.2315110,49.1054360,214 6.2315570,49.1055530,214 6.2315680,49.1056770,214 6.2315520,49.1058970,213 6.2317070,49.1059800,214 6.2317480,49.1060570,213 6.2317480,49.1061160,213 6.2317480,49.1061770,214 6.2315420,49.1063210,213 6.2314960,49.1067380,212 6.2315440,49.1070100,212 6.2315530,49.1070640,212 6.2315500,49.1071360,212 6.2315230,49.1071780,212 6.2315360,49.1072310,212 6.2315700,49.1072760,212 6.2317140,49.1073320,212 6.2318100,49.1073900,212 6.2319210,49.1074330,212 6.2319000,49.1074790,212 6.2318980,49.1075110,212 6.2319180,49.1075930,212 6.2319080,49.1076810,212 6.2318980,49.1077150,212 6.2318850,49.1077590,212 6.2316870,49.1078750,212 6.2315050,49.1079430,212 6.2314570,49.1079980,211 6.2313940,49.1081100,211 6.2313660,49.1081830,211 6.2312690,49.1085980,212 6.2312440,49.1087170,212 6.2311570,49.1087210,212 6.2309990,49.1087270,212 6.2309380,49.1087250,212 6.2309100,49.1088510,212 6.2308080,49.1093610,212 6.2307820,49.1094160,212 6.2307750,49.1094570,212 6.2307570,49.1095440,212 6.2307550,49.1095940,212 6.2306460,49.1101140,210 6.2305940,49.1101990,210 6.2305760,49.1102540,210 6.2305250,49.1102540,210 6.2304230,49.1102540,210 6.2302550,49.1102540,210 6.2300290,49.1102530,210 6.2299670,49.1102520,210 6.2296390,49.1102400,210 6.2294240,49.1102170,210 6.2294090,49.1102990,210 6.2294110,49.1103310,210 6.2294100,49.1105760,210 6.2293940,49.1106710,209 6.2293280,49.1109220,208 6.2292020,49.1113040,207 6.2291660,49.1114540,207 6.2291430,49.1116380,207 6.2291500,49.1116840,207 6.2292000,49.1118930,207 6.2288220,49.1120970,207 6.2285830,49.1122160,206 6.2283590,49.1123060,206 6.2280980,49.1123050,205 6.2277360,49.1123600,205 6.2275470,49.1124200,205 6.2273750,49.1124900,204 6.2272010,49.1125860,204 6.2270990,49.1126570,204 6.2269950,49.1127540,203 6.2268690,49.1129480,203 6.2268260,49.1130370,204 6.2267900,49.1132290,204 6.2267950,49.1133020,204 6.2268110,49.1133630,204 6.2264920,49.1134080,203 6.2264690,49.1133390,203 6.2264210,49.1132610,203 6.2263700,49.1132190,203 6.2262880,49.1131740,202 6.2262310,49.1131520,202 6.2261600,49.1131370,202 6.2259890,49.1131190,202 6.2258800,49.1130900,201 6.2257550,49.1130330,200 6.2256210,49.1129510,200 6.2254350,49.1128260,200 6.2253650,49.1127970,200 6.2247890,49.1126450,200 6.2247150,49.1125080,200 6.2246980,49.1124810,200 6.2244880,49.1122360,201 6.2243160,49.1122780,200 6.2241450,49.1123320,200 6.2238660,49.1124520,199 6.2236830,49.1125410,198 6.2236090,49.1125940,198 6.2234750,49.1127360,198 6.2234210,49.1128250,198 6.2234090,49.1128600,198 6.2232580,49.1129280,198 6.2230640,49.1130770,198 6.2228630,49.1130630,198 6.2228300,49.1131170,198 6.2227730,49.1132110,198 6.2227200,49.1132990,199 6.2226770,49.1132870,199 6.2226440,49.1132770,199 6.2225970,49.1132580,198 6.2225580,49.1132310,198 6.2221800,49.1129340,198 6.2221320,49.1129090,198 6.2220030,49.1128710,198 6.2219050,49.1128470,198 6.2215310,49.1127530,198 6.2214310,49.1127510,198 6.2212640,49.1127080,198 6.2208310,49.1125990,198 6.2207780,49.1125760,198 6.2207130,49.1126450,199 6.2206390,49.1126090,199 6.2204080,49.1125490,199 6.2203640,49.1125380,199 6.2197820,49.1123860,199 6.2190390,49.1121930,200 6.2186180,49.1120840,200 6.2185470,49.1120640,199 6.2184200,49.1120300,199 6.2183330,49.1121750,200 6.2182700,49.1121630,200 6.2181990,49.1121670,199 6.2181340,49.1121780,199 6.2180530,49.1122350,199 6.2179510,49.1123240,199 6.2175930,49.1124850,199 6.2175190,49.1125020,199 6.2174590,49.1125320,199 6.2174060,49.1125920,199 6.2172840,49.1125930,199 6.2172490,49.1125750,199 6.2161800,49.1121650,196 6.2161490,49.1121470,196 6.2161040,49.1121200,196 6.2159980,49.1121960,196 6.2158940,49.1121390,195 6.2158590,49.1121200,195 6.2156880,49.1122390,195 6.2156290,49.1122610,195 6.2153490,49.1123210,194 6.2152790,49.1123080,194 6.2152160,49.1122840,194 6.2150990,49.1122260,193 6.2149770,49.1123230,193 6.2145000,49.1120770,192 6.2143560,49.1120020,192 6.2141650,49.1119030,191 6.2140320,49.1118340,191 6.2136920,49.1116580,190 6.2134880,49.1115740,189 6.2128370,49.1113640,186 6.2128120,49.1113980,186 6.2125900,49.1113220,186 6.2123370,49.1112250,186 6.2122620,49.1112810,185 6.2122100,49.1113230,185 6.2120770,49.1113650,184 6.2119810,49.1113830,184 6.2114200,49.1114730,184 6.2111360,49.1115240,184 6.2107420,49.1116050,183 6.2104500,49.1116890,183 6.2103060,49.1117540,184 6.2102360,49.1118070,184 6.2101950,49.1118640,184 6.2101990,49.1119230,184 6.2101880,49.1119570,184 6.2101570,49.1119880,184 6.2093940,49.1124660,182 6.2083810,49.1132080,181 6.2079070,49.1132390,182 6.2076390,49.1132570,182 6.2074020,49.1132790,182 6.2072770,49.1133040,182 6.2071640,49.1133430,182 6.2067900,49.1134500,184 6.2067120,49.1134570,184 6.2066520,49.1134530,184 6.2065480,49.1135230,184 6.2064370,49.1135990,184 6.2063070,49.1136640,184 6.2060810,49.1137630,184 6.2058930,49.1138300,185 6.2057200,49.1138800,185 6.2051850,49.1141180,185 6.2049670,49.1142480,184 6.2048660,49.1143300,184 6.2046080,49.1145390,184 6.2042650,49.1147740,184 6.2040700,49.1148540,184 6.2039690,49.1148890,183 6.2039160,49.1149070,183 6.2038860,49.1148670,183 6.2038370,49.1148840,183 6.2037190,49.1149240,183 6.2034670,49.1149300,183 6.2011380,49.1145420,184 6.2009620,49.1145150,184 6.1994520,49.1142940,184 6.1993360,49.1142760,184 6.1993250,49.1142740,184 6.1990880,49.1142360,184 6.1986620,49.1141740,183 6.1985970,49.1141650,183 6.1983810,49.1141340,183 6.1982600,49.1141190,182 6.1981210,49.1141180,182 6.1976170,49.1141080,182 6.1974760,49.1141000,181 6.1969400,49.1140480,180 6.1968190,49.1140390,180 6.1964320,49.1139980,180 6.1963840,49.1139960,180 6.1963380,49.1139940,180 6.1962410,49.1139900,180 6.1947790,49.1139770,178 6.1944390,49.1139880,178 6.1940120,49.1140010,178 6.1938280,49.1140230,178 6.1930250,49.1141090,178 6.1925640,49.1141570,178 6.1920010,49.1142150,178 6.1918330,49.1142280,178 6.1917290,49.1142130,178 6.1916160,49.1141820,179 6.1915220,49.1142950,178 6.1913790,49.1144130,177 6.1912330,49.1145260,177 6.1911510,49.1145620,178 6.1910470,49.1145900,177 6.1909460,49.1146050,177 6.1905050,49.1146290,177 6.1898650,49.1146690,175 6.1897630,49.1146600,175 6.1896470,49.1146240,175 6.1894610,49.1145450,175 6.1893370,49.1145050,175 6.1885620,49.1143560,173 6.1883300,49.1143160,172 6.1881520,49.1142900,173 6.1877680,49.1142910,172 6.1877360,49.1142840,172 6.1874970,49.1141540,172 6.1873780,49.1140880,172 6.1872260,49.1139870,173 6.1869630,49.1138120,171 6.1866980,49.1136350,171 6.1864460,49.1134680,171 6.1863560,49.1134430,171 6.1862840,49.1134200,171 6.1862370,49.1134060,171 6.1860810,49.1133510,171 6.1858300,49.1132630,170 6.1857430,49.1132240,169 6.1857050,49.1131960,168 6.1853460,49.1129400,169 6.1853180,49.1129060,170 6.1853030,49.1128700,170 6.1853170,49.1127050,170 6.1852170,49.1126990,171 6.1851650,49.1126980,171 6.1851030,49.1126960,171 6.1850330,49.1127300,171 6.1849860,49.1127590,171 6.1849230,49.1127270,171 6.1848730,49.1127110,172 6.1847900,49.1127030,172 6.1847160,49.1127180,172 6.1846850,49.1127340,172 6.1843210,49.1130000,172 6.1842810,49.1130760,172 6.1842690,49.1131250,171 6.1840280,49.1132690,170 6.1839270,49.1133210,170 6.1838920,49.1133250,170 6.1838380,49.1132890,170 6.1837490,49.1132210,170 6.1837020,49.1131800,170 6.1836970,49.1131310,171 6.1836940,49.1130850,171 6.1835910,49.1130840,172 6.1834810,49.1130720,171 6.1833850,49.1130430,170 6.1831790,49.1129530,172 6.1817060,49.1122640,172 6.1803420,49.1116260,173 6.1802510,49.1115640,174 6.1799200,49.1113420,174 6.1792030,49.1110110,172 6.1791430,49.1109830,172 6.1790250,49.1109300,172 6.1789790,49.1109080,172 6.1789540,49.1108970,172 6.1787990,49.1108290,172 6.1781710,49.1105310,173 6.1780280,49.1104680,173 6.1779730,49.1104560,173 6.1779720,49.1104250,173 6.1779670,49.1103840,173 6.1779440,49.1103370,173 6.1779420,49.1103320,173 6.1779210,49.1103120,173 6.1778360,49.1102710,173 6.1775550,49.1101370,174 6.1774250,49.1101120,174 6.1771670,49.1101030,174 6.1769620,49.1100150,174 6.1770100,49.1099770,174 6.1770060,49.1099000,176 6.1770370,49.1098720,176 6.1771340,49.1097880,178 6.1773040,49.1096300,180 6.1773630,49.1095730,180 6.1773130,49.1095400,180 6.1772910,49.1095290,180 6.1771660,49.1094690,180 6.1771030,49.1094370,180 6.1771540,49.1093930,180 6.1769770,49.1093080,179</coordinates></LineString></Placemark>
</Document></kml>