<?xml version="1.0" encoding="UTF-8"?>
<gpx version="1.1" creator="olifant"
     xmlns="http://www.topografix.com/GPX/1/1"
     xmlns:xsi="http://www.w3.org/2001/XMLSchema-instance"
     xsi:schemaLocation="http://www.topografix.com/GPX/1/1 http://www.topografix.com/GPX/1/1/gpx.xsd">
  <metadata><name>Les bois de l'est</name><desc>12.3 km. D+ 71 m. 38 % de chemins. La meme entree en matiere, puis on pousse jusqu'au bois de la Macabee, le plus grand massif qu'on puisse atteindre a pied depuis la gare, et on rentre par les parcs de Borny.</desc></metadata>
  <wpt lat="49.1092770" lon="6.1770130"><name>Gare de Metz, parvis</name><desc>Point de ralliement des boucles a pied : a moins d'un quart d'heure de marche pour tout le monde. Abrite, cafe ouvert tot, toilettes.</desc></wpt>
  <wpt lat="49.1066100" lon="6.1849680"><name>Parc de la Seille</name><desc>Prairies humides et roselieres au bord de la Seille. Herons.</desc></wpt>
  <wpt lat="49.0984520" lon="6.1954340"><name>Fort de Queuleu</name><desc>Fort du XIXe siecle, memorial de la Resistance. Le bois autour est ouvert et sillonne de chemins.</desc></wpt>
  <wpt lat="49.1013970" lon="6.2321060"><name>Bois de la Macabee</name><desc>Le plus grand massif accessible a pied depuis Metz, hetres et charmes.</desc></wpt>
  <wpt lat="49.1132260" lon="6.2261210"><name>Parc de Gloucester</name><desc>Allees en terre et pieces d'eau, a la lisiere est de Borny.</desc></wpt>
  <wpt lat="49.1132910" lon="6.2079150"><name>Parc de la Cheneau</name><desc>Grand parc boise a l'est de Metz, etang et allees en terre.</desc></wpt>
  <trk><name>Les bois de l'est</name><trkseg>
    <trkpt lat="49.1093080" lon="6.1769770"><ele>179.5</ele></trkpt>
    <trkpt lat="49.1093930" lon="6.1771540"><ele>179.8</ele></trkpt>
    <trkpt lat="49.1094370" lon="6.1771030"><ele>179.8</ele></trkpt>
    <trkpt lat="49.1094690" lon="6.1771660"><ele>179.8</ele></trkpt>
    <trkpt lat="49.1095290" lon="6.1772910"><ele>179.8</ele></trkpt>
    <trkpt lat="49.1095400" lon="6.1773130"><ele>179.8</ele></trkpt>
    <trkpt lat="49.1095730" lon="6.1773630"><ele>179.5</ele></trkpt>
    <trkpt lat="49.1096070" lon="6.1774310"><ele>179.5</ele></trkpt>
    <trkpt lat="49.1095900" lon="6.1774510"><ele>179.5</ele></trkpt>
    <trkpt lat="49.1094230" lon="6.1776440"><ele>179.0</ele></trkpt>
    <trkpt lat="49.1093450" lon="6.1777310"><ele>179.0</ele></trkpt>
    <trkpt lat="49.1092350" lon="6.1778550"><ele>179.0</ele></trkpt>
    <trkpt lat="49.1091650" lon="6.1779350"><ele>178.8</ele></trkpt>
    <trkpt lat="49.1090000" lon="6.1781230"><ele>179.0</ele></trkpt>
    <trkpt lat="49.1086340" lon="6.1785370"><ele>176.5</ele></trkpt>
    <trkpt lat="49.1085970" lon="6.1785780"><ele>175.8</ele></trkpt>
    <trkpt lat="49.1086370" lon="6.1789650"><ele>174.5</ele></trkpt>
    <trkpt lat="49.1086290" lon="6.1790320"><ele>173.5</ele></trkpt>
    <trkpt lat="49.1086030" lon="6.1792300"><ele>171.8</ele></trkpt>
    <trkpt lat="49.1085900" lon="6.1794770"><ele>171.8</ele></trkpt>
    <trkpt lat="49.1084890" lon="6.1795900"><ele>171.8</ele></trkpt>
    <trkpt lat="49.1086990" lon="6.1799530"><ele>172.0</ele></trkpt>
    <trkpt lat="49.1087230" lon="6.1800090"><ele>172.0</ele></trkpt>
    <trkpt lat="49.1087070" lon="6.1800320"><ele>172.0</ele></trkpt>
    <trkpt lat="49.1086810" lon="6.1800720"><ele>172.0</ele></trkpt>
    <trkpt lat="49.1086560" lon="6.1801050"><ele>172.0</ele></trkpt>
    <trkpt lat="49.1086420" lon="6.1801210"><ele>172.0</ele></trkpt>
    <trkpt lat="49.1085990" lon="6.1801710"><ele>172.0</ele></trkpt>
    <trkpt lat="49.1085640" lon="6.1801950"><ele>172.0</ele></trkpt>
    <trkpt lat="49.1083640" lon="6.1803040"><ele>171.8</ele></trkpt>
    <trkpt lat="49.1081720" lon="6.1804210"><ele>171.5</ele></trkpt>
    <trkpt lat="49.1081500" lon="6.1804690"><ele>171.5</ele></trkpt>
    <trkpt lat="49.1080360" lon="6.1805360"><ele>171.0</ele></trkpt>
    <trkpt lat="49.1080420" lon="6.1806140"><ele>171.0</ele></trkpt>
    <trkpt lat="49.1080150" lon="6.1807420"><ele>171.0</ele></trkpt>
    <trkpt lat="49.1077440" lon="6.1809290"><ele>171.0</ele></trkpt>
    <trkpt lat="49.1077000" lon="6.1809750"><ele>171.0</ele></trkpt>
    <trkpt lat="49.1076610" lon="6.1810350"><ele>171.0</ele></trkpt>
    <trkpt lat="49.1076290" lon="6.1811230"><ele>171.0</ele></trkpt>
    <trkpt lat="49.1076210" lon="6.1811800"><ele>171.0</ele></trkpt>
    <trkpt lat="49.1076120" lon="6.1812390"><ele>171.0</ele></trkpt>
    <trkpt lat="49.1076960" lon="6.1825490"><ele>171.0</ele></trkpt>
    <trkpt lat="49.1077260" lon="6.1829870"><ele>172.8</ele></trkpt>
    <trkpt lat="49.1077060" lon="6.1829890"><ele>172.5</ele></trkpt>
    <trkpt lat="49.1076110" lon="6.1829990"><ele>171.8</ele></trkpt>
    <trkpt lat="49.1075710" lon="6.1830050"><ele>171.5</ele></trkpt>
    <trkpt lat="49.1075180" lon="6.1830140"><ele>171.0</ele></trkpt>
    <trkpt lat="49.1075310" lon="6.1831850"><ele>170.5</ele></trkpt>
    <trkpt lat="49.1075150" lon="6.1832290"><ele>170.2</ele></trkpt>
    <trkpt lat="49.1074910" lon="6.1832440"><ele>170.2</ele></trkpt>
    <trkpt lat="49.1074970" lon="6.1833290"><ele>170.0</ele></trkpt>
    <trkpt lat="49.1075020" lon="6.1834120"><ele>170.0</ele></trkpt>
    <trkpt lat="49.1075120" lon="6.1836170"><ele>170.0</ele></trkpt>
    <trkpt lat="49.1074180" lon="6.1836340"><ele>170.0</ele></trkpt>
    <trkpt lat="49.1074340" lon="6.1838590"><ele>170.0</ele></trkpt>
    <trkpt lat="49.1074370" lon="6.1839010"><ele>169.8</ele></trkpt>
    <trkpt lat="49.1066060" lon="6.1847110"><ele>169.8</ele></trkpt>
    <trkpt lat="49.1066240" lon="6.1849620"><ele>169.8</ele></trkpt>
    <trkpt lat="49.1066090" lon="6.1849640"><ele>168.8</ele></trkpt>
    <trkpt lat="49.1063120" lon="6.1850090"><ele>168.8</ele></trkpt>
    <trkpt lat="49.1061660" lon="6.1851430"><ele>168.8</ele></trkpt>
    <trkpt lat="49.1060850" lon="6.1852270"><ele>169.0</ele></trkpt>
    <trkpt lat="49.1058050" lon="6.1855070"><ele>167.2</ele></trkpt>
    <trkpt lat="49.1055370" lon="6.1857570"><ele>166.0</ele></trkpt>
    <trkpt lat="49.1053470" lon="6.1856800"><ele>166.0</ele></trkpt>
    <trkpt lat="49.1051920" lon="6.1856370"><ele>166.2</ele></trkpt>
    <trkpt lat="49.1049580" lon="6.1856370"><ele>166.2</ele></trkpt>
    <trkpt lat="49.1048890" lon="6.1856480"><ele>166.2</ele></trkpt>
    <trkpt lat="49.1047800" lon="6.1856840"><ele>166.0</ele></trkpt>
    <trkpt lat="49.1046910" lon="6.1857520"><ele>165.2</ele></trkpt>
    <trkpt lat="49.1045240" lon="6.1858460"><ele>165.2</ele></trkpt>
    <trkpt lat="49.1043850" lon="6.1858970"><ele>166.0</ele></trkpt>
    <trkpt lat="49.1042080" lon="6.1859790"><ele>166.2</ele></trkpt>
    <trkpt lat="49.1039590" lon="6.1860670"><ele>165.2</ele></trkpt>
    <trkpt lat="49.1034710" lon="6.1860860"><ele>165.5</ele></trkpt>
    <trkpt lat="49.1031920" lon="6.1863350"><ele>165.0</ele></trkpt>
    <trkpt lat="49.1025860" lon="6.1864150"><ele>165.0</ele></trkpt>
    <trkpt lat="49.1021940" lon="6.1864740"><ele>166.0</ele></trkpt>
    <trkpt lat="49.1021550" lon="6.1864800"><ele>166.2</ele></trkpt>
    <trkpt lat="49.1021370" lon="6.1864820"><ele>166.5</ele></trkpt>
    <trkpt lat="49.1021220" lon="6.1864840"><ele>166.8</ele></trkpt>
    <trkpt lat="49.1021060" lon="6.1864870"><ele>167.0</ele></trkpt>
    <trkpt lat="49.1020830" lon="6.1864900"><ele>167.2</ele></trkpt>
    <trkpt lat="49.1020640" lon="6.1864920"><ele>167.5</ele></trkpt>
    <trkpt lat="49.1020450" lon="6.1864950"><ele>167.8</ele></trkpt>
    <trkpt lat="49.1020230" lon="6.1864980"><ele>168.0</ele></trkpt>
    <trkpt lat="49.1020040" lon="6.1865010"><ele>168.2</ele></trkpt>
    <trkpt lat="49.1019670" lon="6.1865050"><ele>168.5</ele></trkpt>
    <trkpt lat="49.1019350" lon="6.1864960"><ele>168.8</ele></trkpt>
    <trkpt lat="49.1018920" lon="6.1867280"><ele>168.5</ele></trkpt>
    <trkpt lat="49.1018400" lon="6.1868080"><ele>168.2</ele></trkpt>
    <trkpt lat="49.1017250" lon="6.1868500"><ele>168.8</ele></trkpt>
    <trkpt lat="49.1013120" lon="6.1869180"><ele>169.0</ele></trkpt>
    <trkpt lat="49.1013220" lon="6.1870680"><ele>169.2</ele></trkpt>
    <trkpt lat="49.1012120" lon="6.1870870"><ele>169.0</ele></trkpt>
    <trkpt lat="49.1009570" lon="6.1871300"><ele>169.0</ele></trkpt>
    <trkpt lat="49.1008470" lon="6.1872290"><ele>169.0</ele></trkpt>
    <trkpt lat="49.1006410" lon="6.1874520"><ele>169.8</ele></trkpt>
    <trkpt lat="49.1006450" lon="6.1874980"><ele>169.8</ele></trkpt>
    <trkpt lat="49.1006370" lon="6.1875000"><ele>169.8</ele></trkpt>
    <trkpt lat="49.1005900" lon="6.1875120"><ele>169.8</ele></trkpt>
    <trkpt lat="49.1005390" lon="6.1875180"><ele>169.5</ele></trkpt>
    <trkpt lat="49.1005420" lon="6.1875850"><ele>168.2</ele></trkpt>
    <trkpt lat="49.1006100" lon="6.1884670"><ele>168.8</ele></trkpt>
    <trkpt lat="49.1005760" lon="6.1884960"><ele>169.0</ele></trkpt>
    <trkpt lat="49.1006010" lon="6.1885710"><ele>169.5</ele></trkpt>
    <trkpt lat="49.1006110" lon="6.1886570"><ele>169.8</ele></trkpt>
    <trkpt lat="49.1006260" lon="6.1887110"><ele>170.0</ele></trkpt>
    <trkpt lat="49.1006890" lon="6.1893440"><ele>173.5</ele></trkpt>
    <trkpt lat="49.1006970" lon="6.1894840"><ele>174.0</ele></trkpt>
    <trkpt lat="49.1006930" lon="6.1897220"><ele>174.8</ele></trkpt>
    <trkpt lat="49.1006880" lon="6.1899800"><ele>175.2</ele></trkpt>
    <trkpt lat="49.1006920" lon="6.1902010"><ele>175.2</ele></trkpt>
    <trkpt lat="49.1007160" lon="6.1905000"><ele>175.5</ele></trkpt>
    <trkpt lat="49.1008020" lon="6.1911310"><ele>175.8</ele></trkpt>
    <trkpt lat="49.1004680" lon="6.1912260"><ele>174.8</ele></trkpt>
    <trkpt lat="49.1004040" lon="6.1912440"><ele>174.5</ele></trkpt>
    <trkpt lat="49.1002020" lon="6.1912920"><ele>174.5</ele></trkpt>
    <trkpt lat="49.1001980" lon="6.1913320"><ele>174.5</ele></trkpt>
    <trkpt lat="49.1001830" lon="6.1913780"><ele>174.8</ele></trkpt>
    <trkpt lat="49.1001410" lon="6.1915380"><ele>176.0</ele></trkpt>
    <trkpt lat="49.1001030" lon="6.1916010"><ele>176.5</ele></trkpt>
    <trkpt lat="49.1000510" lon="6.1917820"><ele>177.0</ele></trkpt>
    <trkpt lat="49.0999620" lon="6.1922070"><ele>178.8</ele></trkpt>
    <trkpt lat="49.0999160" lon="6.1923330"><ele>178.8</ele></trkpt>
    <trkpt lat="49.0998850" lon="6.1923760"><ele>178.8</ele></trkpt>
    <trkpt lat="49.0998380" lon="6.1924630"><ele>178.8</ele></trkpt>
    <trkpt lat="49.0997980" lon="6.1926080"><ele>178.8</ele></trkpt>
    <trkpt lat="49.0997850" lon="6.1927750"><ele>179.0</ele></trkpt>
    <trkpt lat="49.0997990" lon="6.1929260"><ele>179.8</ele></trkpt>
    <trkpt lat="49.0998340" lon="6.1930810"><ele>180.2</ele></trkpt>
    <trkpt lat="49.1000280" lon="6.1935910"><ele>182.0</ele></trkpt>
    <trkpt lat="49.1000410" lon="6.1936250"><ele>182.0</ele></trkpt>
    <trkpt lat="49.0995470" lon="6.1940260"><ele>179.8</ele></trkpt>
    <trkpt lat="49.0994980" lon="6.1940650"><ele>179.8</ele></trkpt>
    <trkpt lat="49.0994790" lon="6.1940790"><ele>179.8</ele></trkpt>
    <trkpt lat="49.0994590" lon="6.1940940"><ele>179.8</ele></trkpt>
    <trkpt lat="49.0991140" lon="6.1944260"><ele>181.8</ele></trkpt>
    <trkpt lat="49.0989540" lon="6.1946190"><ele>182.5</ele></trkpt>
    <trkpt lat="49.0989180" lon="6.1946840"><ele>182.8</ele></trkpt>
    <trkpt lat="49.0988850" lon="6.1947850"><ele>183.0</ele></trkpt>
    <trkpt lat="49.0988640" lon="6.1948910"><ele>183.2</ele></trkpt>
    <trkpt lat="49.0988690" lon="6.1949670"><ele>183.5</ele></trkpt>
    <trkpt lat="49.0988870" lon="6.1950220"><ele>184.0</ele></trkpt>
    <trkpt lat="49.0987100" lon="6.1950980"><ele>183.0</ele></trkpt>
    <trkpt lat="49.0985050" lon="6.1952140"><ele>181.5</ele></trkpt>
    <trkpt lat="49.0984270" lon="6.1952350"><ele>180.2</ele></trkpt>
    <trkpt lat="49.0985050" lon="6.1952140"><ele>181.5</ele></trkpt>
    <trkpt lat="49.0987100" lon="6.1950980"><ele>183.0</ele></trkpt>
    <trkpt lat="49.0988870" lon="6.1950220"><ele>184.0</ele></trkpt>
    <trkpt lat="49.0989250" lon="6.1951090"><ele>184.8</ele></trkpt>
    <trkpt lat="49.0989750" lon="6.1951460"><ele>185.0</ele></trkpt>
    <trkpt lat="49.0990510" lon="6.1951690"><ele>185.2</ele></trkpt>
    <trkpt lat="49.0991600" lon="6.1951660"><ele>185.5</ele></trkpt>
    <trkpt lat="49.0992900" lon="6.1951330"><ele>184.5</ele></trkpt>
    <trkpt lat="49.0994120" lon="6.1950910"><ele>183.5</ele></trkpt>
    <trkpt lat="49.0997020" lon="6.1948950"><ele>182.0</ele></trkpt>
    <trkpt lat="49.0997200" lon="6.1948830"><ele>182.0</ele></trkpt>
    <trkpt lat="49.0997390" lon="6.1948710"><ele>182.0</ele></trkpt>
    <trkpt lat="49.0997610" lon="6.1949480"><ele>182.2</ele></trkpt>
    <trkpt lat="49.0999440" lon="6.1956500"><ele>184.0</ele></trkpt>
    <trkpt lat="49.0999740" lon="6.1958210"><ele>184.0</ele></trkpt>
    <trkpt lat="49.1000150" lon="6.1961260"><ele>185.0</ele></trkpt>
    <trkpt lat="49.1000770" lon="6.1964300"><ele>186.8</ele></trkpt>
    <trkpt lat="49.1002570" lon="6.1971230"><ele>189.5</ele></trkpt>
    <trkpt lat="49.1003140" lon="6.1973020"><ele>190.2</ele></trkpt>
    <trkpt lat="49.1003270" lon="6.1973480"><ele>190.5</ele></trkpt>
    <trkpt lat="49.1004040" lon="6.1976740"><ele>192.2</ele></trkpt>
    <trkpt lat="49.1004480" lon="6.1979750"><ele>193.2</ele></trkpt>
    <trkpt lat="49.1004570" lon="6.1982620"><ele>194.0</ele></trkpt>
    <trkpt lat="49.1004630" lon="6.1984180"><ele>194.5</ele></trkpt>
    <trkpt lat="49.1004950" lon="6.1984210"><ele>194.5</ele></trkpt>
    <trkpt lat="49.1005350" lon="6.1984210"><ele>194.2</ele></trkpt>
    <trkpt lat="49.1007410" lon="6.1984050"><ele>194.2</ele></trkpt>
    <trkpt lat="49.1009450" lon="6.1983890"><ele>194.0</ele></trkpt>
    <trkpt lat="49.1010800" lon="6.1983780"><ele>194.0</ele></trkpt>
    <trkpt lat="49.1012130" lon="6.1983680"><ele>194.0</ele></trkpt>
    <trkpt lat="49.1013130" lon="6.1983600"><ele>194.0</ele></trkpt>
    <trkpt lat="49.1014540" lon="6.1983480"><ele>193.8</ele></trkpt>
    <trkpt lat="49.1014780" lon="6.1983460"><ele>193.5</ele></trkpt>
    <trkpt lat="49.1015530" lon="6.1983440"><ele>193.2</ele></trkpt>
    <trkpt lat="49.1015560" lon="6.1984820"><ele>193.8</ele></trkpt>
    <trkpt lat="49.1015570" lon="6.1985450"><ele>194.0</ele></trkpt>
    <trkpt lat="49.1015780" lon="6.1988980"><ele>195.2</ele></trkpt>
    <trkpt lat="49.1015830" lon="6.1990560"><ele>195.5</ele></trkpt>
    <trkpt lat="49.1015850" lon="6.1991940"><ele>196.0</ele></trkpt>
    <trkpt lat="49.1015770" lon="6.1993440"><ele>196.8</ele></trkpt>
    <trkpt lat="49.1015820" lon="6.1994600"><ele>197.2</ele></trkpt>
    <trkpt lat="49.1015910" lon="6.1998490"><ele>198.2</ele></trkpt>
    <trkpt lat="49.1016040" lon="6.1998730"><ele>198.2</ele></trkpt>
    <trkpt lat="49.1016090" lon="6.2000090"><ele>198.8</ele></trkpt>
    <trkpt lat="49.1016140" lon="6.2002310"><ele>199.8</ele></trkpt>
    <trkpt lat="49.1016220" lon="6.2003690"><ele>200.2</ele></trkpt>
    <trkpt lat="49.1016300" lon="6.2004250"><ele>200.2</ele></trkpt>
    <trkpt lat="49.1016390" lon="6.2004760"><ele>200.5</ele></trkpt>
    <trkpt lat="49.1016530" lon="6.2006130"><ele>201.0</ele></trkpt>
    <trkpt lat="49.1016700" lon="6.2006580"><ele>201.2</ele></trkpt>
    <trkpt lat="49.1016980" lon="6.2007280"><ele>201.5</ele></trkpt>
    <trkpt lat="49.1019760" lon="6.2014320"><ele>204.2</ele></trkpt>
    <trkpt lat="49.1019980" lon="6.2014870"><ele>204.5</ele></trkpt>
    <trkpt lat="49.1020140" lon="6.2015270"><ele>204.5</ele></trkpt>
    <trkpt lat="49.1025280" lon="6.2028300"><ele>211.2</ele></trkpt>
    <trkpt lat="49.1027050" lon="6.2032410"><ele>213.2</ele></trkpt>
    <trkpt lat="49.1027290" lon="6.2032830"><ele>213.5</ele></trkpt>
    <trkpt lat="49.1027500" lon="6.2033100"><ele>213.8</ele></trkpt>
    <trkpt lat="49.1027630" lon="6.2033400"><ele>213.8</ele></trkpt>
    <trkpt lat="49.1027300" lon="6.2034110"><ele>213.8</ele></trkpt>
    <trkpt lat="49.1027330" lon="6.2034550"><ele>213.8</ele></trkpt>
    <trkpt lat="49.1027660" lon="6.2035140"><ele>213.8</ele></trkpt>
    <trkpt lat="49.1027850" lon="6.2035640"><ele>214.0</ele></trkpt>
    <trkpt lat="49.1028180" lon="6.2036650"><ele>214.0</ele></trkpt>
    <trkpt lat="49.1028310" lon="6.2037200"><ele>214.0</ele></trkpt>
    <trkpt lat="49.1029120" lon="6.2037120"><ele>214.0</ele></trkpt>
    <trkpt lat="49.1030010" lon="6.2037690"><ele>214.0</ele></trkpt>
    <trkpt lat="49.1030410" lon="6.2038210"><ele>214.0</ele></trkpt>
    <trkpt lat="49.1030710" lon="6.2038950"><ele>214.0</ele></trkpt>
    <trkpt lat="49.1030880" lon="6.2040760"><ele>214.5</ele></trkpt>
    <trkpt lat="49.1030810" lon="6.2041690"><ele>215.0</ele></trkpt>
    <trkpt lat="49.1031130" lon="6.2046270"><ele>215.0</ele></trkpt>
    <trkpt lat="49.1031140" lon="6.2046870"><ele>215.0</ele></trkpt>
    <trkpt lat="49.1030800" lon="6.2051940"><ele>214.2</ele></trkpt>
    <trkpt lat="49.1030010" lon="6.2062610"><ele>211.2</ele></trkpt>
    <trkpt lat="49.1029960" lon="6.2063160"><ele>211.2</ele></trkpt>
    <trkpt lat="49.1030220" lon="6.2063210"><ele>211.0</ele></trkpt>
    <trkpt lat="49.1030550" lon="6.2064640"><ele>210.5</ele></trkpt>
    <trkpt lat="49.1030280" lon="6.2068640"><ele>209.2</ele></trkpt>
    <trkpt lat="49.1030240" lon="6.2069260"><ele>209.0</ele></trkpt>
    <trkpt lat="49.1029910" lon="6.2074190"><ele>207.5</ele></trkpt>
    <trkpt lat="49.1029900" lon="6.2074300"><ele>207.2</ele></trkpt>
    <trkpt lat="49.1029570" lon="6.2079220"><ele>206.0</ele></trkpt>
    <trkpt lat="49.1029300" lon="6.2082790"><ele>205.5</ele></trkpt>
    <trkpt lat="49.1029230" lon="6.2084000"><ele>205.0</ele></trkpt>
    <trkpt lat="49.1029080" lon="6.2085380"><ele>204.8</ele></trkpt>
    <trkpt lat="49.1028600" lon="6.2087210"><ele>204.2</ele></trkpt>
    <trkpt lat="49.1028030" lon="6.2088480"><ele>204.0</ele></trkpt>
    <trkpt lat="49.1027230" lon="6.2089680"><ele>204.0</ele></trkpt>
    <trkpt lat="49.1026400" lon="6.2090660"><ele>204.0</ele></trkpt>
    <trkpt lat="49.1025200" lon="6.2092160"><ele>203.8</ele></trkpt>
    <trkpt lat="49.1023820" lon="6.2093880"><ele>203.0</ele></trkpt>
    <trkpt lat="49.1021500" lon="6.2096780"><ele>203.0</ele></trkpt>
    <trkpt lat="49.1027470" lon="6.2108800"><ele>201.8</ele></trkpt>
    <trkpt lat="49.1028940" lon="6.2112740"><ele>201.5</ele></trkpt>
    <trkpt lat="49.1029990" lon="6.2114950"><ele>201.0</ele></trkpt>
    <trkpt lat="49.1030620" lon="6.2115930"><ele>200.8</ele></trkpt>
    <trkpt lat="49.1031220" lon="6.2117090"><ele>200.8</ele></trkpt>
    <trkpt lat="49.1031580" lon="6.2117640"><ele>200.8</ele></trkpt>
    <trkpt lat="49.1032040" lon="6.2118100"><ele>200.5</ele></trkpt>
    <trkpt lat="49.1032660" lon="6.2118420"><ele>200.5</ele></trkpt>
    <trkpt lat="49.1033310" lon="6.2118610"><ele>200.5</ele></trkpt>
    <trkpt lat="49.1033570" lon="6.2119110"><ele>200.8</ele></trkpt>
    <trkpt lat="49.1034090" lon="6.2120120"><ele>200.5</ele></trkpt>
    <trkpt lat="49.1034260" lon="6.2120480"><ele>200.5</ele></trkpt>
    <trkpt lat="49.1034350" lon="6.2120760"><ele>200.5</ele></trkpt>
    <trkpt lat="49.1034410" lon="6.2121170"><ele>200.5</ele></trkpt>
    <trkpt lat="49.1034370" lon="6.2126020"><ele>200.5</ele></trkpt>
    <trkpt lat="49.1034090" lon="6.2126450"><ele>200.5</ele></trkpt>
    <trkpt lat="49.1033170" lon="6.2127950"><ele>200.8</ele></trkpt>
    <trkpt lat="49.1033020" lon="6.2128340"><ele>200.8</ele></trkpt>
    <trkpt lat="49.1033000" lon="6.2128870"><ele>200.5</ele></trkpt>
    <trkpt lat="49.1033110" lon="6.2129340"><ele>200.2</ele></trkpt>
    <trkpt lat="49.1033940" lon="6.2131170"><ele>200.0</ele></trkpt>
    <trkpt lat="49.1034100" lon="6.2132810"><ele>199.8</ele></trkpt>
    <trkpt lat="49.1034470" lon="6.2134260"><ele>199.8</ele></trkpt>
    <trkpt lat="49.1035200" lon="6.2135130"><ele>199.5</ele></trkpt>
    <trkpt lat="49.1036480" lon="6.2136030"><ele>198.8</ele></trkpt>
    <trkpt lat="49.1037400" lon="6.2136920"><ele>198.5</ele></trkpt>
    <trkpt lat="49.1037770" lon="6.2137620"><ele>198.2</ele></trkpt>
    <trkpt lat="49.1038060" lon="6.2138600"><ele>198.2</ele></trkpt>
    <trkpt lat="49.1039630" lon="6.2140660"><ele>198.0</ele></trkpt>
    <trkpt lat="49.1041030" lon="6.2143320"><ele>197.5</ele></trkpt>
    <trkpt lat="49.1042410" lon="6.2145500"><ele>197.0</ele></trkpt>
    <trkpt lat="49.1043230" lon="6.2146950"><ele>197.0</ele></trkpt>
    <trkpt lat="49.1043700" lon="6.2148630"><ele>196.5</ele></trkpt>
    <trkpt lat="49.1041110" lon="6.2150750"><ele>197.0</ele></trkpt>
    <trkpt lat="49.1037190" lon="6.2153870"><ele>197.5</ele></trkpt>
    <trkpt lat="49.1035960" lon="6.2154660"><ele>198.0</ele></trkpt>
    <trkpt lat="49.1034130" lon="6.2155590"><ele>198.0</ele></trkpt>
    <trkpt lat="49.1031130" lon="6.2156640"><ele>198.0</ele></trkpt>
    <trkpt lat="49.1025360" lon="6.2158680"><ele>199.0</ele></trkpt>
    <trkpt lat="49.1025060" lon="6.2158780"><ele>199.0</ele></trkpt>
    <trkpt lat="49.1024470" lon="6.2159090"><ele>199.0</ele></trkpt>
    <trkpt lat="49.1024140" lon="6.2159140"><ele>199.0</ele></trkpt>
    <trkpt lat="49.1023180" lon="6.2159550"><ele>198.8</ele></trkpt>
    <trkpt lat="49.1018650" lon="6.2161980"><ele>199.0</ele></trkpt>
    <trkpt lat="49.1016360" lon="6.2163450"><ele>199.0</ele></trkpt>
    <trkpt lat="49.1014340" lon="6.2164850"><ele>198.8</ele></trkpt>
    <trkpt lat="49.1012190" lon="6.2166540"><ele>198.2</ele></trkpt>
    <trkpt lat="49.1012430" lon="6.2167220"><ele>198.2</ele></trkpt>
    <trkpt lat="49.1012630" lon="6.2167790"><ele>198.2</ele></trkpt>
    <trkpt lat="49.1011670" lon="6.2170160"><ele>197.5</ele></trkpt>
    <trkpt lat="49.1010930" lon="6.2172730"><ele>196.8</ele></trkpt>
    <trkpt lat="49.1010610" lon="6.2173670"><ele>196.8</ele></trkpt>
    <trkpt lat="49.1010590" lon="6.2174590"><ele>196.2</ele></trkpt>
    <trkpt lat="49.1010730" lon="6.2175860"><ele>196.0</ele></trkpt>
    <trkpt lat="49.1010800" lon="6.2176530"><ele>196.0</ele></trkpt>
    <trkpt lat="49.1010940" lon="6.2177980"><ele>196.0</ele></trkpt>
    <trkpt lat="49.1011130" lon="6.2179200"><ele>195.8</ele></trkpt>
    <trkpt lat="49.1011170" lon="6.2179450"><ele>195.8</ele></trkpt>
    <trkpt lat="49.1010720" lon="6.2180010"><ele>196.0</ele></trkpt>
    <trkpt lat="49.1007050" lon="6.2186070"><ele>197.8</ele></trkpt>
    <trkpt lat="49.1006830" lon="6.2186430"><ele>198.0</ele></trkpt>
    <trkpt lat="49.1006890" lon="6.2188000"><ele>198.2</ele></trkpt>
    <trkpt lat="49.1007080" lon="6.2194580"><ele>201.0</ele></trkpt>
    <trkpt lat="49.1007240" lon="6.2201130"><ele>202.2</ele></trkpt>
    <trkpt lat="49.1007440" lon="6.2211950"><ele>204.5</ele></trkpt>
    <trkpt lat="49.1007460" lon="6.2212790"><ele>204.5</ele></trkpt>
    <trkpt lat="49.1007510" lon="6.2214510"><ele>205.0</ele></trkpt>
    <trkpt lat="49.1007120" lon="6.2216680"><ele>205.2</ele></trkpt>
    <trkpt lat="49.1006890" lon="6.2217530"><ele>205.5</ele></trkpt>
    <trkpt lat="49.1006350" lon="6.2218540"><ele>205.5</ele></trkpt>
    <trkpt lat="49.1006230" lon="6.2220760"><ele>206.0</ele></trkpt>
    <trkpt lat="49.1006170" lon="6.2224870"><ele>207.0</ele></trkpt>
    <trkpt lat="49.1006160" lon="6.2227100"><ele>207.2</ele></trkpt>
    <trkpt lat="49.1006640" lon="6.2235280"><ele>209.2</ele></trkpt>
    <trkpt lat="49.1006840" lon="6.2240790"><ele>210.0</ele></trkpt>
    <trkpt lat="49.1007730" lon="6.2240760"><ele>210.0</ele></trkpt>
    <trkpt lat="49.1007750" lon="6.2241660"><ele>210.0</ele></trkpt>
    <trkpt lat="49.1007760" lon="6.2241780"><ele>209.8</ele></trkpt>
    <trkpt lat="49.1007770" lon="6.2242260"><ele>210.0</ele></trkpt>
    <trkpt lat="49.1007820" lon="6.2243600"><ele>210.0</ele></trkpt>
    <trkpt lat="49.1007840" lon="6.2244220"><ele>210.0</ele></trkpt>
    <trkpt lat="49.1007850" lon="6.2244410"><ele>210.0</ele></trkpt>
    <trkpt lat="49.1006860" lon="6.2244460"><ele>210.0</ele></trkpt>
    <trkpt lat="49.1006850" lon="6.2249300"><ele>210.2</ele></trkpt>
    <trkpt lat="49.1006920" lon="6.2250760"><ele>210.5</ele></trkpt>
    <trkpt lat="49.1007200" lon="6.2253070"><ele>211.0</ele></trkpt>
    <trkpt lat="49.1007830" lon="6.2255430"><ele>211.0</ele></trkpt>
    <trkpt lat="49.1008510" lon="6.2257120"><ele>211.2</ele></trkpt>
    <trkpt lat="49.1009400" lon="6.2258650"><ele>211.2</ele></trkpt>
    <trkpt lat="49.1012970" lon="6.2263680"><ele>212.0</ele></trkpt>
    <trkpt lat="49.1020270" lon="6.2273870"><ele>213.5</ele></trkpt>
    <trkpt lat="49.1019890" lon="6.2274520"><ele>213.8</ele></trkpt>
    <trkpt lat="49.1019820" lon="6.2274430"><ele>213.8</ele></trkpt>
    <trkpt lat="49.1015220" lon="6.2282440"><ele>214.0</ele></trkpt>
    <trkpt lat="49.1018960" lon="6.2287720"><ele>214.8</ele></trkpt>
    <trkpt lat="49.1020980" lon="6.2296810"><ele>214.5</ele></trkpt>
    <trkpt lat="49.1022580" lon="6.2302460"><ele>215.0</ele></trkpt>
    <trkpt lat="49.1025170" lon="6.2308710"><ele>217.0</ele></trkpt>
    <trkpt lat="49.1027200" lon="6.2312110"><ele>217.8</ele></trkpt>
    <trkpt lat="49.1029470" lon="6.2314340"><ele>218.0</ele></trkpt>
    <trkpt lat="49.1030940" lon="6.2316360"><ele>218.8</ele></trkpt>
    <trkpt lat="49.1032050" lon="6.2319330"><ele>219.8</ele></trkpt>
    <trkpt lat="49.1028630" lon="6.2321370"><ele>219.2</ele></trkpt>
    <trkpt lat="49.1021820" lon="6.2326710"><ele>218.2</ele></trkpt>
    <trkpt lat="49.1018100" lon="6.2329370"><ele>216.5</ele></trkpt>
    <trkpt lat="49.1015590" lon="6.2330380"><ele>215.0</ele></trkpt>
    <trkpt lat="49.1018100" lon="6.2329370"><ele>216.5</ele></trkpt>
    <trkpt lat="49.1021820" lon="6.2326710"><ele>218.2</ele></trkpt>
    <trkpt lat="49.1028630" lon="6.2321370"><ele>219.2</ele></trkpt>
    <trkpt lat="49.1032050" lon="6.2319330"><ele>219.8</ele></trkpt>
    <trkpt lat="49.1035000" lon="6.2316810"><ele>218.2</ele></trkpt>
    <trkpt lat="49.1039980" lon="6.2315140"><ele>218.0</ele></trkpt>
    <trkpt lat="49.1042470" lon="6.2315450"><ele>217.5</ele></trkpt>
    <trkpt lat="49.1043180" lon="6.2314920"><ele>217.2</ele></trkpt>
    <trkpt lat="49.1043880" lon="6.2314130"><ele>217.5</ele></trkpt>
    <trkpt lat="49.1045740" lon="6.2311970"><ele>216.8</ele></trkpt>
    <trkpt lat="49.1047020" lon="6.2310280"><ele>216.5</ele></trkpt>
    <trkpt lat="49.1047180" lon="6.2310380"><ele>216.5</ele></trkpt>
    <trkpt lat="49.1047980" lon="6.2310510"><ele>216.2</ele></trkpt>
    <trkpt lat="49.1048740" lon="6.2310310"><ele>215.8</ele></trkpt>
    <trkpt lat="49.1049520" lon="6.2311230"><ele>215.2</ele></trkpt>
    <trkpt lat="49.1050150" lon="6.2311880"><ele>214.8</ele></trkpt>
    <trkpt lat="49.1051280" lon="6.2312800"><ele>214.5</ele></trkpt>
    <trkpt lat="49.1053620" lon="6.2314660"><ele>214.0</ele></trkpt>
    <trkpt lat="49.1054360" lon="6.2315110"><ele>214.0</ele></trkpt>
    <trkpt lat="49.1055530" lon="6.2315570"><ele>214.0</ele></trkpt>
    <trkpt lat="49.1056770" lon="6.2315680"><ele>213.8</ele></trkpt>
    <trkpt lat="49.1058970" lon="6.2315520"><ele>213.2</ele></trkpt>
    <trkpt lat="49.1059800" lon="6.2317070"><ele>213.5</ele></trkpt>
    <trkpt lat="49.1060570" lon="6.2317480"><ele>213.2</ele></trkpt>
    <trkpt lat="49.1061160" lon="6.2317480"><ele>213.2</ele></trkpt>
    <trkpt lat="49.1061770" lon="6.2317480"><ele>213.5</ele></trkpt>
    <trkpt lat="49.1063210" lon="6.2315420"><ele>213.2</ele></trkpt>
    <trkpt lat="49.1067380" lon="6.2314960"><ele>212.5</ele></trkpt>
    <trkpt lat="49.1070100" lon="6.2315440"><ele>212.2</ele></trkpt>
    <trkpt lat="49.1070640" lon="6.2315530"><ele>212.2</ele></trkpt>
    <trkpt lat="49.1071360" lon="6.2315500"><ele>212.0</ele></trkpt>
    <trkpt lat="49.1071780" lon="6.2315230"><ele>212.0</ele></trkpt>
    <trkpt lat="49.1072310" lon="6.2315360"><ele>212.0</ele></trkpt>
    <trkpt lat="49.1072760" lon="6.2315700"><ele>212.0</ele></trkpt>
    <trkpt lat="49.1073320" lon="6.2317140"><ele>212.2</ele></trkpt>
    <trkpt lat="49.1073900" lon="6.2318100"><ele>212.2</ele></trkpt>
    <trkpt lat="49.1074330" lon="6.2319210"><ele>212.2</ele></trkpt>
    <trkpt lat="49.1074790" lon="6.2319000"><ele>212.0</ele></trkpt>
    <trkpt lat="49.1075110" lon="6.2318980"><ele>212.0</ele></trkpt>
    <trkpt lat="49.1075930" lon="6.2319180"><ele>212.0</ele></trkpt>
    <trkpt lat="49.1076810" lon="6.2319080"><ele>212.0</ele></trkpt>
    <trkpt lat="49.1077150" lon="6.2318980"><ele>212.0</ele></trkpt>
    <trkpt lat="49.1077590" lon="6.2318850"><ele>212.0</ele></trkpt>
    <trkpt lat="49.1078750" lon="6.2316870"><ele>212.0</ele></trkpt>
    <trkpt lat="49.1079430" lon="6.2315050"><ele>211.5</ele></trkpt>
    <trkpt lat="49.1079980" lon="6.2314570"><ele>211.2</ele></trkpt>
    <trkpt lat="49.1081100" lon="6.2313940"><ele>211.0</ele></trkpt>
    <trkpt lat="49.1081830" lon="6.2313660"><ele>211.2</ele></trkpt>
    <trkpt lat="49.1085980" lon="6.2312690"><ele>212.5</ele></trkpt>
    <trkpt lat="49.1087170" lon="6.2312440"><ele>212.5</ele></trkpt>
    <trkpt lat="49.1087210" lon="6.2311570"><ele>212.2</ele></trkpt>
    <trkpt lat="49.1087270" lon="6.2309990"><ele>212.0</ele></trkpt>
    <trkpt lat="49.1087250" lon="6.2309380"><ele>212.0</ele></trkpt>
    <trkpt lat="49.1088510" lon="6.2309100"><ele>212.0</ele></trkpt>
    <trkpt lat="49.1093610" lon="6.2308080"><ele>212.2</ele></trkpt>
    <trkpt lat="49.1094160" lon="6.2307820"><ele>212.0</ele></trkpt>
    <trkpt lat="49.1094570" lon="6.2307750"><ele>212.0</ele></trkpt>
    <trkpt lat="49.1095440" lon="6.2307570"><ele>212.0</ele></trkpt>
    <trkpt lat="49.1095940" lon="6.2307550"><ele>212.0</ele></trkpt>
    <trkpt lat="49.1101140" lon="6.2306460"><ele>210.0</ele></trkpt>
    <trkpt lat="49.1101990" lon="6.2305940"><ele>210.0</ele></trkpt>
    <trkpt lat="49.1102540" lon="6.2305760"><ele>210.0</ele></trkpt>
    <trkpt lat="49.1102540" lon="6.2305250"><ele>210.0</ele></trkpt>
    <trkpt lat="49.1102540" lon="6.2304230"><ele>210.0</ele></trkpt>
    <trkpt lat="49.1102540" lon="6.2302550"><ele>210.0</ele></trkpt>
    <trkpt lat="49.1102530" lon="6.2300290"><ele>210.0</ele></trkpt>
    <trkpt lat="49.1102520" lon="6.2299670"><ele>210.0</ele></trkpt>
    <trkpt lat="49.1102400" lon="6.2296390"><ele>210.0</ele></trkpt>
    <trkpt lat="49.1102170" lon="6.2294240"><ele>210.0</ele></trkpt>
    <trkpt lat="49.1102990" lon="6.2294090"><ele>209.8</ele></trkpt>
    <trkpt lat="49.1103310" lon="6.2294110"><ele>209.8</ele></trkpt>
    <trkpt lat="49.1105760" lon="6.2294100"><ele>209.5</ele></trkpt>
    <trkpt lat="49.1106710" lon="6.2293940"><ele>209.0</ele></trkpt>
    <trkpt lat="49.1109220" lon="6.2293280"><ele>207.8</ele></trkpt>
    <trkpt lat="49.1113040" lon="6.2292020"><ele>207.0</ele></trkpt>
    <trkpt lat="49.1114540" lon="6.2291660"><ele>206.8</ele></trkpt>
    <trkpt lat="49.1116380" lon="6.2291430"><ele>206.8</ele></trkpt>
    <trkpt lat="49.1116840" lon="6.2291500"><ele>206.8</ele></trkpt>
    <trkpt lat="49.1118930" lon="6.2292000"><ele>207.0</ele></trkpt>
    <trkpt lat="49.1120970" lon="6.2288220"><ele>206.8</ele></trkpt>
    <trkpt lat="49.1122160" lon="6.2285830"><ele>205.8</ele></trkpt>
    <trkpt lat="49.1123060" lon="6.2283590"><ele>206.0</ele></trkpt>
    <trkpt lat="49.1123050" lon="6.2280980"><ele>205.2</ele></trkpt>
    <trkpt lat="49.1123600" lon="6.2277360"><ele>205.2</ele></trkpt>
    <trkpt lat="49.1124200" lon="6.2275470"><ele>204.8</ele></trkpt>
    <trkpt lat="49.1124900" lon="6.2273750"><ele>204.5</ele></trkpt>
    <trkpt lat="49.1125860" lon="6.2272010"><ele>203.8</ele></trkpt>
    <trkpt lat="49.1126570" lon="6.2270990"><ele>203.5</ele></trkpt>
    <trkpt lat="49.1127540" lon="6.2269950"><ele>203.0</ele></trkpt>
    <trkpt lat="49.1129480" lon="6.2268690"><ele>203.2</ele></trkpt>
    <trkpt lat="49.1130370" lon="6.2268260"><ele>203.5</ele></trkpt>
    <trkpt lat="49.1132290" lon="6.2267900"><ele>203.8</ele></trkpt>
    <trkpt lat="49.1133020" lon="6.2267950"><ele>203.8</ele></trkpt>
    <trkpt lat="49.1133630" lon="6.2268110"><ele>204.0</ele></trkpt>
    <trkpt lat="49.1134080" lon="6.2264920"><ele>203.2</ele></trkpt>
    <trkpt lat="49.1133390" lon="6.2264690"><ele>203.2</ele></trkpt>
    <trkpt lat="49.1132610" lon="6.2264210"><ele>203.0</ele></trkpt>
    <trkpt lat="49.1132190" lon="6.2263700"><ele>202.8</ele></trkpt>
    <trkpt lat="49.1131740" lon="6.2262880"><ele>202.5</ele></trkpt>
    <trkpt lat="49.1131520" lon="6.2262310"><ele>202.2</ele></trkpt>
    <trkpt lat="49.1131370" lon="6.2261600"><ele>202.0</ele></trkpt>
    <trkpt lat="49.1131190" lon="6.2259890"><ele>201.5</ele></trkpt>
    <trkpt lat="49.1130900" lon="6.2258800"><ele>201.2</ele></trkpt>
    <trkpt lat="49.1130330" lon="6.2257550"><ele>200.5</ele></trkpt>
    <trkpt lat="49.1129510" lon="6.2256210"><ele>200.5</ele></trkpt>
    <trkpt lat="49.1128260" lon="6.2254350"><ele>200.2</ele></trkpt>
    <trkpt lat="49.1127970" lon="6.2253650"><ele>200.2</ele></trkpt>
    <trkpt lat="49.1126450" lon="6.2247890"><ele>199.5</ele></trkpt>
    <trkpt lat="49.1125080" lon="6.2247150"><ele>199.8</ele></trkpt>
    <trkpt lat="49.1124810" lon="6.2246980"><ele>199.8</ele></trkpt>
    <trkpt lat="49.1122360" lon="6.2244880"><ele>200.8</ele></trkpt>
    <trkpt lat="49.1122780" lon="6.2243160"><ele>200.5</ele></trkpt>
    <trkpt lat="49.1123320" lon="6.2241450"><ele>200.0</ele></trkpt>
    <trkpt lat="49.1124520" lon="6.2238660"><ele>199.2</ele></trkpt>
    <trkpt lat="49.1125410" lon="6.2236830"><ele>198.5</ele></trkpt>
    <trkpt lat="49.1125940" lon="6.2236090"><ele>198.2</ele></trkpt>
    <trkpt lat="49.1127360" lon="6.2234750"><ele>197.5</ele></trkpt>
    <trkpt lat="49.1128250" lon="6.2234210"><ele>197.5</ele></trkpt>
    <trkpt lat="49.1128600" lon="6.2234090"><ele>197.8</ele></trkpt>
    <trkpt lat="49.1129280" lon="6.2232580"><ele>198.0</ele></trkpt>
    <trkpt lat="49.1130770" lon="6.2230640"><ele>198.0</ele></trkpt>
    <trkpt lat="49.1130630" lon="6.2228630"><ele>198.0</ele></trkpt>
    <trkpt lat="49.1131170" lon="6.2228300"><ele>198.0</ele></trkpt>
    <trkpt lat="49.1132110" lon="6.2227730"><ele>198.5</ele></trkpt>
    <trkpt lat="49.1132990" lon="6.2227200"><ele>198.8</ele></trkpt>
    <trkpt lat="49.1132870" lon="6.2226770"><ele>198.8</ele></trkpt>
    <trkpt lat="49.1132770" lon="6.2226440"><ele>198.8</ele></trkpt>
    <trkpt lat="49.1132580" lon="6.2225970"><ele>198.5</ele></trkpt>
    <trkpt lat="49.1132310" lon="6.2225580"><ele>198.5</ele></trkpt>
    <trkpt lat="49.1129340" lon="6.2221800"><ele>198.0</ele></trkpt>
    <trkpt lat="49.1129090" lon="6.2221320"><ele>198.0</ele></trkpt>
    <trkpt lat="49.1128710" lon="6.2220030"><ele>198.2</ele></trkpt>
    <trkpt lat="49.1128470" lon="6.2219050"><ele>198.0</ele></trkpt>
    <trkpt lat="49.1127530" lon="6.2215310"><ele>197.8</ele></trkpt>
    <trkpt lat="49.1127510" lon="6.2214310"><ele>197.8</ele></trkpt>
    <trkpt lat="49.1127080" lon="6.2212640"><ele>198.2</ele></trkpt>
    <trkpt lat="49.1125990" lon="6.2208310"><ele>198.5</ele></trkpt>
    <trkpt lat="49.1125760" lon="6.2207780"><ele>198.5</ele></trkpt>
    <trkpt lat="49.1126450" lon="6.2207130"><ele>199.2</ele></trkpt>
    <trkpt lat="49.1126090" lon="6.2206390"><ele>199.0</ele></trkpt>
    <trkpt lat="49.1125490" lon="6.2204080"><ele>199.0</ele></trkpt>
    <trkpt lat="49.1125380" lon="6.2203640"><ele>199.0</ele></trkpt>
    <trkpt lat="49.1123860" lon="6.2197820"><ele>199.2</ele></trkpt>
    <trkpt lat="49.1121930" lon="6.2190390"><ele>199.8</ele></trkpt>
    <trkpt lat="49.1120840" lon="6.2186180"><ele>199.5</ele></trkpt>
    <trkpt lat="49.1120640" lon="6.2185470"><ele>199.2</ele></trkpt>
    <trkpt lat="49.1120300" lon="6.2184200"><ele>199.2</ele></trkpt>
    <trkpt lat="49.1121750" lon="6.2183330"><ele>199.8</ele></trkpt>
    <trkpt lat="49.1121630" lon="6.2182700"><ele>199.5</ele></trkpt>
    <trkpt lat="49.1121670" lon="6.2181990"><ele>199.2</ele></trkpt>
    <trkpt lat="49.1121780" lon="6.2181340"><ele>199.0</ele></trkpt>
    <trkpt lat="49.1122350" lon="6.2180530"><ele>199.0</ele></trkpt>
    <trkpt lat="49.1123240" lon="6.2179510"><ele>199.0</ele></trkpt>
    <trkpt lat="49.1124850" lon="6.2175930"><ele>198.8</ele></trkpt>
    <trkpt lat="49.1125020" lon="6.2175190"><ele>199.0</ele></trkpt>
    <trkpt lat="49.1125320" lon="6.2174590"><ele>199.0</ele></trkpt>
    <trkpt lat="49.1125920" lon="6.2174060"><ele>199.0</ele></trkpt>
    <trkpt lat="49.1125930" lon="6.2172840"><ele>199.0</ele></trkpt>
    <trkpt lat="49.1125750" lon="6.2172490"><ele>199.0</ele></trkpt>
    <trkpt lat="49.1121650" lon="6.2161800"><ele>196.0</ele></trkpt>
    <trkpt lat="49.1121470" lon="6.2161490"><ele>196.0</ele></trkpt>
    <trkpt lat="49.1121200" lon="6.2161040"><ele>195.8</ele></trkpt>
    <trkpt lat="49.1121960" lon="6.2159980"><ele>195.5</ele></trkpt>
    <trkpt lat="49.1121390" lon="6.2158940"><ele>195.2</ele></trkpt>
    <trkpt lat="49.1121200" lon="6.2158590"><ele>195.2</ele></trkpt>
    <trkpt lat="49.1122390" lon="6.2156880"><ele>195.0</ele></trkpt>
    <trkpt lat="49.1122610" lon="6.2156290"><ele>195.0</ele></trkpt>
    <trkpt lat="49.1123210" lon="6.2153490"><ele>194.2</ele></trkpt>
    <trkpt lat="49.1123080" lon="6.2152790"><ele>194.0</ele></trkpt>
    <trkpt lat="49.1122840" lon="6.2152160"><ele>193.8</ele></trkpt>
    <trkpt lat="49.1122260" lon="6.2150990"><ele>193.2</ele></trkpt>
    <trkpt lat="49.1123230" lon="6.2149770"><ele>193.2</ele></trkpt>
    <trkpt lat="49.1120770" lon="6.2145000"><ele>192.0</ele></trkpt>
    <trkpt lat="49.1120020" lon="6.2143560"><ele>191.5</ele></trkpt>
    <trkpt lat="49.1119030" lon="6.2141650"><ele>190.8</ele></trkpt>
    <trkpt lat="49.1118340" lon="6.2140320"><ele>190.8</ele></trkpt>
    <trkpt lat="49.1116580" lon="6.2136920"><ele>189.8</ele></trkpt>
    <trkpt lat="49.1115740" lon="6.2134880"><ele>189.0</ele></trkpt>
    <trkpt lat="49.1113640" lon="6.2128370"><ele>186.0</ele></trkpt>
    <trkpt lat="49.1113980" lon="6.2128120"><ele>186.0</ele></trkpt>
    <trkpt lat="49.1113220" lon="6.2125900"><ele>185.5</ele></trkpt>
    <trkpt lat="49.1112250" lon="6.2123370"><ele>185.5</ele></trkpt>
    <trkpt lat="49.1112810" lon="6.2122620"><ele>185.2</ele></trkpt>
    <trkpt lat="49.1113230" lon="6.2122100"><ele>185.0</ele></trkpt>
    <trkpt lat="49.1113650" lon="6.2120770"><ele>184.5</ele></trkpt>
    <trkpt lat="49.1113830" lon="6.2119810"><ele>184.0</ele></trkpt>
    <trkpt lat="49.1114730" lon="6.2114200"><ele>184.0</ele></trkpt>
    <trkpt lat="49.1115240" lon="6.2111360"><ele>183.5</ele></trkpt>
    <trkpt lat="49.1116050" lon="6.2107420"><ele>183.0</ele></trkpt>
    <trkpt lat="49.1116890" lon="6.2104500"><ele>183.2</ele></trkpt>
    <trkpt lat="49.1117540" lon="6.2103060"><ele>183.5</ele></trkpt>
    <trkpt lat="49.1118070" lon="6.2102360"><ele>183.5</ele></trkpt>
    <trkpt lat="49.1118640" lon="6.2101950"><ele>183.8</ele></trkpt>
    <trkpt lat="49.1119230" lon="6.2101990"><ele>183.5</ele></trkpt>
    <trkpt lat="49.1119570" lon="6.2101880"><ele>183.5</ele></trkpt>
    <trkpt lat="49.1119880" lon="6.2101570"><ele>183.8</ele></trkpt>
    <trkpt lat="49.1124660" lon="6.2093940"><ele>182.5</ele></trkpt>
    <trkpt lat="49.1132080" lon="6.2083810"><ele>181.0</ele></trkpt>
    <trkpt lat="49.1132390" lon="6.2079070"><ele>181.8</ele></trkpt>
    <trkpt lat="49.1132570" lon="6.2076390"><ele>181.8</ele></trkpt>
    <trkpt lat="49.1132790" lon="6.2074020"><ele>182.0</ele></trkpt>
    <trkpt lat="49.1133040" lon="6.2072770"><ele>182.0</ele></trkpt>
    <trkpt lat="49.1133430" lon="6.2071640"><ele>182.2</ele></trkpt>
    <trkpt lat="49.1134500" lon="6.2067900"><ele>184.0</ele></trkpt>
    <trkpt lat="49.1134570" lon="6.2067120"><ele>184.2</ele></trkpt>
    <trkpt lat="49.1134530" lon="6.2066520"><ele>184.2</ele></trkpt>
    <trkpt lat="49.1135230" lon="6.2065480"><ele>184.5</ele></trkpt>
    <trkpt lat="49.1135990" lon="6.2064370"><ele>184.0</ele></trkpt>
    <trkpt lat="49.1136640" lon="6.2063070"><ele>184.0</ele></trkpt>
    <trkpt lat="49.1137630" lon="6.2060810"><ele>184.5</ele></trkpt>
    <trkpt lat="49.1138300" lon="6.2058930"><ele>184.8</ele></trkpt>
    <trkpt lat="49.1138800" lon="6.2057200"><ele>185.0</ele></trkpt>
    <trkpt lat="49.1141180" lon="6.2051850"><ele>185.0</ele></trkpt>
    <trkpt lat="49.1142480" lon="6.2049670"><ele>184.0</ele></trkpt>
    <trkpt lat="49.1143300" lon="6.2048660"><ele>183.8</ele></trkpt>
    <trkpt lat="49.1145390" lon="6.2046080"><ele>183.5</ele></trkpt>
    <trkpt lat="49.1147740" lon="6.2042650"><ele>183.5</ele></trkpt>
    <trkpt lat="49.1148540" lon="6.2040700"><ele>183.5</ele></trkpt>
    <trkpt lat="49.1148890" lon="6.2039690"><ele>183.2</ele></trkpt>
    <trkpt lat="49.1149070" lon="6.2039160"><ele>183.2</ele></trkpt>
    <trkpt lat="49.1148670" lon="6.2038860"><ele>183.2</ele></trkpt>
    <trkpt lat="49.1148840" lon="6.2038370"><ele>183.2</ele></trkpt>
    <trkpt lat="49.1149240" lon="6.2037190"><ele>183.2</ele></trkpt>
    <trkpt lat="49.1149300" lon="6.2034670"><ele>183.2</ele></trkpt>
    <trkpt lat="49.1145420" lon="6.2011380"><ele>183.5</ele></trkpt>
    <trkpt lat="49.1145150" lon="6.2009620"><ele>183.8</ele></trkpt>
    <trkpt lat="49.1142940" lon="6.1994520"><ele>184.0</ele></trkpt>
    <trkpt lat="49.1142760" lon="6.1993360"><ele>183.8</ele></trkpt>
    <trkpt lat="49.1142740" lon="6.1993250"><ele>183.8</ele></trkpt>
    <trkpt lat="49.1142360" lon="6.1990880"><ele>183.8</ele></trkpt>
    <trkpt lat="49.1141740" lon="6.1986620"><ele>183.0</ele></trkpt>
    <trkpt lat="49.1141650" lon="6.1985970"><ele>183.0</ele></trkpt>
    <trkpt lat="49.1141340" lon="6.1983810"><ele>183.0</ele></trkpt>
    <trkpt lat="49.1141190" lon="6.1982600"><ele>182.5</ele></trkpt>
    <trkpt lat="49.1141180" lon="6.1981210"><ele>182.0</ele></trkpt>
    <trkpt lat="49.1141080" lon="6.1976170"><ele>181.5</ele></trkpt>
    <trkpt lat="49.1141000" lon="6.1974760"><ele>181.0</ele></trkpt>
    <trkpt lat="49.1140480" lon="6.1969400"><ele>180.2</ele></trkpt>
    <trkpt lat="49.1140390" lon="6.1968190"><ele>180.0</ele></trkpt>
    <trkpt lat="49.1139980" lon="6.1964320"><ele>180.0</ele></trkpt>
    <trkpt lat="49.1139960" lon="6.1963840"><ele>180.0</ele></trkpt>
    <trkpt lat="49.1139940" lon="6.1963380"><ele>180.0</ele></trkpt>
    <trkpt lat="49.1139900" lon="6.1962410"><ele>179.8</ele></trkpt>
    <trkpt lat="49.1139770" lon="6.1947790"><ele>178.0</ele></trkpt>
    <trkpt lat="49.1139880" lon="6.1944390"><ele>178.5</ele></trkpt>
    <trkpt lat="49.1140010" lon="6.1940120"><ele>178.2</ele></trkpt>
    <trkpt lat="49.1140230" lon="6.1938280"><ele>178.0</ele></trkpt>
    <trkpt lat="49.1141090" lon="6.1930250"><ele>177.5</ele></trkpt>
    <trkpt lat="49.1141570" lon="6.1925640"><ele>177.8</ele></trkpt>
    <trkpt lat="49.1142150" lon="6.1920010"><ele>178.0</ele></trkpt>
    <trkpt lat="49.1142280" lon="6.1918330"><ele>178.2</ele></trkpt>
    <trkpt lat="49.1142130" lon="6.1917290"><ele>178.5</ele></trkpt>
    <trkpt lat="49.1141820" lon="6.1916160"><ele>179.0</ele></trkpt>
    <trkpt lat="49.1142950" lon="6.1915220"><ele>178.2</ele></trkpt>
    <trkpt lat="49.1144130" lon="6.1913790"><ele>177.2</ele></trkpt>
    <trkpt lat="49.1145260" lon="6.1912330"><ele>177.2</ele></trkpt>
    <trkpt lat="49.1145620" lon="6.1911510"><ele>177.5</ele></trkpt>
    <trkpt lat="49.1145900" lon="6.1910470"><ele>177.2</ele></trkpt>
    <trkpt lat="49.1146050" lon="6.1909460"><ele>177.2</ele></trkpt>
    <trkpt lat="49.1146290" lon="6.1905050"><ele>176.8</ele></trkpt>
    <trkpt lat="49.1146690" lon="6.1898650"><ele>175.2</ele></trkpt>
    <trkpt lat="49.1146600" lon="6.1897630"><ele>175.2</ele></trkpt>
    <trkpt lat="49.1146240" lon="6.1896470"><ele>175.2</ele></trkpt>
    <trkpt lat="49.1145450" lon="6.1894610"><ele>175.2</ele></trkpt>
    <trkpt lat="49.1145050" lon="6.1893370"><ele>174.8</ele></trkpt>
    <trkpt lat="49.1143560" lon="6.1885620"><ele>172.8</ele></trkpt>
    <trkpt lat="49.1143160" lon="6.1883300"><ele>172.2</ele></trkpt>
    <trkpt lat="49.1142900" lon="6.1881520"><ele>172.8</ele></trkpt>
    <trkpt lat="49.1142910" lon="6.1877680"><ele>172.5</ele></trkpt>
    <trkpt lat="49.1142840" lon="6.1877360"><ele>172.2</ele></trkpt>
    <trkpt lat="49.1141540" lon="6.1874970"><ele>172.0</ele></trkpt>
    <trkpt lat="49.1140880" lon="6.1873780"><ele>172.5</ele></trkpt>
    <trkpt lat="49.1139870" lon="6.1872260"><ele>173.2</ele></trkpt>
    <trkpt lat="49.1138120" lon="6.1869630"><ele>171.0</ele></trkpt>
    <trkpt lat="49.1136350" lon="6.1866980"><ele>171.0</ele></trkpt>
    <trkpt lat="49.1134680" lon="6.1864460"><ele>170.8</ele></trkpt>
    <trkpt lat="49.1134430" lon="6.1863560"><ele>171.0</ele></trkpt>
    <trkpt lat="49.1134200" lon="6.1862840"><ele>171.0</ele></trkpt>
    <trkpt lat="49.1134060" lon="6.1862370"><ele>171.0</ele></trkpt>
    <trkpt lat="49.1133510" lon="6.1860810"><ele>171.0</ele></trkpt>
    <trkpt lat="49.1132630" lon="6.1858300"><ele>170.5</ele></trkpt>
    <trkpt lat="49.1132240" lon="6.1857430"><ele>169.0</ele></trkpt>
    <trkpt lat="49.1131960" lon="6.1857050"><ele>168.0</ele></trkpt>
    <trkpt lat="49.1129400" lon="6.1853460"><ele>168.8</ele></trkpt>
    <trkpt lat="49.1129060" lon="6.1853180"><ele>169.5</ele></trkpt>
    <trkpt lat="49.1128700" lon="6.1853030"><ele>170.0</ele></trkpt>
    <trkpt lat="49.1127050" lon="6.1853170"><ele>170.0</ele></trkpt>
    <trkpt lat="49.1126990" lon="6.1852170"><ele>171.0</ele></trkpt>
    <trkpt lat="49.1126980" lon="6.1851650"><ele>171.0</ele></trkpt>
    <trkpt lat="49.1126960" lon="6.1851030"><ele>171.0</ele></trkpt>
    <trkpt lat="49.1127300" lon="6.1850330"><ele>171.0</ele></trkpt>
    <trkpt lat="49.1127590" lon="6.1849860"><ele>171.0</ele></trkpt>
    <trkpt lat="49.1127270" lon="6.1849230"><ele>171.2</ele></trkpt>
    <trkpt lat="49.1127110" lon="6.1848730"><ele>171.5</ele></trkpt>
    <trkpt lat="49.1127030" lon="6.1847900"><ele>172.0</ele></trkpt>
    <trkpt lat="49.1127180" lon="6.1847160"><ele>172.5</ele></trkpt>
    <trkpt lat="49.1127340" lon="6.1846850"><ele>172.2</ele></trkpt>
    <trkpt lat="49.1130000" lon="6.1843210"><ele>172.5</ele></trkpt>
    <trkpt lat="49.1130760" lon="6.1842810"><ele>171.8</ele></trkpt>
    <trkpt lat="49.1131250" lon="6.1842690"><ele>171.2</ele></trkpt>
    <trkpt lat="49.1132690" lon="6.1840280"><ele>170.2</ele></trkpt>
    <trkpt lat="49.1133210" lon="6.1839270"><ele>170.0</ele></trkpt>
    <trkpt lat="49.1133250" lon="6.1838920"><ele>170.0</ele></trkpt>
    <trkpt lat="49.1132890" lon="6.1838380"><ele>170.0</ele></trkpt>
    <trkpt lat="49.1132210" lon="6.1837490"><ele>170.2</ele></trkpt>
    <trkpt lat="49.1131800" lon="6.1837020"><ele>170.5</ele></trkpt>
    <trkpt lat="49.1131310" lon="6.1836970"><ele>171.0</ele></trkpt>
    <trkpt lat="49.1130850" lon="6.1836940"><ele>171.2</ele></trkpt>
    <trkpt lat="49.1130840" lon="6.1835910"><ele>171.5</ele></trkpt>
    <trkpt lat="49.1130720" lon="6.1834810"><ele>171.0</ele></trkpt>
    <trkpt lat="49.1130430" lon="6.1833850"><ele>170.5</ele></trkpt>
    <trkpt lat="49.1129530" lon="6.1831790"><ele>172.0</ele></trkpt>
    <trkpt lat="49.1122640" lon="6.1817060"><ele>172.2</ele></trkpt>
    <trkpt lat="49.1116260" lon="6.1803420"><ele>173.0</ele></trkpt>
    <trkpt lat="49.1115640" lon="6.1802510"><ele>173.5</ele></trkpt>
    <trkpt lat="49.1113420" lon="6.1799200"><ele>174.0</ele></trkpt>
    <trkpt lat="49.1110110" lon="6.1792030"><ele>172.5</ele></trkpt>
    <trkpt lat="49.1109830" lon="6.1791430"><ele>172.2</ele></trkpt>
    <trkpt lat="49.1109300" lon="6.1790250"><ele>172.2</ele></trkpt>
    <trkpt lat="49.1109080" lon="6.1789790"><ele>172.0</ele></trkpt>
    <trkpt lat="49.1108970" lon="6.1789540"><ele>172.0</ele></trkpt>
    <trkpt lat="49.1108290" lon="6.1787990"><ele>172.2</ele></trkpt>
    <trkpt lat="49.1105310" lon="6.1781710"><ele>173.0</ele></trkpt>
    <trkpt lat="49.1104680" lon="6.1780280"><ele>173.0</ele></trkpt>
    <trkpt lat="49.1104560" lon="6.1779730"><ele>173.0</ele></trkpt>
    <trkpt lat="49.1104250" lon="6.1779720"><ele>173.0</ele></trkpt>
    <trkpt lat="49.1103840" lon="6.1779670"><ele>173.0</ele></trkpt>
    <trkpt lat="49.1103370" lon="6.1779440"><ele>173.0</ele></trkpt>
    <trkpt lat="49.1103320" lon="6.1779420"><ele>172.8</ele></trkpt>
    <trkpt lat="49.1103120" lon="6.1779210"><ele>173.0</ele></trkpt>
    <trkpt lat="49.1102710" lon="6.1778360"><ele>173.0</ele></trkpt>
    <trkpt lat="49.1101370" lon="6.1775550"><ele>174.2</ele></trkpt>
    <trkpt lat="49.1101120" lon="6.1774250"><ele>174.2</ele></trkpt>
    <trkpt lat="49.1101030" lon="6.1771670"><ele>173.5</ele></trkpt>
    <trkpt lat="49.1100150" lon="6.1769620"><ele>173.8</ele></trkpt>
    <trkpt lat="49.1099770" lon="6.1770100"><ele>174.2</ele></trkpt>
    <trkpt lat="49.1099000" lon="6.1770060"><ele>175.5</ele></trkpt>
    <trkpt lat="49.1098720" lon="6.1770370"><ele>176.0</ele></trkpt>
    <trkpt lat="49.1097880" lon="6.1771340"><ele>178.0</ele></trkpt>
    <trkpt lat="49.1096300" lon="6.1773040"><ele>179.8</ele></trkpt>
    <trkpt lat="49.1095730" lon="6.1773630"><ele>179.5</ele></trkpt>
    <trkpt lat="49.1095400" lon="6.1773130"><ele>179.8</ele></trkpt>
    <trkpt lat="49.1095290" lon="6.1772910"><ele>179.8</ele></trkpt>
    <trkpt lat="49.1094690" lon="6.1771660"><ele>179.8</ele></trkpt>
    <trkpt lat="49.1094370" lon="6.1771030"><ele>179.8</ele></trkpt>
    <trkpt lat="49.1093930" lon="6.1771540"><ele>179.8</ele></trkpt>
    <trkpt lat="49.1093080" lon="6.1769770"><ele>179.2</ele></trkpt>
  </trkseg></trk>
</gpx>