<?xml version="1.0" encoding="UTF-8"?>
<gpx version="1.1" creator="olifant"
     xmlns="http://www.topografix.com/GPX/1/1"
     xmlns:xsi="http://www.w3.org/2001/XMLSchema-instance"
     xsi:schemaLocation="http://www.topografix.com/GPX/1/1 http://www.topografix.com/GPX/1/1/gpx.xsd">
  <metadata><name>Borny par le plus court</name><desc>9.6 km. D+ 38 m. 39 % de chemins. Le meme but en trois quarts d'heure de moins : l'aller et le retour par le meme trace, celui que le routeur juge le plus court. Assume comme un aller-retour, pas comme une boucle.</desc></metadata>
  <wpt lat="49.1153870" lon="6.1768700"><name>Rue des Parmentiers, Metz</name><desc>Depart des deux boucles vers Borny, dans la Nouvelle Ville. A dix minutes a pied de la gare, dont il partage les commodites.</desc></wpt>
  <wpt lat="49.1057150" lon="6.2272340"><name>Centre commercial de Borny</name><desc>L'ancien Cora, passe sous l'enseigne Carrefour ; galerie, cafe et toilettes. Le seul ravitaillement a mi-parcours des deux boucles de l'est.</desc></wpt>
  <trk><name>Borny par le plus court</name><trkseg>
    <trkpt lat="49.1153870" lon="6.1768670"><ele>174.5</ele></trkpt>
    <trkpt lat="49.1155220" lon="6.1770330"><ele>175.0</ele></trkpt>
    <trkpt lat="49.1158090" lon="6.1772820"><ele>174.0</ele></trkpt>
    <trkpt lat="49.1160140" lon="6.1774070"><ele>174.0</ele></trkpt>
    <trkpt lat="49.1158940" lon="6.1776380"><ele>174.0</ele></trkpt>
    <trkpt lat="49.1157770" lon="6.1778990"><ele>174.0</ele></trkpt>
    <trkpt lat="49.1156960" lon="6.1781300"><ele>173.5</ele></trkpt>
    <trkpt lat="49.1156250" lon="6.1784910"><ele>172.2</ele></trkpt>
    <trkpt lat="49.1155990" lon="6.1785220"><ele>172.0</ele></trkpt>
    <trkpt lat="49.1155690" lon="6.1785410"><ele>172.0</ele></trkpt>
    <trkpt lat="49.1153910" lon="6.1785200"><ele>171.5</ele></trkpt>
    <trkpt lat="49.1153680" lon="6.1786040"><ele>171.2</ele></trkpt>
    <trkpt lat="49.1153520" lon="6.1788590"><ele>171.0</ele></trkpt>
    <trkpt lat="49.1153480" lon="6.1789320"><ele>171.0</ele></trkpt>
    <trkpt lat="49.1152370" lon="6.1789690"><ele>170.8</ele></trkpt>
    <trkpt lat="49.1152440" lon="6.1790270"><ele>170.8</ele></trkpt>
    <trkpt lat="49.1151530" lon="6.1790670"><ele>170.5</ele></trkpt>
    <trkpt lat="49.1150170" lon="6.1791060"><ele>170.2</ele></trkpt>
    <trkpt lat="49.1150290" lon="6.1791810"><ele>170.0</ele></trkpt>
    <trkpt lat="49.1150440" lon="6.1792870"><ele>170.0</ele></trkpt>
    <trkpt lat="49.1151010" lon="6.1796650"><ele>170.0</ele></trkpt>
    <trkpt lat="49.1151380" lon="6.1799290"><ele>170.0</ele></trkpt>
    <trkpt lat="49.1151620" lon="6.1800240"><ele>170.0</ele></trkpt>
    <trkpt lat="49.1151760" lon="6.1801280"><ele>170.0</ele></trkpt>
    <trkpt lat="49.1152720" lon="6.1807950"><ele>169.0</ele></trkpt>
    <trkpt lat="49.1152730" lon="6.1808400"><ele>169.0</ele></trkpt>
    <trkpt lat="49.1152480" lon="6.1809120"><ele>169.0</ele></trkpt>
    <trkpt lat="49.1151830" lon="6.1809620"><ele>169.0</ele></trkpt>
    <trkpt lat="49.1150540" lon="6.1810110"><ele>169.2</ele></trkpt>
    <trkpt lat="49.1146890" lon="6.1811330"><ele>169.0</ele></trkpt>
    <trkpt lat="49.1146180" lon="6.1811580"><ele>169.0</ele></trkpt>
    <trkpt lat="49.1145540" lon="6.1811960"><ele>169.0</ele></trkpt>
    <trkpt lat="49.1145230" lon="6.1812220"><ele>169.0</ele></trkpt>
    <trkpt lat="49.1145300" lon="6.1812700"><ele>169.0</ele></trkpt>
    <trkpt lat="49.1145480" lon="6.1813870"><ele>169.0</ele></trkpt>
    <trkpt lat="49.1146130" lon="6.1818140"><ele>168.5</ele></trkpt>
    <trkpt lat="49.1146020" lon="6.1818970"><ele>168.5</ele></trkpt>
    <trkpt lat="49.1145940" lon="6.1819340"><ele>168.5</ele></trkpt>
    <trkpt lat="49.1145750" lon="6.1820260"><ele>168.5</ele></trkpt>
    <trkpt lat="49.1145300" lon="6.1820030"><ele>168.2</ele></trkpt>
    <trkpt lat="49.1145160" lon="6.1819950"><ele>168.2</ele></trkpt>
    <trkpt lat="49.1144920" lon="6.1820490"><ele>168.2</ele></trkpt>
    <trkpt lat="49.1142930" lon="6.1821880"><ele>168.8</ele></trkpt>
    <trkpt lat="49.1139090" lon="6.1824760"><ele>169.0</ele></trkpt>
    <trkpt lat="49.1136440" lon="6.1826720"><ele>169.0</ele></trkpt>
    <trkpt lat="49.1135630" lon="6.1827230"><ele>169.0</ele></trkpt>
    <trkpt lat="49.1134460" lon="6.1828110"><ele>169.0</ele></trkpt>
    <trkpt lat="49.1133450" lon="6.1829010"><ele>169.2</ele></trkpt>
    <trkpt lat="49.1133420" lon="6.1829330"><ele>169.5</ele></trkpt>
    <trkpt lat="49.1133470" lon="6.1830500"><ele>169.8</ele></trkpt>
    <trkpt lat="49.1133500" lon="6.1831170"><ele>169.8</ele></trkpt>
    <trkpt lat="49.1134190" lon="6.1832120"><ele>169.8</ele></trkpt>
    <trkpt lat="49.1133700" lon="6.1833030"><ele>169.8</ele></trkpt>
    <trkpt lat="49.1133410" lon="6.1833560"><ele>170.0</ele></trkpt>
    <trkpt lat="49.1132920" lon="6.1834450"><ele>170.0</ele></trkpt>
    <trkpt lat="49.1132380" lon="6.1835430"><ele>170.5</ele></trkpt>
    <trkpt lat="49.1132190" lon="6.1835790"><ele>170.5</ele></trkpt>
    <trkpt lat="49.1131800" lon="6.1837020"><ele>170.5</ele></trkpt>
    <trkpt lat="49.1132210" lon="6.1837490"><ele>170.2</ele></trkpt>
    <trkpt lat="49.1132890" lon="6.1838380"><ele>170.0</ele></trkpt>
    <trkpt lat="49.1133250" lon="6.1838920"><ele>170.0</ele></trkpt>
    <trkpt lat="49.1133210" lon="6.1839270"><ele>170.0</ele></trkpt>
    <trkpt lat="49.1132690" lon="6.1840280"><ele>170.2</ele></trkpt>
    <trkpt lat="49.1131250" lon="6.1842690"><ele>171.2</ele></trkpt>
    <trkpt lat="49.1130760" lon="6.1842810"><ele>171.8</ele></trkpt>
    <trkpt lat="49.1130000" lon="6.1843210"><ele>172.5</ele></trkpt>
    <trkpt lat="49.1127340" lon="6.1846850"><ele>172.2</ele></trkpt>
    <trkpt lat="49.1127180" lon="6.1847160"><ele>172.5</ele></trkpt>
    <trkpt lat="49.1127030" lon="6.1847900"><ele>172.0</ele></trkpt>
    <trkpt lat="49.1127110" lon="6.1848730"><ele>171.5</ele></trkpt>
    <trkpt lat="49.1127270" lon="6.1849230"><ele>171.2</ele></trkpt>
    <trkpt lat="49.1127590" lon="6.1849860"><ele>171.0</ele></trkpt>
    <trkpt lat="49.1127300" lon="6.1850330"><ele>171.0</ele></trkpt>
    <trkpt lat="49.1126960" lon="6.1851030"><ele>171.0</ele></trkpt>
    <trkpt lat="49.1126980" lon="6.1851650"><ele>171.0</ele></trkpt>
    <trkpt lat="49.1126990" lon="6.1852170"><ele>171.0</ele></trkpt>
    <trkpt lat="49.1127050" lon="6.1853170"><ele>170.0</ele></trkpt>
    <trkpt lat="49.1128700" lon="6.1853030"><ele>170.0</ele></trkpt>
    <trkpt lat="49.1129060" lon="6.1853180"><ele>169.5</ele></trkpt>
    <trkpt lat="49.1129400" lon="6.1853460"><ele>168.8</ele></trkpt>
    <trkpt lat="49.1131960" lon="6.1857050"><ele>168.0</ele></trkpt>
    <trkpt lat="49.1132240" lon="6.1857430"><ele>169.0</ele></trkpt>
    <trkpt lat="49.1132630" lon="6.1858300"><ele>170.5</ele></trkpt>
    <trkpt lat="49.1133510" lon="6.1860810"><ele>171.0</ele></trkpt>
    <trkpt lat="49.1134060" lon="6.1862370"><ele>171.0</ele></trkpt>
    <trkpt lat="49.1134200" lon="6.1862840"><ele>171.0</ele></trkpt>
    <trkpt lat="49.1134430" lon="6.1863560"><ele>171.0</ele></trkpt>
    <trkpt lat="49.1134680" lon="6.1864460"><ele>170.8</ele></trkpt>
    <trkpt lat="49.1136350" lon="6.1866980"><ele>171.0</ele></trkpt>
    <trkpt lat="49.1138120" lon="6.1869630"><ele>171.0</ele></trkpt>
    <trkpt lat="49.1139870" lon="6.1872260"><ele>173.2</ele></trkpt>
    <trkpt lat="49.1140880" lon="6.1873780"><ele>172.5</ele></trkpt>
    <trkpt lat="49.1141540" lon="6.1874970"><ele>172.0</ele></trkpt>
    <trkpt lat="49.1142840" lon="6.1877360"><ele>172.2</ele></trkpt>
    <trkpt lat="49.1142910" lon="6.1877680"><ele>172.5</ele></trkpt>
    <trkpt lat="49.1142900" lon="6.1881520"><ele>172.8</ele></trkpt>
    <trkpt lat="49.1143160" lon="6.1883300"><ele>172.2</ele></trkpt>
    <trkpt lat="49.1143560" lon="6.1885620"><ele>172.8</ele></trkpt>
    <trkpt lat="49.1145050" lon="6.1893370"><ele>174.8</ele></trkpt>
    <trkpt lat="49.1145450" lon="6.1894610"><ele>175.2</ele></trkpt>
    <trkpt lat="49.1146240" lon="6.1896470"><ele>175.2</ele></trkpt>
    <trkpt lat="49.1146600" lon="6.1897630"><ele>175.2</ele></trkpt>
    <trkpt lat="49.1146690" lon="6.1898650"><ele>175.2</ele></trkpt>
    <trkpt lat="49.1146290" lon="6.1905050"><ele>176.8</ele></trkpt>
    <trkpt lat="49.1146050" lon="6.1909460"><ele>177.2</ele></trkpt>
    <trkpt lat="49.1145900" lon="6.1910470"><ele>177.2</ele></trkpt>
    <trkpt lat="49.1145620" lon="6.1911510"><ele>177.5</ele></trkpt>
    <trkpt lat="49.1145260" lon="6.1912330"><ele>177.2</ele></trkpt>
    <trkpt lat="49.1144130" lon="6.1913790"><ele>177.2</ele></trkpt>
    <trkpt lat="49.1142950" lon="6.1915220"><ele>178.2</ele></trkpt>
    <trkpt lat="49.1141820" lon="6.1916160"><ele>179.0</ele></trkpt>
    <trkpt lat="49.1142130" lon="6.1917290"><ele>178.5</ele></trkpt>
    <trkpt lat="49.1142280" lon="6.1918330"><ele>178.2</ele></trkpt>
    <trkpt lat="49.1142150" lon="6.1920010"><ele>178.0</ele></trkpt>
    <trkpt lat="49.1141570" lon="6.1925640"><ele>177.8</ele></trkpt>
    <trkpt lat="49.1141090" lon="6.1930250"><ele>177.5</ele></trkpt>
    <trkpt lat="49.1140230" lon="6.1938280"><ele>178.0</ele></trkpt>
    <trkpt lat="49.1140010" lon="6.1940120"><ele>178.2</ele></trkpt>
    <trkpt lat="49.1139880" lon="6.1944390"><ele>178.5</ele></trkpt>
    <trkpt lat="49.1139770" lon="6.1947790"><ele>178.0</ele></trkpt>
    <trkpt lat="49.1139900" lon="6.1962410"><ele>179.8</ele></trkpt>
    <trkpt lat="49.1139940" lon="6.1963380"><ele>180.0</ele></trkpt>
    <trkpt lat="49.1139960" lon="6.1963840"><ele>180.0</ele></trkpt>
    <trkpt lat="49.1139980" lon="6.1964320"><ele>180.0</ele></trkpt>
    <trkpt lat="49.1140390" lon="6.1968190"><ele>180.0</ele></trkpt>
    <trkpt lat="49.1140480" lon="6.1969400"><ele>180.2</ele></trkpt>
    <trkpt lat="49.1141000" lon="6.1974760"><ele>181.0</ele></trkpt>
    <trkpt lat="49.1141080" lon="6.1976170"><ele>181.5</ele></trkpt>
    <trkpt lat="49.1141180" lon="6.1981210"><ele>182.0</ele></trkpt>
    <trkpt lat="49.1141190" lon="6.1982600"><ele>182.5</ele></trkpt>
    <trkpt lat="49.1141340" lon="6.1983810"><ele>183.0</ele></trkpt>
    <trkpt lat="49.1141650" lon="6.1985970"><ele>183.0</ele></trkpt>
    <trkpt lat="49.1141740" lon="6.1986620"><ele>183.0</ele></trkpt>
    <trkpt lat="49.1142360" lon="6.1990880"><ele>183.8</ele></trkpt>
    <trkpt lat="49.1142740" lon="6.1993250"><ele>183.8</ele></trkpt>
    <trkpt lat="49.1142760" lon="6.1993360"><ele>183.8</ele></trkpt>
    <trkpt lat="49.1142940" lon="6.1994520"><ele>184.0</ele></trkpt>
    <trkpt lat="49.1145150" lon="6.2009620"><ele>183.8</ele></trkpt>
    <trkpt lat="49.1145420" lon="6.2011380"><ele>183.5</ele></trkpt>
    <trkpt lat="49.1149300" lon="6.2034670"><ele>183.2</ele></trkpt>
    <trkpt lat="49.1149240" lon="6.2037190"><ele>183.2</ele></trkpt>
    <trkpt lat="49.1148840" lon="6.2038370"><ele>183.2</ele></trkpt>
    <trkpt lat="49.1148670" lon="6.2038860"><ele>183.2</ele></trkpt>
    <trkpt lat="49.1149070" lon="6.2039160"><ele>183.2</ele></trkpt>
    <trkpt lat="49.1148890" lon="6.2039690"><ele>183.2</ele></trkpt>
    <trkpt lat="49.1148540" lon="6.2040700"><ele>183.5</ele></trkpt>
    <trkpt lat="49.1148960" lon="6.2041080"><ele>183.2</ele></trkpt>
    <trkpt lat="49.1148940" lon="6.2041320"><ele>183.2</ele></trkpt>
    <trkpt lat="49.1148920" lon="6.2041720"><ele>183.2</ele></trkpt>
    <trkpt lat="49.1149310" lon="6.2042900"><ele>182.8</ele></trkpt>
    <trkpt lat="49.1149440" lon="6.2044040"><ele>182.5</ele></trkpt>
    <trkpt lat="49.1149180" lon="6.2044930"><ele>182.2</ele></trkpt>
    <trkpt lat="49.1149140" lon="6.2045770"><ele>181.8</ele></trkpt>
    <trkpt lat="49.1149370" lon="6.2046600"><ele>181.2</ele></trkpt>
    <trkpt lat="49.1149770" lon="6.2047130"><ele>181.0</ele></trkpt>
    <trkpt lat="49.1150010" lon="6.2047580"><ele>180.8</ele></trkpt>
    <trkpt lat="49.1150210" lon="6.2048170"><ele>180.5</ele></trkpt>
    <trkpt lat="49.1150260" lon="6.2048720"><ele>180.5</ele></trkpt>
    <trkpt lat="49.1149770" lon="6.2049100"><ele>180.2</ele></trkpt>
    <trkpt lat="49.1149420" lon="6.2049790"><ele>180.0</ele></trkpt>
    <trkpt lat="49.1149010" lon="6.2051420"><ele>179.8</ele></trkpt>
    <trkpt lat="49.1148420" lon="6.2053160"><ele>179.2</ele></trkpt>
    <trkpt lat="49.1146910" lon="6.2056270"><ele>179.2</ele></trkpt>
    <trkpt lat="49.1144140" lon="6.2061240"><ele>179.0</ele></trkpt>
    <trkpt lat="49.1141560" lon="6.2066270"><ele>179.0</ele></trkpt>
    <trkpt lat="49.1139390" lon="6.2069510"><ele>179.8</ele></trkpt>
    <trkpt lat="49.1137970" lon="6.2071840"><ele>180.0</ele></trkpt>
    <trkpt lat="49.1137670" lon="6.2072530"><ele>180.0</ele></trkpt>
    <trkpt lat="49.1136750" lon="6.2075360"><ele>180.2</ele></trkpt>
    <trkpt lat="49.1135890" lon="6.2077760"><ele>180.8</ele></trkpt>
    <trkpt lat="49.1135340" lon="6.2079050"><ele>181.2</ele></trkpt>
    <trkpt lat="49.1132080" lon="6.2083810"><ele>181.0</ele></trkpt>
    <trkpt lat="49.1124660" lon="6.2093940"><ele>182.5</ele></trkpt>
    <trkpt lat="49.1119880" lon="6.2101570"><ele>183.8</ele></trkpt>
    <trkpt lat="49.1119570" lon="6.2101880"><ele>183.5</ele></trkpt>
    <trkpt lat="49.1119230" lon="6.2101990"><ele>183.5</ele></trkpt>
    <trkpt lat="49.1118640" lon="6.2101950"><ele>183.8</ele></trkpt>
    <trkpt lat="49.1118070" lon="6.2102360"><ele>183.5</ele></trkpt>
    <trkpt lat="49.1117540" lon="6.2103060"><ele>183.5</ele></trkpt>
    <trkpt lat="49.1116890" lon="6.2104500"><ele>183.2</ele></trkpt>
    <trkpt lat="49.1116050" lon="6.2107420"><ele>183.0</ele></trkpt>
    <trkpt lat="49.1115240" lon="6.2111360"><ele>183.5</ele></trkpt>
    <trkpt lat="49.1114730" lon="6.2114200"><ele>184.0</ele></trkpt>
    <trkpt lat="49.1113830" lon="6.2119810"><ele>184.0</ele></trkpt>
    <trkpt lat="49.1113650" lon="6.2120770"><ele>184.5</ele></trkpt>
    <trkpt lat="49.1113230" lon="6.2122100"><ele>185.0</ele></trkpt>
    <trkpt lat="49.1112810" lon="6.2122620"><ele>185.2</ele></trkpt>
    <trkpt lat="49.1112250" lon="6.2123370"><ele>185.5</ele></trkpt>
    <trkpt lat="49.1113220" lon="6.2125900"><ele>185.5</ele></trkpt>
    <trkpt lat="49.1113980" lon="6.2128120"><ele>186.0</ele></trkpt>
    <trkpt lat="49.1113640" lon="6.2128370"><ele>186.0</ele></trkpt>
    <trkpt lat="49.1113530" lon="6.2128630"><ele>186.0</ele></trkpt>
    <trkpt lat="49.1113330" lon="6.2128980"><ele>186.0</ele></trkpt>
    <trkpt lat="49.1113210" lon="6.2129450"><ele>186.0</ele></trkpt>
    <trkpt lat="49.1113260" lon="6.2130430"><ele>186.5</ele></trkpt>
    <trkpt lat="49.1113480" lon="6.2132390"><ele>187.2</ele></trkpt>
    <trkpt lat="49.1113500" lon="6.2133410"><ele>187.5</ele></trkpt>
    <trkpt lat="49.1113300" lon="6.2134630"><ele>187.5</ele></trkpt>
    <trkpt lat="49.1112500" lon="6.2136480"><ele>186.2</ele></trkpt>
    <trkpt lat="49.1112350" lon="6.2137070"><ele>186.8</ele></trkpt>
    <trkpt lat="49.1112370" lon="6.2138670"><ele>188.5</ele></trkpt>
    <trkpt lat="49.1112290" lon="6.2139740"><ele>189.0</ele></trkpt>
    <trkpt lat="49.1111810" lon="6.2141270"><ele>189.8</ele></trkpt>
    <trkpt lat="49.1111510" lon="6.2141730"><ele>190.0</ele></trkpt>
    <trkpt lat="49.1110750" lon="6.2142280"><ele>190.0</ele></trkpt>
    <trkpt lat="49.1109780" lon="6.2142760"><ele>189.8</ele></trkpt>
    <trkpt lat="49.1108740" lon="6.2142780"><ele>189.5</ele></trkpt>
    <trkpt lat="49.1108040" lon="6.2142670"><ele>189.0</ele></trkpt>
    <trkpt lat="49.1107460" lon="6.2142700"><ele>188.5</ele></trkpt>
    <trkpt lat="49.1106630" lon="6.2142910"><ele>188.0</ele></trkpt>
    <trkpt lat="49.1106120" lon="6.2143260"><ele>188.0</ele></trkpt>
    <trkpt lat="49.1104950" lon="6.2144290"><ele>188.2</ele></trkpt>
    <trkpt lat="49.1104050" lon="6.2145570"><ele>188.2</ele></trkpt>
    <trkpt lat="49.1102720" lon="6.2148110"><ele>188.5</ele></trkpt>
    <trkpt lat="49.1100980" lon="6.2151000"><ele>188.5</ele></trkpt>
    <trkpt lat="49.1100100" lon="6.2152180"><ele>188.5</ele></trkpt>
    <trkpt lat="49.1099360" lon="6.2152860"><ele>188.2</ele></trkpt>
    <trkpt lat="49.1098840" lon="6.2153540"><ele>187.8</ele></trkpt>
    <trkpt lat="49.1096320" lon="6.2157740"><ele>188.0</ele></trkpt>
    <trkpt lat="49.1094790" lon="6.2159510"><ele>187.5</ele></trkpt>
    <trkpt lat="49.1094280" lon="6.2160460"><ele>188.2</ele></trkpt>
    <trkpt lat="49.1094070" lon="6.2160900"><ele>188.8</ele></trkpt>
    <trkpt lat="49.1093680" lon="6.2161350"><ele>189.0</ele></trkpt>
    <trkpt lat="49.1093010" lon="6.2161770"><ele>189.0</ele></trkpt>
    <trkpt lat="49.1092300" lon="6.2161980"><ele>189.0</ele></trkpt>
    <trkpt lat="49.1090570" lon="6.2161590"><ele>189.0</ele></trkpt>
    <trkpt lat="49.1089970" lon="6.2161770"><ele>189.0</ele></trkpt>
    <trkpt lat="49.1088710" lon="6.2162800"><ele>189.5</ele></trkpt>
    <trkpt lat="49.1088280" lon="6.2162830"><ele>189.5</ele></trkpt>
    <trkpt lat="49.1087540" lon="6.2162600"><ele>189.5</ele></trkpt>
    <trkpt lat="49.1087130" lon="6.2162680"><ele>189.5</ele></trkpt>
    <trkpt lat="49.1085870" lon="6.2163410"><ele>189.5</ele></trkpt>
    <trkpt lat="49.1083170" lon="6.2164660"><ele>189.0</ele></trkpt>
    <trkpt lat="49.1081690" lon="6.2165570"><ele>189.2</ele></trkpt>
    <trkpt lat="49.1080490" lon="6.2166500"><ele>189.8</ele></trkpt>
    <trkpt lat="49.1079900" lon="6.2166840"><ele>190.0</ele></trkpt>
    <trkpt lat="49.1079370" lon="6.2166880"><ele>190.0</ele></trkpt>
    <trkpt lat="49.1078870" lon="6.2166690"><ele>190.0</ele></trkpt>
    <trkpt lat="49.1078130" lon="6.2165860"><ele>189.2</ele></trkpt>
    <trkpt lat="49.1077640" lon="6.2165530"><ele>189.2</ele></trkpt>
    <trkpt lat="49.1077310" lon="6.2165540"><ele>189.2</ele></trkpt>
    <trkpt lat="49.1076790" lon="6.2165820"><ele>189.8</ele></trkpt>
    <trkpt lat="49.1076300" lon="6.2166210"><ele>190.2</ele></trkpt>
    <trkpt lat="49.1075870" lon="6.2166280"><ele>190.5</ele></trkpt>
    <trkpt lat="49.1074600" lon="6.2166140"><ele>190.8</ele></trkpt>
    <trkpt lat="49.1073700" lon="6.2166020"><ele>190.8</ele></trkpt>
    <trkpt lat="49.1072660" lon="6.2166000"><ele>190.8</ele></trkpt>
    <trkpt lat="49.1071360" lon="6.2166230"><ele>191.8</ele></trkpt>
    <trkpt lat="49.1070920" lon="6.2166680"><ele>192.2</ele></trkpt>
    <trkpt lat="49.1070600" lon="6.2167150"><ele>192.8</ele></trkpt>
    <trkpt lat="49.1070330" lon="6.2167890"><ele>193.0</ele></trkpt>
    <trkpt lat="49.1070220" lon="6.2168980"><ele>193.2</ele></trkpt>
    <trkpt lat="49.1070660" lon="6.2176180"><ele>193.5</ele></trkpt>
    <trkpt lat="49.1070710" lon="6.2176650"><ele>193.5</ele></trkpt>
    <trkpt lat="49.1071770" lon="6.2179960"><ele>193.8</ele></trkpt>
    <trkpt lat="49.1071790" lon="6.2182700"><ele>194.8</ele></trkpt>
    <trkpt lat="49.1071970" lon="6.2185510"><ele>195.5</ele></trkpt>
    <trkpt lat="49.1072190" lon="6.2188380"><ele>195.8</ele></trkpt>
    <trkpt lat="49.1072230" lon="6.2191940"><ele>196.0</ele></trkpt>
    <trkpt lat="49.1072350" lon="6.2193810"><ele>196.0</ele></trkpt>
    <trkpt lat="49.1072640" lon="6.2196340"><ele>196.5</ele></trkpt>
    <trkpt lat="49.1072670" lon="6.2197600"><ele>197.0</ele></trkpt>
    <trkpt lat="49.1072800" lon="6.2199320"><ele>197.0</ele></trkpt>
    <trkpt lat="49.1072890" lon="6.2203690"><ele>198.0</ele></trkpt>
    <trkpt lat="49.1073070" lon="6.2204950"><ele>198.0</ele></trkpt>
    <trkpt lat="49.1073150" lon="6.2205620"><ele>198.0</ele></trkpt>
    <trkpt lat="49.1073140" lon="6.2207150"><ele>198.0</ele></trkpt>
    <trkpt lat="49.1073290" lon="6.2207980"><ele>198.2</ele></trkpt>
    <trkpt lat="49.1073230" lon="6.2209370"><ele>198.2</ele></trkpt>
    <trkpt lat="49.1073310" lon="6.2209750"><ele>198.2</ele></trkpt>
    <trkpt lat="49.1073240" lon="6.2210300"><ele>198.2</ele></trkpt>
    <trkpt lat="49.1073340" lon="6.2212070"><ele>198.5</ele></trkpt>
    <trkpt lat="49.1073400" lon="6.2212950"><ele>198.8</ele></trkpt>
    <trkpt lat="49.1073490" lon="6.2214190"><ele>199.0</ele></trkpt>
    <trkpt lat="49.1073570" lon="6.2215610"><ele>199.2</ele></trkpt>
    <trkpt lat="49.1072640" lon="6.2216690"><ele>199.0</ele></trkpt>
    <trkpt lat="49.1072090" lon="6.2217200"><ele>199.0</ele></trkpt>
    <trkpt lat="49.1071690" lon="6.2217490"><ele>199.0</ele></trkpt>
    <trkpt lat="49.1071640" lon="6.2216900"><ele>199.0</ele></trkpt>
    <trkpt lat="49.1071400" lon="6.2217130"><ele>199.0</ele></trkpt>
    <trkpt lat="49.1070950" lon="6.2217550"><ele>199.0</ele></trkpt>
    <trkpt lat="49.1070170" lon="6.2218240"><ele>199.0</ele></trkpt>
    <trkpt lat="49.1070140" lon="6.2219800"><ele>199.0</ele></trkpt>
    <trkpt lat="49.1070250" lon="6.2224850"><ele>199.8</ele></trkpt>
    <trkpt lat="49.1070160" lon="6.2226750"><ele>200.0</ele></trkpt>
    <trkpt lat="49.1070300" lon="6.2228110"><ele>200.0</ele></trkpt>
    <trkpt lat="49.1071020" lon="6.2239240"><ele>202.0</ele></trkpt>
    <trkpt lat="49.1071090" lon="6.2244660"><ele>202.2</ele></trkpt>
    <trkpt lat="49.1071360" lon="6.2246460"><ele>202.8</ele></trkpt>
    <trkpt lat="49.1071480" lon="6.2248980"><ele>203.0</ele></trkpt>
    <trkpt lat="49.1071690" lon="6.2260120"><ele>204.5</ele></trkpt>
    <trkpt lat="49.1071860" lon="6.2260620"><ele>204.8</ele></trkpt>
    <trkpt lat="49.1071990" lon="6.2261160"><ele>205.0</ele></trkpt>
    <trkpt lat="49.1072030" lon="6.2262160"><ele>205.0</ele></trkpt>
    <trkpt lat="49.1072080" lon="6.2263300"><ele>205.0</ele></trkpt>
    <trkpt lat="49.1072110" lon="6.2263960"><ele>205.0</ele></trkpt>
    <trkpt lat="49.1072180" lon="6.2266480"><ele>205.8</ele></trkpt>
    <trkpt lat="49.1072170" lon="6.2268860"><ele>206.8</ele></trkpt>
    <trkpt lat="49.1071530" lon="6.2268930"><ele>206.8</ele></trkpt>
    <trkpt lat="49.1070160" lon="6.2269010"><ele>206.8</ele></trkpt>
    <trkpt lat="49.1070170" lon="6.2269350"><ele>206.8</ele></trkpt>
    <trkpt lat="49.1064070" lon="6.2269810"><ele>208.8</ele></trkpt>
    <trkpt lat="49.1063880" lon="6.2269820"><ele>209.0</ele></trkpt>
    <trkpt lat="49.1063880" lon="6.2270060"><ele>209.0</ele></trkpt>
    <trkpt lat="49.1063930" lon="6.2271960"><ele>208.8</ele></trkpt>
    <trkpt lat="49.1063930" lon="6.2272210"><ele>208.8</ele></trkpt>
    <trkpt lat="49.1063970" lon="6.2273490"><ele>208.8</ele></trkpt>
    <trkpt lat="49.1062960" lon="6.2274150"><ele>209.0</ele></trkpt>
    <trkpt lat="49.1061550" lon="6.2274270"><ele>209.0</ele></trkpt>
    <trkpt lat="49.1062960" lon="6.2274150"><ele>209.0</ele></trkpt>
    <trkpt lat="49.1063970" lon="6.2273490"><ele>208.8</ele></trkpt>
    <trkpt lat="49.1063930" lon="6.2272210"><ele>208.8</ele></trkpt>
    <trkpt lat="49.1063930" lon="6.2271960"><ele>208.8</ele></trkpt>
    <trkpt lat="49.1063880" lon="6.2270060"><ele>209.0</ele></trkpt>
    <trkpt lat="49.1063880" lon="6.2269820"><ele>209.0</ele></trkpt>
    <trkpt lat="49.1064070" lon="6.2269810"><ele>208.8</ele></trkpt>
    <trkpt lat="49.1070170" lon="6.2269350"><ele>206.8</ele></trkpt>
    <trkpt lat="49.1070160" lon="6.2269010"><ele>206.8</ele></trkpt>
    <trkpt lat="49.1071530" lon="6.2268930"><ele>206.8</ele></trkpt>
    <trkpt lat="49.1072170" lon="6.2268860"><ele>206.8</ele></trkpt>
    <trkpt lat="49.1072180" lon="6.2266480"><ele>205.8</ele></trkpt>
    <trkpt lat="49.1072110" lon="6.2263960"><ele>205.0</ele></trkpt>
    <trkpt lat="49.1072080" lon="6.2263300"><ele>205.0</ele></trkpt>
    <trkpt lat="49.1072030" lon="6.2262160"><ele>205.0</ele></trkpt>
    <trkpt lat="49.1071990" lon="6.2261160"><ele>205.0</ele></trkpt>
    <trkpt lat="49.1071860" lon="6.2260620"><ele>204.8</ele></trkpt>
    <trkpt lat="49.1071690" lon="6.2260120"><ele>204.5</ele></trkpt>
    <trkpt lat="49.1071480" lon="6.2248980"><ele>203.0</ele></trkpt>
    <trkpt lat="49.1071360" lon="6.2246460"><ele>202.8</ele></trkpt>
    <trkpt lat="49.1071090" lon="6.2244660"><ele>202.2</ele></trkpt>
    <trkpt lat="49.1071020" lon="6.2239240"><ele>202.0</ele></trkpt>
    <trkpt lat="49.1070300" lon="6.2228110"><ele>200.0</ele></trkpt>
    <trkpt lat="49.1070160" lon="6.2226750"><ele>200.0</ele></trkpt>
    <trkpt lat="49.1070250" lon="6.2224850"><ele>199.8</ele></trkpt>
    <trkpt lat="49.1070140" lon="6.2219800"><ele>199.0</ele></trkpt>
    <trkpt lat="49.1070170" lon="6.2218240"><ele>199.0</ele></trkpt>
    <trkpt lat="49.1070950" lon="6.2217550"><ele>199.0</ele></trkpt>
    <trkpt lat="49.1071400" lon="6.2217130"><ele>199.0</ele></trkpt>
    <trkpt lat="49.1071640" lon="6.2216900"><ele>199.0</ele></trkpt>
    <trkpt lat="49.1071690" lon="6.2217490"><ele>199.0</ele></trkpt>
    <trkpt lat="49.1072090" lon="6.2217200"><ele>199.0</ele></trkpt>
    <trkpt lat="49.1072640" lon="6.2216690"><ele>199.0</ele></trkpt>
    <trkpt lat="49.1073570" lon="6.2215610"><ele>199.2</ele></trkpt>
    <trkpt lat="49.1073490" lon="6.2214190"><ele>199.0</ele></trkpt>
    <trkpt lat="49.1073400" lon="6.2212950"><ele>198.8</ele></trkpt>
    <trkpt lat="49.1073340" lon="6.2212070"><ele>198.5</ele></trkpt>
    <trkpt lat="49.1073240" lon="6.2210300"><ele>198.2</ele></trkpt>
    <trkpt lat="49.1073310" lon="6.2209750"><ele>198.2</ele></trkpt>
    <trkpt lat="49.1073230" lon="6.2209370"><ele>198.2</ele></trkpt>
    <trkpt lat="49.1073290" lon="6.2207980"><ele>198.2</ele></trkpt>
    <trkpt lat="49.1073140" lon="6.2207150"><ele>198.0</ele></trkpt>
    <trkpt lat="49.1073150" lon="6.2205620"><ele>198.0</ele></trkpt>
    <trkpt lat="49.1073070" lon="6.2204950"><ele>198.0</ele></trkpt>
    <trkpt lat="49.1072890" lon="6.2203690"><ele>198.0</ele></trkpt>
    <trkpt lat="49.1072800" lon="6.2199320"><ele>197.0</ele></trkpt>
    <trkpt lat="49.1072670" lon="6.2197600"><ele>197.0</ele></trkpt>
    <trkpt lat="49.1072640" lon="6.2196340"><ele>196.5</ele></trkpt>
    <trkpt lat="49.1072350" lon="6.2193810"><ele>196.0</ele></trkpt>
    <trkpt lat="49.1072230" lon="6.2191940"><ele>196.0</ele></trkpt>
    <trkpt lat="49.1072190" lon="6.2188380"><ele>195.8</ele></trkpt>
    <trkpt lat="49.1071970" lon="6.2185510"><ele>195.5</ele></trkpt>
    <trkpt lat="49.1071790" lon="6.2182700"><ele>194.8</ele></trkpt>
    <trkpt lat="49.1071770" lon="6.2179960"><ele>193.8</ele></trkpt>
    <trkpt lat="49.1070710" lon="6.2176650"><ele>193.5</ele></trkpt>
    <trkpt lat="49.1070660" lon="6.2176180"><ele>193.5</ele></trkpt>
    <trkpt lat="49.1070220" lon="6.2168980"><ele>193.2</ele></trkpt>
    <trkpt lat="49.1070330" lon="6.2167890"><ele>193.0</ele></trkpt>
    <trkpt lat="49.1070600" lon="6.2167150"><ele>192.8</ele></trkpt>
    <trkpt lat="49.1070920" lon="6.2166680"><ele>192.2</ele></trkpt>
    <trkpt lat="49.1071360" lon="6.2166230"><ele>191.8</ele></trkpt>
    <trkpt lat="49.1072660" lon="6.2166000"><ele>190.8</ele></trkpt>
    <trkpt lat="49.1073700" lon="6.2166020"><ele>190.8</ele></trkpt>
    <trkpt lat="49.1074600" lon="6.2166140"><ele>190.8</ele></trkpt>
    <trkpt lat="49.1075870" lon="6.2166280"><ele>190.5</ele></trkpt>
    <trkpt lat="49.1076300" lon="6.2166210"><ele>190.2</ele></trkpt>
    <trkpt lat="49.1076790" lon="6.2165820"><ele>189.8</ele></trkpt>
    <trkpt lat="49.1077310" lon="6.2165540"><ele>189.2</ele></trkpt>
    <trkpt lat="49.1077640" lon="6.2165530"><ele>189.2</ele></trkpt>
    <trkpt lat="49.1078130" lon="6.2165860"><ele>189.2</ele></trkpt>
    <trkpt lat="49.1078870" lon="6.2166690"><ele>190.0</ele></trkpt>
    <trkpt lat="49.1079370" lon="6.2166880"><ele>190.0</ele></trkpt>
    <trkpt lat="49.1079900" lon="6.2166840"><ele>190.0</ele></trkpt>
    <trkpt lat="49.1080490" lon="6.2166500"><ele>189.8</ele></trkpt>
    <trkpt lat="49.1081690" lon="6.2165570"><ele>189.2</ele></trkpt>
    <trkpt lat="49.1083170" lon="6.2164660"><ele>189.0</ele></trkpt>
    <trkpt lat="49.1085870" lon="6.2163410"><ele>189.5</ele></trkpt>
    <trkpt lat="49.1087130" lon="6.2162680"><ele>189.5</ele></trkpt>
    <trkpt lat="49.1087540" lon="6.2162600"><ele>189.5</ele></trkpt>
    <trkpt lat="49.1088280" lon="6.2162830"><ele>189.5</ele></trkpt>
    <trkpt lat="49.1088710" lon="6.2162800"><ele>189.5</ele></trkpt>
    <trkpt lat="49.1089970" lon="6.2161770"><ele>189.0</ele></trkpt>
    <trkpt lat="49.1090570" lon="6.2161590"><ele>189.0</ele></trkpt>
    <trkpt lat="49.1092300" lon="6.2161980"><ele>189.0</ele></trkpt>
    <trkpt lat="49.1093010" lon="6.2161770"><ele>189.0</ele></trkpt>
    <trkpt lat="49.1093680" lon="6.2161350"><ele>189.0</ele></trkpt>
    <trkpt lat="49.1094070" lon="6.2160900"><ele>188.8</ele></trkpt>
    <trkpt lat="49.1094280" lon="6.2160460"><ele>188.2</ele></trkpt>
    <trkpt lat="49.1094790" lon="6.2159510"><ele>187.5</ele></trkpt>
    <trkpt lat="49.1096320" lon="6.2157740"><ele>188.0</ele></trkpt>
    <trkpt lat="49.1098840" lon="6.2153540"><ele>187.8</ele></trkpt>
    <trkpt lat="49.1099360" lon="6.2152860"><ele>188.2</ele></trkpt>
    <trkpt lat="49.1100100" lon="6.2152180"><ele>188.5</ele></trkpt>
    <trkpt lat="49.1100980" lon="6.2151000"><ele>188.5</ele></trkpt>
    <trkpt lat="49.1102720" lon="6.2148110"><ele>188.5</ele></trkpt>
    <trkpt lat="49.1104050" lon="6.2145570"><ele>188.2</ele></trkpt>
    <trkpt lat="49.1104950" lon="6.2144290"><ele>188.2</ele></trkpt>
    <trkpt lat="49.1106120" lon="6.2143260"><ele>188.0</ele></trkpt>
    <trkpt lat="49.1106630" lon="6.2142910"><ele>188.0</ele></trkpt>
    <trkpt lat="49.1107460" lon="6.2142700"><ele>188.5</ele></trkpt>
    <trkpt lat="49.1108040" lon="6.2142670"><ele>189.0</ele></trkpt>
    <trkpt lat="49.1108740" lon="6.2142780"><ele>189.5</ele></trkpt>
    <trkpt lat="49.1109780" lon="6.2142760"><ele>189.8</ele></trkpt>
    <trkpt lat="49.1110750" lon="6.2142280"><ele>190.0</ele></trkpt>
    <trkpt lat="49.1111510" lon="6.2141730"><ele>190.0</ele></trkpt>
    <trkpt lat="49.1111810" lon="6.2141270"><ele>189.8</ele></trkpt>
    <trkpt lat="49.1112290" lon="6.2139740"><ele>189.0</ele></trkpt>
    <trkpt lat="49.1112370" lon="6.2138670"><ele>188.5</ele></trkpt>
    <trkpt lat="49.1112350" lon="6.2137070"><ele>186.8</ele></trkpt>
    <trkpt lat="49.1112500" lon="6.2136480"><ele>186.2</ele></trkpt>
    <trkpt lat="49.1113300" lon="6.2134630"><ele>187.5</ele></trkpt>
    <trkpt lat="49.1113500" lon="6.2133410"><ele>187.5</ele></trkpt>
    <trkpt lat="49.1113480" lon="6.2132390"><ele>187.2</ele></trkpt>
    <trkpt lat="49.1113260" lon="6.2130430"><ele>186.5</ele></trkpt>
    <trkpt lat="49.1113210" lon="6.2129450"><ele>186.0</ele></trkpt>
    <trkpt lat="49.1113330" lon="6.2128980"><ele>186.0</ele></trkpt>
    <trkpt lat="49.1113530" lon="6.2128630"><ele>186.0</ele></trkpt>
    <trkpt lat="49.1113640" lon="6.2128370"><ele>186.0</ele></trkpt>
    <trkpt lat="49.1113980" lon="6.2128120"><ele>186.0</ele></trkpt>
    <trkpt lat="49.1113220" lon="6.2125900"><ele>185.5</ele></trkpt>
    <trkpt lat="49.1112250" lon="6.2123370"><ele>185.5</ele></trkpt>
    <trkpt lat="49.1112810" lon="6.2122620"><ele>185.2</ele></trkpt>
    <trkpt lat="49.1113230" lon="6.2122100"><ele>185.0</ele></trkpt>
    <trkpt lat="49.1113650" lon="6.2120770"><ele>184.5</ele></trkpt>
    <trkpt lat="49.1113830" lon="6.2119810"><ele>184.0</ele></trkpt>
    <trkpt lat="49.1114730" lon="6.2114200"><ele>184.0</ele></trkpt>
    <trkpt lat="49.1115240" lon="6.2111360"><ele>183.5</ele></trkpt>
    <trkpt lat="49.1116050" lon="6.2107420"><ele>183.0</ele></trkpt>
    <trkpt lat="49.1116890" lon="6.2104500"><ele>183.2</ele></trkpt>
    <trkpt lat="49.1117540" lon="6.2103060"><ele>183.5</ele></trkpt>
    <trkpt lat="49.1118070" lon="6.2102360"><ele>183.5</ele></trkpt>
    <trkpt lat="49.1118640" lon="6.2101950"><ele>183.8</ele></trkpt>
    <trkpt lat="49.1119230" lon="6.2101990"><ele>183.5</ele></trkpt>
    <trkpt lat="49.1119570" lon="6.2101880"><ele>183.5</ele></trkpt>
    <trkpt lat="49.1119880" lon="6.2101570"><ele>183.8</ele></trkpt>
    <trkpt lat="49.1124660" lon="6.2093940"><ele>182.5</ele></trkpt>
    <trkpt lat="49.1132080" lon="6.2083810"><ele>181.0</ele></trkpt>
    <trkpt lat="49.1135340" lon="6.2079050"><ele>181.2</ele></trkpt>
    <trkpt lat="49.1135890" lon="6.2077760"><ele>180.8</ele></trkpt>
    <trkpt lat="49.1136750" lon="6.2075360"><ele>180.2</ele></trkpt>
    <trkpt lat="49.1137670" lon="6.2072530"><ele>180.0</ele></trkpt>
    <trkpt lat="49.1137970" lon="6.2071840"><ele>180.0</ele></trkpt>
    <trkpt lat="49.1139390" lon="6.2069510"><ele>179.8</ele></trkpt>
    <trkpt lat="49.1141560" lon="6.2066270"><ele>179.0</ele></trkpt>
    <trkpt lat="49.1144140" lon="6.2061240"><ele>179.0</ele></trkpt>
    <trkpt lat="49.1146910" lon="6.2056270"><ele>179.2</ele></trkpt>
    <trkpt lat="49.1148420" lon="6.2053160"><ele>179.2</ele></trkpt>
    <trkpt lat="49.1149010" lon="6.2051420"><ele>179.8</ele></trkpt>
    <trkpt lat="49.1149420" lon="6.2049790"><ele>180.0</ele></trkpt>
    <trkpt lat="49.1149770" lon="6.2049100"><ele>180.2</ele></trkpt>
    <trkpt lat="49.1150260" lon="6.2048720"><ele>180.5</ele></trkpt>
    <trkpt lat="49.1150210" lon="6.2048170"><ele>180.5</ele></trkpt>
    <trkpt lat="49.1150010" lon="6.2047580"><ele>180.8</ele></trkpt>
    <trkpt lat="49.1149770" lon="6.2047130"><ele>181.0</ele></trkpt>
    <trkpt lat="49.1149370" lon="6.2046600"><ele>181.2</ele></trkpt>
    <trkpt lat="49.1149140" lon="6.2045770"><ele>181.8</ele></trkpt>
    <trkpt lat="49.1149180" lon="6.2044930"><ele>182.2</ele></trkpt>
    <trkpt lat="49.1149440" lon="6.2044040"><ele>182.5</ele></trkpt>
    <trkpt lat="49.1149310" lon="6.2042900"><ele>182.8</ele></trkpt>
    <trkpt lat="49.1148920" lon="6.2041720"><ele>183.2</ele></trkpt>
    <trkpt lat="49.1148940" lon="6.2041320"><ele>183.2</ele></trkpt>
    <trkpt lat="49.1148960" lon="6.2041080"><ele>183.2</ele></trkpt>
    <trkpt lat="49.1148540" lon="6.2040700"><ele>183.5</ele></trkpt>
    <trkpt lat="49.1148890" lon="6.2039690"><ele>183.2</ele></trkpt>
    <trkpt lat="49.1149070" lon="6.2039160"><ele>183.2</ele></trkpt>
    <trkpt lat="49.1148670" lon="6.2038860"><ele>183.2</ele></trkpt>
    <trkpt lat="49.1148840" lon="6.2038370"><ele>183.2</ele></trkpt>
    <trkpt lat="49.1149240" lon="6.2037190"><ele>183.2</ele></trkpt>
    <trkpt lat="49.1149300" lon="6.2034670"><ele>183.2</ele></trkpt>
    <trkpt lat="49.1145420" lon="6.2011380"><ele>183.5</ele></trkpt>
    <trkpt lat="49.1145150" lon="6.2009620"><ele>183.8</ele></trkpt>
    <trkpt lat="49.1142940" lon="6.1994520"><ele>184.0</ele></trkpt>
    <trkpt lat="49.1142760" lon="6.1993360"><ele>183.8</ele></trkpt>
    <trkpt lat="49.1142740" lon="6.1993250"><ele>183.8</ele></trkpt>
    <trkpt lat="49.1142360" lon="6.1990880"><ele>183.8</ele></trkpt>
    <trkpt lat="49.1141740" lon="6.1986620"><ele>183.0</ele></trkpt>
    <trkpt lat="49.1141650" lon="6.1985970"><ele>183.0</ele></trkpt>
    <trkpt lat="49.1141340" lon="6.1983810"><ele>183.0</ele></trkpt>
    <trkpt lat="49.1141190" lon="6.1982600"><ele>182.5</ele></trkpt>
    <trkpt lat="49.1141180" lon="6.1981210"><ele>182.0</ele></trkpt>
    <trkpt lat="49.1141080" lon="6.1976170"><ele>181.5</ele></trkpt>
    <trkpt lat="49.1141000" lon="6.1974760"><ele>181.0</ele></trkpt>
    <trkpt lat="49.1140480" lon="6.1969400"><ele>180.2</ele></trkpt>
    <trkpt lat="49.1140390" lon="6.1968190"><ele>180.0</ele></trkpt>
    <trkpt lat="49.1139980" lon="6.1964320"><ele>180.0</ele></trkpt>
    <trkpt lat="49.1139960" lon="6.1963840"><ele>180.0</ele></trkpt>
    <trkpt lat="49.1139940" lon="6.1963380"><ele>180.0</ele></trkpt>
    <trkpt lat="49.1139900" lon="6.1962410"><ele>179.8</ele></trkpt>
    <trkpt lat="49.1139770" lon="6.1947790"><ele>178.0</ele></trkpt>
    <trkpt lat="49.1139880" lon="6.1944390"><ele>178.5</ele></trkpt>
    <trkpt lat="49.1140010" lon="6.1940120"><ele>178.2</ele></trkpt>
    <trkpt lat="49.1140230" lon="6.1938280"><ele>178.0</ele></trkpt>
    <trkpt lat="49.1141090" lon="6.1930250"><ele>177.5</ele></trkpt>
    <trkpt lat="49.1141570" lon="6.1925640"><ele>177.8</ele></trkpt>
    <trkpt lat="49.1142150" lon="6.1920010"><ele>178.0</ele></trkpt>
    <trkpt lat="49.1142280" lon="6.1918330"><ele>178.2</ele></trkpt>
    <trkpt lat="49.1142130" lon="6.1917290"><ele>178.5</ele></trkpt>
    <trkpt lat="49.1141820" lon="6.1916160"><ele>179.0</ele></trkpt>
    <trkpt lat="49.1142950" lon="6.1915220"><ele>178.2</ele></trkpt>
    <trkpt lat="49.1144130" lon="6.1913790"><ele>177.2</ele></trkpt>
    <trkpt lat="49.1145260" lon="6.1912330"><ele>177.2</ele></trkpt>
    <trkpt lat="49.1145620" lon="6.1911510"><ele>177.5</ele></trkpt>
    <trkpt lat="49.1145900" lon="6.1910470"><ele>177.2</ele></trkpt>
    <trkpt lat="49.1146050" lon="6.1909460"><ele>177.2</ele></trkpt>
    <trkpt lat="49.1146290" lon="6.1905050"><ele>176.8</ele></trkpt>
    <trkpt lat="49.1146690" lon="6.1898650"><ele>175.2</ele></trkpt>
    <trkpt lat="49.1146600" lon="6.1897630"><ele>175.2</ele></trkpt>
    <trkpt lat="49.1146240" lon="6.1896470"><ele>175.2</ele></trkpt>
    <trkpt lat="49.1145450" lon="6.1894610"><ele>175.2</ele></trkpt>
    <trkpt lat="49.1145050" lon="6.1893370"><ele>174.8</ele></trkpt>
    <trkpt lat="49.1143560" lon="6.1885620"><ele>172.8</ele></trkpt>
    <trkpt lat="49.1143160" lon="6.1883300"><ele>172.2</ele></trkpt>
    <trkpt lat="49.1142900" lon="6.1881520"><ele>172.8</ele></trkpt>
    <trkpt lat="49.1142910" lon="6.1877680"><ele>172.5</ele></trkpt>
    <trkpt lat="49.1142840" lon="6.1877360"><ele>172.2</ele></trkpt>
    <trkpt lat="49.1141540" lon="6.1874970"><ele>172.0</ele></trkpt>
    <trkpt lat="49.1140880" lon="6.1873780"><ele>172.5</ele></trkpt>
    <trkpt lat="49.1139870" lon="6.1872260"><ele>173.2</ele></trkpt>
    <trkpt lat="49.1138120" lon="6.1869630"><ele>171.0</ele></trkpt>
    <trkpt lat="49.1136350" lon="6.1866980"><ele>171.0</ele></trkpt>
    <trkpt lat="49.1134680" lon="6.1864460"><ele>170.8</ele></trkpt>
    <trkpt lat="49.1134430" lon="6.1863560"><ele>171.0</ele></trkpt>
    <trkpt lat="49.1134200" lon="6.1862840"><ele>171.0</ele></trkpt>
    <trkpt lat="49.1134060" lon="6.1862370"><ele>171.0</ele></trkpt>
    <trkpt lat="49.1133510" lon="6.1860810"><ele>171.0</ele></trkpt>
    <trkpt lat="49.1132630" lon="6.1858300"><ele>170.5</ele></trkpt>
    <trkpt lat="49.1132240" lon="6.1857430"><ele>169.0</ele></trkpt>
    <trkpt lat="49.1131960" lon="6.1857050"><ele>168.0</ele></trkpt>
    <trkpt lat="49.1129400" lon="6.1853460"><ele>168.8</ele></trkpt>
    <trkpt lat="49.1129060" lon="6.1853180"><ele>169.5</ele></trkpt>
    <trkpt lat="49.1128700" lon="6.1853030"><ele>170.0</ele></trkpt>
    <trkpt lat="49.1127050" lon="6.1853170"><ele>170.0</ele></trkpt>
    <trkpt lat="49.1126990" lon="6.1852170"><ele>171.0</ele></trkpt>
    <trkpt lat="49.1126980" lon="6.1851650"><ele>171.0</ele></trkpt>
    <trkpt lat="49.1126960" lon="6.1851030"><ele>171.0</ele></trkpt>
    <trkpt lat="49.1127300" lon="6.1850330"><ele>171.0</ele></trkpt>
    <trkpt lat="49.1127590" lon="6.1849860"><ele>171.0</ele></trkpt>
    <trkpt lat="49.1127270" lon="6.1849230"><ele>171.2</ele></trkpt>
    <trkpt lat="49.1127110" lon="6.1848730"><ele>171.5</ele></trkpt>
    <trkpt lat="49.1127030" lon="6.1847900"><ele>172.0</ele></trkpt>
    <trkpt lat="49.1127180" lon="6.1847160"><ele>172.5</ele></trkpt>
    <trkpt lat="49.1127340" lon="6.1846850"><ele>172.2</ele></trkpt>
    <trkpt lat="49.1130000" lon="6.1843210"><ele>172.5</ele></trkpt>
    <trkpt lat="49.1130760" lon="6.1842810"><ele>171.8</ele></trkpt>
    <trkpt lat="49.1131250" lon="6.1842690"><ele>171.2</ele></trkpt>
    <trkpt lat="49.1132690" lon="6.1840280"><ele>170.2</ele></trkpt>
    <trkpt lat="49.1133210" lon="6.1839270"><ele>170.0</ele></trkpt>
    <trkpt lat="49.1133250" lon="6.1838920"><ele>170.0</ele></trkpt>
    <trkpt lat="49.1132890" lon="6.1838380"><ele>170.0</ele></trkpt>
    <trkpt lat="49.1132210" lon="6.1837490"><ele>170.2</ele></trkpt>
    <trkpt lat="49.1131800" lon="6.1837020"><ele>170.5</ele></trkpt>
    <trkpt lat="49.1132190" lon="6.1835790"><ele>170.5</ele></trkpt>
    <trkpt lat="49.1132380" lon="6.1835430"><ele>170.5</ele></trkpt>
    <trkpt lat="49.1132920" lon="6.1834450"><ele>170.0</ele></trkpt>
    <trkpt lat="49.1133410" lon="6.1833560"><ele>170.0</ele></trkpt>
    <trkpt lat="49.1133700" lon="6.1833030"><ele>169.8</ele></trkpt>
    <trkpt lat="49.1134190" lon="6.1832120"><ele>169.8</ele></trkpt>
    <trkpt lat="49.1133500" lon="6.1831170"><ele>169.8</ele></trkpt>
    <trkpt lat="49.1133470" lon="6.1830500"><ele>169.8</ele></trkpt>
    <trkpt lat="49.1133420" lon="6.1829330"><ele>169.5</ele></trkpt>
    <trkpt lat="49.1133450" lon="6.1829010"><ele>169.2</ele></trkpt>
    <trkpt lat="49.1134460" lon="6.1828110"><ele>169.0</ele></trkpt>
    <trkpt lat="49.1135630" lon="6.1827230"><ele>169.0</ele></trkpt>
    <trkpt lat="49.1136440" lon="6.1826720"><ele>169.0</ele></trkpt>
    <trkpt lat="49.1139090" lon="6.1824760"><ele>169.0</ele></trkpt>
    <trkpt lat="49.1142930" lon="6.1821880"><ele>168.8</ele></trkpt>
    <trkpt lat="49.1144920" lon="6.1820490"><ele>168.2</ele></trkpt>
    <trkpt lat="49.1145160" lon="6.1819950"><ele>168.2</ele></trkpt>
    <trkpt lat="49.1145300" lon="6.1820030"><ele>168.2</ele></trkpt>
    <trkpt lat="49.1145750" lon="6.1820260"><ele>168.5</ele></trkpt>
    <trkpt lat="49.1145940" lon="6.1819340"><ele>168.5</ele></trkpt>
    <trkpt lat="49.1146020" lon="6.1818970"><ele>168.5</ele></trkpt>
    <trkpt lat="49.1146130" lon="6.1818140"><ele>168.5</ele></trkpt>
    <trkpt lat="49.1145480" lon="6.1813870"><ele>169.0</ele></trkpt>
    <trkpt lat="49.1145300" lon="6.1812700"><ele>169.0</ele></trkpt>
    <trkpt lat="49.1145230" lon="6.1812220"><ele>169.0</ele></trkpt>
    <trkpt lat="49.1145540" lon="6.1811960"><ele>169.0</ele></trkpt>
    <trkpt lat="49.1146180" lon="6.1811580"><ele>169.0</ele></trkpt>
    <trkpt lat="49.1146890" lon="6.1811330"><ele>169.0</ele></trkpt>
    <trkpt lat="49.1150540" lon="6.1810110"><ele>169.2</ele></trkpt>
    <trkpt lat="49.1151830" lon="6.1809620"><ele>169.0</ele></trkpt>
    <trkpt lat="49.1152480" lon="6.1809120"><ele>169.0</ele></trkpt>
    <trkpt lat="49.1152730" lon="6.1808400"><ele>169.0</ele></trkpt>
    <trkpt lat="49.1152720" lon="6.1807950"><ele>169.0</ele></trkpt>
    <trkpt lat="49.1151760" lon="6.1801280"><ele>170.0</ele></trkpt>
    <trkpt lat="49.1151620" lon="6.1800240"><ele>170.0</ele></trkpt>
    <trkpt lat="49.1151380" lon="6.1799290"><ele>170.0</ele></trkpt>
    <trkpt lat="49.1151010" lon="6.1796650"><ele>170.0</ele></trkpt>
    <trkpt lat="49.1150440" lon="6.1792870"><ele>170.0</ele></trkpt>
    <trkpt lat="49.1150290" lon="6.1791810"><ele>170.0</ele></trkpt>
    <trkpt lat="49.1150170" lon="6.1791060"><ele>170.2</ele></trkpt>
    <trkpt lat="49.1151530" lon="6.1790670"><ele>170.5</ele></trkpt>
    <trkpt lat="49.1152440" lon="6.1790270"><ele>170.8</ele></trkpt>
    <trkpt lat="49.1152370" lon="6.1789690"><ele>170.8</ele></trkpt>
    <trkpt lat="49.1153480" lon="6.1789320"><ele>171.0</ele></trkpt>
    <trkpt lat="49.1153520" lon="6.1788590"><ele>171.0</ele></trkpt>
    <trkpt lat="49.1153680" lon="6.1786040"><ele>171.2</ele></trkpt>
    <trkpt lat="49.1153910" lon="6.1785200"><ele>171.5</ele></trkpt>
    <trkpt lat="49.1155690" lon="6.1785410"><ele>172.0</ele></trkpt>
    <trkpt lat="49.1155990" lon="6.1785220"><ele>172.0</ele></trkpt>
    <trkpt lat="49.1156250" lon="6.1784910"><ele>172.2</ele></trkpt>
    <trkpt lat="49.1156960" lon="6.1781300"><ele>173.5</ele></trkpt>
    <trkpt lat="49.1157770" lon="6.1778990"><ele>174.0</ele></trkpt>
    <trkpt lat="49.1158940" lon="6.1776380"><ele>174.0</ele></trkpt>
    <trkpt lat="49.1160140" lon="6.1774070"><ele>174.0</ele></trkpt>
    <trkpt lat="49.1158090" lon="6.1772820"><ele>174.0</ele></trkpt>
    <trkpt lat="49.1155220" lon="6.1770330"><ele>175.0</ele></trkpt>
    <trkpt lat="49.1153870" lon="6.1768670"><ele>174.0</ele></trkpt>
  </trkseg></trk>
</gpx>