<?xml version="1.0" encoding="UTF-8"?>
<kml xmlns="http://www.opengis.net/kml/2.2"><Document>
  <name>Borny par le plus court</name><description>9.6 km. D+ 38 m. 39 % de chemins. Le meme but en trois quarts d'heure de moins : l'aller et le retour par le meme trace, celui que le routeur juge le plus court. Assume comme un aller-retour, pas comme une boucle.</description>
  <Style id="depart"><IconStyle><scale>1.2</scale><Icon><href>http://maps.google.com/mapfiles/kml/paddle/grn-circle.png</href></Icon></IconStyle></Style>
  <Style id="etape"><IconStyle><Icon><href>http://maps.google.com/mapfiles/kml/paddle/wht-blank.png</href></Icon></IconStyle></Style>
    <Placemark><name>Depart : Rue des Parmentiers, Metz</name><description>Depart des deux boucles vers Borny, dans la Nouvelle Ville. A dix minutes a pied de la gare, dont il partage les commodites.</description><styleUrl>#depart</styleUrl><Point><coordinates>6.1768700,49.1153870,0</coordinates></Point></Placemark>
    <Placemark><name>1. Centre commercial de Borny</name><description>L'ancien Cora, passe sous l'enseigne Carrefour ; galerie, cafe et toilettes. Le seul ravitaillement a mi-parcours des deux boucles de l'est.</description><styleUrl>#etape</styleUrl><Point><coordinates>6.2272340,49.1057150,0</coordinates></Point></Placemark>
    <Style id="t1"><LineStyle><color>ffA0455B</color><width>4</width></LineStyle></Style>
    <Placemark><name>Borny par le plus court</name><description>9.6 km. D+ 38 m. 39 % de chemins. Le meme but en trois quarts d'heure de moins : l'aller et le retour par le meme trace, celui que le routeur juge le plus court. Assume comme un aller-retour, pas comme une boucle.</description><styleUrl>#t1</styleUrl><LineString><tessellate>1</tessellate><coordinates>6.1768670,49.1153870,174 6.1770330,49.1155220,175 6.1772820,49.1158090,174 6.1774070,49.1160140,174 6.1776380,49.1158940,174 6.1778990,49.1157770,174 6.1781300,49.1156960,174 6.1784910,49.1156250,172 6.1785220,49.1155990,172 6.1785410,49.1155690,172 6.1785200,49.1153910,172 6.1786040,49.1153680,171 6.1788590,49.1153520,171 6.1789320,49.1153480,171 6.1789690,49.1152370,171 6.1790270,49.1152440,171 6.1790670,49.1151530,170 6.1791060,49.1150170,170 6.1791810,49.1150290,170 6.1792870,49.1150440,170 6.1796650,49.1151010,170 6.1799290,49.1151380,170 6.1800240,49.1151620,170 6.1801280,49.1151760,170 6.1807950,49.1152720,169 6.1808400,49.1152730,169 6.1809120,49.1152480,169 6.1809620,49.1151830,169 6.1810110,49.1150540,169 6.1811330,49.1146890,169 6.1811580,49.1146180,169 6.1811960,49.1145540,169 6.1812220,49.1145230,169 6.1812700,49.1145300,169 6.1813870,49.1145480,169 6.1818140,49.1146130,168 6.1818970,49.1146020,168 6.1819340,49.1145940,168 6.1820260,49.1145750,168 6.1820030,49.1145300,168 6.1819950,49.1145160,168 6.1820490,49.1144920,168 6.1821880,49.1142930,169 6.1824760,49.1139090,169 6.1826720,49.1136440,169 6.1827230,49.1135630,169 6.1828110,49.1134460,169 6.1829010,49.1133450,169 6.1829330,49.1133420,170 6.1830500,49.1133470,170 6.1831170,49.1133500,170 6.1832120,49.1134190,170 6.1833030,49.1133700,170 6.1833560,49.1133410,170 6.1834450,49.1132920,170 6.1835430,49.1132380,170 6.1835790,49.1132190,170 6.1837020,49.1131800,170 6.1837490,49.1132210,170 6.1838380,49.1132890,170 6.1838920,49.1133250,170 6.1839270,49.1133210,170 6.1840280,49.1132690,170 6.1842690,49.1131250,171 6.1842810,49.1130760,172 6.1843210,49.1130000,172 6.1846850,49.1127340,172 6.1847160,49.1127180,172 6.1847900,49.1127030,172 6.1848730,49.1127110,172 6.1849230,49.1127270,171 6.1849860,49.1127590,171 6.1850330,49.1127300,171 6.1851030,49.1126960,171 6.1851650,49.1126980,171 6.1852170,49.1126990,171 6.1853170,49.1127050,170 6.1853030,49.1128700,170 6.1853180,49.1129060,170 6.1853460,49.1129400,169 6.1857050,49.1131960,168 6.1857430,49.1132240,169 6.1858300,49.1132630,170 6.1860810,49.1133510,171 6.1862370,49.1134060,171 6.1862840,49.1134200,171 6.1863560,49.1134430,171 6.1864460,49.1134680,171 6.1866980,49.1136350,171 6.1869630,49.1138120,171 6.1872260,49.1139870,173 6.1873780,49.1140880,172 6.1874970,49.1141540,172 6.1877360,49.1142840,172 6.1877680,49.1142910,172 6.1881520,49.1142900,173 6.1883300,49.1143160,172 6.1885620,49.1143560,173 6.1893370,49.1145050,175 6.1894610,49.1145450,175 6.1896470,49.1146240,175 6.1897630,49.1146600,175 6.1898650,49.1146690,175 6.1905050,49.1146290,177 6.1909460,49.1146050,177 6.1910470,49.1145900,177 6.1911510,49.1145620,178 6.1912330,49.1145260,177 6.1913790,49.1144130,177 6.1915220,49.1142950,178 6.1916160,49.1141820,179 6.1917290,49.1142130,178 6.1918330,49.1142280,178 6.1920010,49.1142150,178 6.1925640,49.1141570,178 6.1930250,49.1141090,178 6.1938280,49.1140230,178 6.1940120,49.1140010,178 6.1944390,49.1139880,178 6.1947790,49.1139770,178 6.1962410,49.1139900,180 6.1963380,49.1139940,180 6.1963840,49.1139960,180 6.1964320,49.1139980,180 6.1968190,49.1140390,180 6.1969400,49.1140480,180 6.1974760,49.1141000,181 6.1976170,49.1141080,182 6.1981210,49.1141180,182 6.1982600,49.1141190,182 6.1983810,49.1141340,183 6.1985970,49.1141650,183 6.1986620,49.1141740,183 6.1990880,49.1142360,184 6.1993250,49.1142740,184 6.1993360,49.1142760,184 6.1994520,49.1142940,184 6.2009620,49.1145150,184 6.2011380,49.1145420,184 6.2034670,49.1149300,183 6.2037190,49.1149240,183 6.2038370,49.1148840,183 6.2038860,49.1148670,183 6.2039160,49.1149070,183 6.2039690,49.1148890,183 6.2040700,49.1148540,184 6.2041080,49.1148960,183 6.2041320,49.1148940,183 6.2041720,49.1148920,183 6.2042900,49.1149310,183 6.2044040,49.1149440,182 6.2044930,49.1149180,182 6.2045770,49.1149140,182 6.2046600,49.1149370,181 6.2047130,49.1149770,181 6.2047580,49.1150010,181 6.2048170,49.1150210,180 6.2048720,49.1150260,180 6.2049100,49.1149770,180 6.2049790,49.1149420,180 6.2051420,49.1149010,180 6.2053160,49.1148420,179 6.2056270,49.1146910,179 6.2061240,49.1144140,179 6.2066270,49.1141560,179 6.2069510,49.1139390,180 6.2071840,49.1137970,180 6.2072530,49.1137670,180 6.2075360,49.1136750,180 6.2077760,49.1135890,181 6.2079050,49.1135340,181 6.2083810,49.1132080,181 6.2093940,49.1124660,182 6.2101570,49.1119880,184 6.2101880,49.1119570,184 6.2101990,49.1119230,184 6.2101950,49.1118640,184 6.2102360,49.1118070,184 6.2103060,49.1117540,184 6.2104500,49.1116890,183 6.2107420,49.1116050,183 6.2111360,49.1115240,184 6.2114200,49.1114730,184 6.2119810,49.1113830,184 6.2120770,49.1113650,184 6.2122100,49.1113230,185 6.2122620,49.1112810,185 6.2123370,49.1112250,186 6.2125900,49.1113220,186 6.2128120,49.1113980,186 6.2128370,49.1113640,186 6.2128630,49.1113530,186 6.2128980,49.1113330,186 6.2129450,49.1113210,186 6.2130430,49.1113260,186 6.2132390,49.1113480,187 6.2133410,49.1113500,188 6.2134630,49.1113300,188 6.2136480,49.1112500,186 6.2137070,49.1112350,187 6.2138670,49.1112370,188 6.2139740,49.1112290,189 6.2141270,49.1111810,190 6.2141730,49.1111510,190 6.2142280,49.1110750,190 6.2142760,49.1109780,190 6.2142780,49.1108740,190 6.2142670,49.1108040,189 6.2142700,49.1107460,188 6.2142910,49.1106630,188 6.2143260,49.1106120,188 6.2144290,49.1104950,188 6.2145570,49.1104050,188 6.2148110,49.1102720,188 6.2151000,49.1100980,188 6.2152180,49.1100100,188 6.2152860,49.1099360,188 6.2153540,49.1098840,188 6.2157740,49.1096320,188 6.2159510,49.1094790,188 6.2160460,49.1094280,188 6.2160900,49.1094070,189 6.2161350,49.1093680,189 6.2161770,49.1093010,189 6.2161980,49.1092300,189 6.2161590,49.1090570,189 6.2161770,49.1089970,189 6.2162800,49.1088710,190 6.2162830,49.1088280,190 6.2162600,49.1087540,190 6.2162680,49.1087130,190 6.2163410,49.1085870,190 6.2164660,49.1083170,189 6.2165570,49.1081690,189 6.2166500,49.1080490,190 6.2166840,49.1079900,190 6.2166880,49.1079370,190 6.2166690,49.1078870,190 6.2165860,49.1078130,189 6.2165530,49.1077640,189 6.2165540,49.1077310,189 6.2165820,49.1076790,190 6.2166210,49.1076300,190 6.2166280,49.1075870,190 6.2166140,49.1074600,191 6.2166020,49.1073700,191 6.2166000,49.1072660,191 6.2166230,49.1071360,192 6.2166680,49.1070920,192 6.2167150,49.1070600,193 6.2167890,49.1070330,193 6.2168980,49.1070220,193 6.2176180,49.1070660,194 6.2176650,49.1070710,194 6.2179960,49.1071770,194 6.2182700,49.1071790,195 6.2185510,49.1071970,196 6.2188380,49.1072190,196 6.2191940,49.1072230,196 6.2193810,49.1072350,196 6.2196340,49.1072640,196 6.2197600,49.1072670,197 6.2199320,49.1072800,197 6.2203690,49.1072890,198 6.2204950,49.1073070,198 6.2205620,49.1073150,198 6.2207150,49.1073140,198 6.2207980,49.1073290,198 6.2209370,49.1073230,198 6.2209750,49.1073310,198 6.2210300,49.1073240,198 6.2212070,49.1073340,198 6.2212950,49.1073400,199 6.2214190,49.1073490,199 6.2215610,49.1073570,199 6.2216690,49.1072640,199 6.2217200,49.1072090,199 6.2217490,49.1071690,199 6.2216900,49.1071640,199 6.2217130,49.1071400,199 6.2217550,49.1070950,199 6.2218240,49.1070170,199 6.2219800,49.1070140,199 6.2224850,49.1070250,200 6.2226750,49.1070160,200 6.2228110,49.1070300,200 6.2239240,49.1071020,202 6.2244660,49.1071090,202 6.2246460,49.1071360,203 6.2248980,49.1071480,203 6.2260120,49.1071690,204 6.2260620,49.1071860,205 6.2261160,49.1071990,205 6.2262160,49.1072030,205 6.2263300,49.1072080,205 6.2263960,49.1072110,205 6.2266480,49.1072180,206 6.2268860,49.1072170,207 6.2268930,49.1071530,207 6.2269010,49.1070160,207 6.2269350,49.1070170,207 6.2269810,49.1064070,209 6.2269820,49.1063880,209 6.2270060,49.1063880,209 6.2271960,49.1063930,209 6.2272210,49.1063930,209 6.2273490,49.1063970,209 6.2274150,49.1062960,209 6.2274270,49.1061550,209 6.2274150,49.1062960,209 6.2273490,49.1063970,209 6.2272210,49.1063930,209 6.2271960,49.1063930,209 6.2270060,49.1063880,209 6.2269820,49.1063880,209 6.2269810,49.1064070,209 6.2269350,49.1070170,207 6.2269010,49.1070160,207 6.2268930,49.1071530,207 6.2268860,49.1072170,207 6.2266480,49.1072180,206 6.2263960,49.1072110,205 6.2263300,49.1072080,205 6.2262160,49.1072030,205 6.2261160,49.1071990,205 6.2260620,49.1071860,205 6.2260120,49.1071690,204 6.2248980,49.1071480,203 6.2246460,49.1071360,203 6.2244660,49.1071090,202 6.2239240,49.1071020,202 6.2228110,49.1070300,200 6.2226750,49.1070160,200 6.2224850,49.1070250,200 6.2219800,49.1070140,199 6.2218240,49.1070170,199 6.2217550,49.1070950,199 6.2217130,49.1071400,199 6.2216900,49.1071640,199 6.2217490,49.1071690,199 6.2217200,49.1072090,199 6.2216690,49.1072640,199 6.2215610,49.1073570,199 6.2214190,49.1073490,199 6.2212950,49.1073400,199 6.2212070,49.1073340,198 6.2210300,49.1073240,198 6.2209750,49.1073310,198 6.2209370,49.1073230,198 6.2207980,49.1073290,198 6.2207150,49.1073140,198 6.2205620,49.1073150,198 6.2204950,49.1073070,198 6.2203690,49.1072890,198 6.2199320,49.1072800,197 6.2197600,49.1072670,197 6.2196340,49.1072640,196 6.2193810,49.1072350,196 6.2191940,49.1072230,196 6.2188380,49.1072190,196 6.2185510,49.1071970,196 6.2182700,49.1071790,195 6.2179960,49.1071770,194 6.2176650,49.1070710,194 6.2176180,49.1070660,194 6.2168980,49.1070220,193 6.2167890,49.1070330,193 6.2167150,49.1070600,193 6.2166680,49.1070920,192 6.2166230,49.1071360,192 6.2166000,49.1072660,191 6.2166020,49.1073700,191 6.2166140,49.1074600,191 6.2166280,49.1075870,190 6.2166210,49.1076300,190 6.2165820,49.1076790,190 6.2165540,49.1077310,189 6.2165530,49.1077640,189 6.2165860,49.1078130,189 6.2166690,49.1078870,190 6.2166880,49.1079370,190 6.2166840,49.1079900,190 6.2166500,49.1080490,190 6.2165570,49.1081690,189 6.2164660,49.1083170,189 6.2163410,49.1085870,190 6.2162680,49.1087130,190 6.2162600,49.1087540,190 6.2162830,49.1088280,190 6.2162800,49.1088710,190 6.2161770,49.1089970,189 6.2161590,49.1090570,189 6.2161980,49.1092300,189 6.2161770,49.1093010,189 6.2161350,49.1093680,189 6.2160900,49.1094070,189 6.2160460,49.1094280,188 6.2159510,49.1094790,188 6.2157740,49.1096320,188 6.2153540,49.1098840,188 6.2152860,49.1099360,188 6.2152180,49.1100100,188 6.2151000,49.1100980,188 6.2148110,49.1102720,188 6.2145570,49.1104050,188 6.2144290,49.1104950,188 6.2143260,49.1106120,188 6.2142910,49.1106630,188 6.2142700,49.1107460,188 6.2142670,49.1108040,189 6.2142780,49.1108740,190 6.2142760,49.1109780,190 6.2142280,49.1110750,190 6.2141730,49.1111510,190 6.2141270,49.1111810,190 6.2139740,49.1112290,189 6.2138670,49.1112370,188 6.2137070,49.1112350,187 6.2136480,49.1112500,186 6.2134630,49.1113300,188 6.2133410,49.1113500,188 6.2132390,49.1113480,187 6.2130430,49.1113260,186 6.2129450,49.1113210,186 6.2128980,49.1113330,186 6.2128630,49.1113530,186 6.2128370,49.1113640,186 6.2128120,49.1113980,186 6.2125900,49.1113220,186 6.2123370,49.1112250,186 6.2122620,49.1112810,185 6.2122100,49.1113230,185 6.2120770,49.1113650,184 6.2119810,49.1113830,184 6.2114200,49.1114730,184 6.2111360,49.1115240,184 6.2107420,49.1116050,183 6.2104500,49.1116890,183 6.2103060,49.1117540,184 6.2102360,49.1118070,184 6.2101950,49.1118640,184 6.2101990,49.1119230,184 6.2101880,49.1119570,184 6.2101570,49.1119880,184 6.2093940,49.1124660,182 6.2083810,49.1132080,181 6.2079050,49.1135340,181 6.2077760,49.1135890,181 6.2075360,49.1136750,180 6.2072530,49.1137670,180 6.2071840,49.1137970,180 6.2069510,49.1139390,180 6.2066270,49.1141560,179 6.2061240,49.1144140,179 6.2056270,49.1146910,179 6.2053160,49.1148420,179 6.2051420,49.1149010,180 6.2049790,49.1149420,180 6.2049100,49.1149770,180 6.2048720,49.1150260,180 6.2048170,49.1150210,180 6.2047580,49.1150010,181 6.2047130,49.1149770,181 6.2046600,49.1149370,181 6.2045770,49.1149140,182 6.2044930,49.1149180,182 6.2044040,49.1149440,182 6.2042900,49.1149310,183 6.2041720,49.1148920,183 6.2041320,49.1148940,183 6.2041080,49.1148960,183 6.2040700,49.1148540,184 6.2039690,49.1148890,183 6.2039160,49.1149070,183 6.2038860,49.1148670,183 6.2038370,49.1148840,183 6.2037190,49.1149240,183 6.2034670,49.1149300,183 6.2011380,49.1145420,184 6.2009620,49.1145150,184 6.1994520,49.1142940,184 6.1993360,49.1142760,184 6.1993250,49.1142740,184 6.1990880,49.1142360,184 6.1986620,49.1141740,183 6.1985970,49.1141650,183 6.1983810,49.1141340,183 6.1982600,49.1141190,182 6.1981210,49.1141180,182 6.1976170,49.1141080,182 6.1974760,49.1141000,181 6.1969400,49.1140480,180 6.1968190,49.1140390,180 6.1964320,49.1139980,180 6.1963840,49.1139960,180 6.1963380,49.1139940,180 6.1962410,49.1139900,180 6.1947790,49.1139770,178 6.1944390,49.1139880,178 6.1940120,49.1140010,178 6.1938280,49.1140230,178 6.1930250,49.1141090,178 6.1925640,49.1141570,178 6.1920010,49.1142150,178 6.1918330,49.1142280,178 6.1917290,49.1142130,178 6.1916160,49.1141820,179 6.1915220,49.1142950,178 6.1913790,49.1144130,177 6.1912330,49.1145260,177 6.1911510,49.1145620,178 6.1910470,49.1145900,177 6.1909460,49.1146050,177 6.1905050,49.1146290,177 6.1898650,49.1146690,175 6.1897630,49.1146600,175 6.1896470,49.1146240,175 6.1894610,49.1145450,175 6.1893370,49.1145050,175 6.1885620,49.1143560,173 6.1883300,49.1143160,172 6.1881520,49.1142900,173 6.1877680,49.1142910,172 6.1877360,49.1142840,172 6.1874970,49.1141540,172 6.1873780,49.1140880,172 6.1872260,49.1139870,173 6.1869630,49.1138120,171 6.1866980,49.1136350,171 6.1864460,49.1134680,171 6.1863560,49.1134430,171 6.1862840,49.1134200,171 6.1862370,49.1134060,171 6.1860810,49.1133510,171 6.1858300,49.1132630,170 6.1857430,49.1132240,169 6.1857050,49.1131960,168 6.1853460,49.1129400,169 6.1853180,49.1129060,170 6.1853030,49.1128700,170 6.1853170,49.1127050,170 6.1852170,49.1126990,171 6.1851650,49.1126980,171 6.1851030,49.1126960,171 6.1850330,49.1127300,171 6.1849860,49.1127590,171 6.1849230,49.1127270,171 6.1848730,49.1127110,172 6.1847900,49.1127030,172 6.1847160,49.1127180,172 6.1846850,49.1127340,172 6.1843210,49.1130000,172 6.1842810,49.1130760,172 6.1842690,49.1131250,171 6.1840280,49.1132690,170 6.1839270,49.1133210,170 6.1838920,49.1133250,170 6.1838380,49.1132890,170 6.1837490,49.1132210,170 6.1837020,49.1131800,170 6.1835790,49.1132190,170 6.1835430,49.1132380,170 6.1834450,49.1132920,170 6.1833560,49.1133410,170 6.1833030,49.1133700,170 6.1832120,49.1134190,170 6.1831170,49.1133500,170 6.1830500,49.1133470,170 6.1829330,49.1133420,170 6.1829010,49.1133450,169 6.1828110,49.1134460,169 6.1827230,49.1135630,169 6.1826720,49.1136440,169 6.1824760,49.1139090,169 6.1821880,49.1142930,169 6.1820490,49.1144920,168 6.1819950,49.1145160,168 6.1820030,49.1145300,168 6.1820260,49.1145750,168 6.1819340,49.1145940,168 6.1818970,49.1146020,168 6.1818140,49.1146130,168 6.1813870,49.1145480,169 6.1812700,49.1145300,169 6.1812220,49.1145230,169 6.1811960,49.1145540,169 6.1811580,49.1146180,169 6.1811330,49.1146890,169 6.1810110,49.1150540,169 6.1809620,49.1151830,169 6.1809120,49.1152480,169 6.1808400,49.1152730,169 6.1807950,49.1152720,169 6.1801280,49.1151760,170 6.1800240,49.1151620,170 6.1799290,49.1151380,170 6.1796650,49.1151010,170 6.1792870,49.1150440,170 6.1791810,49.1150290,170 6.1791060,49.1150170,170 6.1790670,49.1151530,170 6.1790270,49.1152440,171 6.1789690,49.1152370,171 6.1789320,49.1153480,171 6.1788590,49.1153520,171 6.1786040,49.1153680,171 6.1785200,49.1153910,172 6.1785410,49.1155690,172 6.1785220,49.1155990,172 6.1784910,49.1156250,172 6.1781300,49.1156960,174 6.1778990,49.1157770,174 6.1776380,49.1158940,174 6.1774070,49.1160140,174 6.1772820,49.1158090,174 6.1770330,49.1155220,175 6.1768670,49.1153870,174</coordinates></LineString></Placemark>
</Document></kml>