<?xml version="1.0" encoding="UTF-8"?>
<kml xmlns="http://www.opengis.net/kml/2.2"><Document>
  <name>La boucle de la Seille</name><description>4.2 km. D+ 5 m. 34 % de chemins. Le tour complet de la riviere en ville : le jardin des Cinq Sens, l'Amphitheatre, les jardins Pelt, le parc de la Seille, et la remontee jusqu'a la Porte des Allemands. Quatre-vingts metres refaits, pas un de plus.</description>
  <Style id="depart"><IconStyle><scale>1.2</scale><Icon><href>http://maps.google.com/mapfiles/kml/paddle/grn-circle.png</href></Icon></IconStyle></Style>
  <Style id="etape"><IconStyle><Icon><href>http://maps.google.com/mapfiles/kml/paddle/wht-blank.png</href></Icon></IconStyle></Style>
    <Placemark><name>Depart : Rue des Parmentiers, Metz</name><description>Depart des deux boucles vers Borny, dans la Nouvelle Ville. A dix minutes a pied de la gare, dont il partage les commodites.</description><styleUrl>#depart</styleUrl><Point><coordinates>6.1768700,49.1153870,0</coordinates></Point></Placemark>
    <Placemark><name>1. Jardin des Cinq Sens</name><description>Jardin au bord de la Seille, au pied d'Outre-Seille.</description><styleUrl>#etape</styleUrl><Point><coordinates>6.1808580,49.1125690,0</coordinates></Point></Placemark>
    <Placemark><name>2. Parvis de l'Amphitheatre</name><description>Le quartier neuf derriere la gare, Centre Pompidou et esplanade.</description><styleUrl>#etape</styleUrl><Point><coordinates>6.1796580,49.1086850,0</coordinates></Point></Placemark>
    <Placemark><name>3. Jardin Jean-Baptiste Keune</name><description>Jardin du Sablon nord, a deux pas de la Seille.</description><styleUrl>#etape</styleUrl><Point><coordinates>6.1809620,49.1087550,0</coordinates></Point></Placemark>
    <Placemark><name>4. Jardins Jean-Marie Pelt</name><description>Prolongement sud du parc de la Seille, prairies et passerelles.</description><styleUrl>#etape</styleUrl><Point><coordinates>6.1857570,49.1065930,0</coordinates></Point></Placemark>
    <Placemark><name>5. Parc de la Seille</name><description>Prairies humides et roselieres au bord de la Seille. Herons.</description><styleUrl>#etape</styleUrl><Point><coordinates>6.1849680,49.1066100,0</coordinates></Point></Placemark>
    <Placemark><name>6. Porte des Allemands</name><description>Chatelet fortifie du XIIIe siecle a cheval sur la Seille, et le depart du chemin des remparts.</description><styleUrl>#etape</styleUrl><Point><coordinates>6.1855680,49.1178800,0</coordinates></Point></Placemark>
    <Style id="t1"><LineStyle><color>ff3F7D6E</color><width>4</width></LineStyle></Style>
    <Placemark><name>La boucle de la Seille</name><description>4.2 km. D+ 5 m. 34 % de chemins. Le tour complet de la riviere en ville : le jardin des Cinq Sens, l'Amphitheatre, les jardins Pelt, le parc de la Seille, et la remontee jusqu'a la Porte des Allemands. Quatre-vingts metres refaits, pas un de plus.</description><styleUrl>#t1</styleUrl><LineString><tessellate>1</tessellate><coordinates>6.1768670,49.1153870,174 6.1766270,49.1151930,174 6.1763740,49.1150400,174 6.1761790,49.1149300,174 6.1761630,49.1149200,174 6.1759210,49.1147900,174 6.1763650,49.1146430,174 6.1766400,49.1145180,174 6.1770090,49.1143590,174 6.1771560,49.1143000,173 6.1773110,49.1142490,172 6.1780590,49.1140180,171 6.1780930,49.1140020,171 6.1781230,49.1139770,171 6.1781770,49.1139240,171 6.1782120,49.1138680,171 6.1782300,49.1138140,171 6.1782480,49.1136600,171 6.1782470,49.1135520,171 6.1783930,49.1135600,171 6.1789930,49.1136090,170 6.1793320,49.1136390,170 6.1794180,49.1136460,170 6.1794280,49.1136070,170 6.1795760,49.1129310,170 6.1795880,49.1128750,170 6.1796210,49.1128890,170 6.1796520,49.1128910,170 6.1797120,49.1128980,170 6.1797320,49.1128560,170 6.1797370,49.1128460,170 6.1802370,49.1128010,171 6.1802470,49.1127800,171 6.1803200,49.1126310,171 6.1804140,49.1124470,171 6.1804620,49.1124580,171 6.1806160,49.1124910,171 6.1807260,49.1125150,171 6.1808440,49.1125400,171 6.1808700,49.1125450,171 6.1808440,49.1125400,171 6.1807260,49.1125150,171 6.1806160,49.1124910,171 6.1807360,49.1122600,171 6.1807590,49.1122160,171 6.1807820,49.1121730,171 6.1807910,49.1121520,171 6.1807980,49.1121350,171 6.1806720,49.1120760,172 6.1802370,49.1119620,172 6.1801480,49.1119460,172 6.1800330,49.1118870,172 6.1800230,49.1118530,172 6.1800210,49.1118460,172 6.1799930,49.1117780,172 6.1799510,49.1117360,172 6.1798500,49.1116800,172 6.1798440,49.1116560,172 6.1798320,49.1116160,172 6.1798640,49.1115490,172 6.1799380,49.1115380,172 6.1799900,49.1115360,173 6.1800740,49.1116020,172 6.1801230,49.1116010,173 6.1801760,49.1116020,173 6.1801420,49.1115720,173 6.1801960,49.1115680,173 6.1802510,49.1115640,174 6.1799200,49.1113420,174 6.1792030,49.1110110,172 6.1791430,49.1109830,172 6.1790250,49.1109300,172 6.1790420,49.1109020,172 6.1790850,49.1108380,172 6.1798980,49.1094690,173 6.1801350,49.1090570,173 6.1801890,49.1089850,173 6.1801370,49.1089690,172 6.1800570,49.1089470,172 6.1801180,49.1088420,172 6.1801550,49.1088080,172 6.1802210,49.1087830,172 6.1800720,49.1086810,172 6.1800320,49.1087070,172 6.1800090,49.1087230,172 6.1799530,49.1086990,172 6.1797750,49.1085960,172 6.1799530,49.1086990,172 6.1800090,49.1087230,172 6.1800320,49.1087070,172 6.1800720,49.1086810,172 6.1801050,49.1086560,172 6.1801210,49.1086420,172 6.1801710,49.1085990,172 6.1801950,49.1085640,172 6.1802240,49.1085810,172 6.1802700,49.1086080,172 6.1803450,49.1086530,172 6.1806390,49.1088460,172 6.1807970,49.1086520,171 6.1808150,49.1087640,171 6.1807970,49.1086520,171 6.1807900,49.1083910,172 6.1807890,49.1083370,172 6.1807860,49.1081780,171 6.1807420,49.1080150,171 6.1809290,49.1077440,171 6.1809750,49.1077000,171 6.1810350,49.1076610,171 6.1811230,49.1076290,171 6.1811800,49.1076210,171 6.1812390,49.1076120,171 6.1825490,49.1076960,171 6.1829870,49.1077260,173 6.1829890,49.1077060,172 6.1829990,49.1076110,172 6.1830050,49.1075710,172 6.1830140,49.1075180,171 6.1831850,49.1075310,170 6.1832290,49.1075150,170 6.1832440,49.1074910,170 6.1833290,49.1074970,170 6.1834120,49.1075020,170 6.1836170,49.1075120,170 6.1836340,49.1074180,170 6.1838590,49.1074340,170 6.1839010,49.1074370,170 6.1847110,49.1066060,170 6.1849620,49.1066240,170 6.1850780,49.1066320,169 6.1851470,49.1066370,169 6.1851740,49.1066390,168 6.1852180,49.1066400,168 6.1853250,49.1066420,168 6.1853470,49.1066420,168 6.1854630,49.1066560,166 6.1856730,49.1066710,165 6.1856660,49.1066380,165 6.1856540,49.1066190,166 6.1856660,49.1066380,165 6.1856730,49.1066710,165 6.1854630,49.1066560,166 6.1853470,49.1066420,168 6.1853250,49.1066420,168 6.1852180,49.1066400,168 6.1851740,49.1066390,168 6.1851470,49.1066370,169 6.1850780,49.1066320,169 6.1849620,49.1066240,170 6.1849640,49.1066090,169 6.1849620,49.1066240,170 6.1850780,49.1066320,169 6.1851400,49.1067400,169 6.1852140,49.1069500,168 6.1852240,49.1070160,168 6.1852320,49.1075280,169 6.1852460,49.1076830,168 6.1852570,49.1082130,168 6.1852880,49.1082180,167 6.1854250,49.1082270,166 6.1853410,49.1088250,167 6.1853730,49.1089110,166 6.1853760,49.1090020,167 6.1852480,49.1093290,170 6.1852030,49.1095010,171 6.1851700,49.1095500,171 6.1852110,49.1105160,171 6.1852140,49.1105290,171 6.1852590,49.1114620,171 6.1852630,49.1115310,171 6.1852670,49.1115960,171 6.1852700,49.1116180,171 6.1852850,49.1119970,171 6.1852140,49.1119490,171 6.1851510,49.1119920,171 6.1851060,49.1120180,171 6.1849390,49.1120630,172 6.1848830,49.1120650,172 6.1848330,49.1120620,173 6.1848360,49.1121260,173 6.1848240,49.1122190,173 6.1847230,49.1124750,171 6.1845770,49.1126070,173 6.1841920,49.1128960,172 6.1841170,49.1129450,171 6.1839430,49.1130300,170 6.1838150,49.1130690,170 6.1836940,49.1130850,171 6.1836970,49.1131310,171 6.1837020,49.1131800,170 6.1837490,49.1132210,170 6.1838380,49.1132890,170 6.1838920,49.1133250,170 6.1839690,49.1134550,170 6.1843750,49.1137500,170 6.1844430,49.1137990,170 6.1844910,49.1138330,170 6.1847780,49.1140410,169 6.1848600,49.1141780,168 6.1849030,49.1143000,168 6.1849470,49.1144230,168 6.1849950,49.1146370,169 6.1850140,49.1147070,170 6.1850320,49.1148500,170 6.1850810,49.1160310,170 6.1850960,49.1161770,170 6.1851110,49.1162400,170 6.1852320,49.1165650,171 6.1853750,49.1169110,171 6.1854280,49.1170380,170 6.1854420,49.1171180,170 6.1854720,49.1171810,169 6.1854010,49.1172270,170 6.1853470,49.1172460,171 6.1852980,49.1172680,172 6.1853350,49.1173420,172 6.1853720,49.1174160,170 6.1853120,49.1174890,172 6.1852360,49.1176840,173 6.1852300,49.1176980,173 6.1851900,49.1177950,173 6.1852170,49.1177970,173 6.1853590,49.1178070,173 6.1854350,49.1178220,173 6.1855250,49.1178320,173 6.1855640,49.1178300,173 6.1855250,49.1178320,173 6.1854350,49.1178220,173 6.1853590,49.1178070,173 6.1852170,49.1177970,173 6.1851900,49.1177950,173 6.1851770,49.1178230,173 6.1851240,49.1178150,173 6.1850790,49.1178090,173 6.1850720,49.1178390,173 6.1849900,49.1178300,173 6.1850040,49.1177790,173 6.1848800,49.1177740,172 6.1848590,49.1177740,172 6.1848150,49.1177720,172 6.1846580,49.1177670,172 6.1839440,49.1177430,171 6.1832730,49.1177170,171 6.1832350,49.1177160,171 6.1831370,49.1177130,171 6.1830570,49.1177080,171 6.1830180,49.1177060,171 6.1826620,49.1176860,171 6.1824910,49.1176890,171 6.1823110,49.1177000,171 6.1819420,49.1177420,171 6.1817930,49.1177620,171 6.1817350,49.1177220,171 6.1816500,49.1176870,171 6.1811380,49.1174780,170 6.1810260,49.1174330,170 6.1809630,49.1174070,170 6.1809000,49.1173670,170 6.1802980,49.1169900,169 6.1801880,49.1169210,169 6.1801100,49.1168720,169 6.1800400,49.1168190,169 6.1800200,49.1168050,169 6.1799840,49.1167810,169 6.1798660,49.1167340,169 6.1798020,49.1167240,169 6.1795940,49.1167200,169 6.1794470,49.1167260,169 6.1791540,49.1167370,170 6.1791100,49.1167390,170 6.1790470,49.1167410,170 6.1788700,49.1167480,170 6.1788320,49.1167490,170 6.1787960,49.1167550,170 6.1785530,49.1167900,172 6.1782950,49.1168450,173 6.1780910,49.1168970,173 6.1779150,49.1166880,174 6.1776850,49.1164140,174 6.1776540,49.1163770,174 6.1776130,49.1163200,174 6.1775060,49.1161750,174 6.1774070,49.1160140,174 6.1772820,49.1158090,174 6.1770330,49.1155220,175 6.1768670,49.1153870,174</coordinates></LineString></Placemark>
</Document></kml>