<?xml version="1.0" encoding="UTF-8"?>
<kml xmlns="http://www.opengis.net/kml/2.2"><Document>
  <name>La vallee de la Canner</name><description>15.0 km. D+ 249 m. 87 % de chemins. Depart : Kedange-sur-Canner, pres de la mairie (35 min de Metz). Une hetraie et une riviere tranquille, le plus forestier du lot et le plus plat.</description>
  <Style id="depart"><IconStyle><scale>1.2</scale><Icon><href>
    http://maps.google.com/mapfiles/kml/paddle/grn-circle.png</href></IconStyle></Style>
  <Style id="etape"><IconStyle><Icon><href>
    http://maps.google.com/mapfiles/kml/paddle/wht-blank.png</href></Icon></IconStyle></Style>
    <Placemark><name>Depart : Kedange-sur-Canner</name><description>Depart en voiture, 35 min de Metz. Se garer pres de la mairie.</description><styleUrl>#depart</styleUrl><Point><coordinates>6.3412000,49.3095000,0</coordinates></Point></Placemark>
    <Placemark><name>1. Hombourg-Budange</name><description>Chateau et parc, au bord de la Canner.</description><styleUrl>#etape</styleUrl><Point><coordinates>6.3446340,49.2959530,0</coordinates></Point></Placemark>
    <Placemark><name>2. Foret de Hombourg-Budange</name><description>Grande hetraie, chemins forestiers larges et bien traces.</description><styleUrl>#etape</styleUrl><Point><coordinates>6.3731800,49.2841470,0</coordinates></Point></Placemark>
    <Style id="t1"><LineStyle><color>ff2F5F6B</color><width>4</width></LineStyle></Style>
    <Placemark><name>La vallee de la Canner</name><description>15.0 km. D+ 249 m. 87 % de chemins. Depart : Kedange-sur-Canner, pres de la mairie (35 min de Metz). Une hetraie et une riviere tranquille, le plus forestier du lot et le plus plat.</description><styleUrl>#t1</styleUrl><LineString><tessellate>1</tessellate><coordinates>6.3404590,49.3095520,186 6.3402340,49.3094570,187 6.3401820,49.3094510,186 6.3399630,49.3094590,186 6.3398290,49.3094580,185 6.3396160,49.3094090,184 6.3395270,49.3094070,183 6.3394570,49.3093250,183 6.3394150,49.3092490,183 6.3394540,49.3090220,183 6.3395170,49.3090040,183 6.3395820,49.3089730,183 6.3396460,49.3089040,184 6.3396680,49.3088060,184 6.3396750,49.3087010,184 6.3396340,49.3082490,184 6.3395660,49.3080900,184 6.3395000,49.3080280,183 6.3396070,49.3076930,183 6.3396980,49.3072910,184 6.3397020,49.3070150,184 6.3400110,49.3070190,185 6.3402450,49.3069800,187 6.3404180,49.3069830,188 6.3411400,49.3070800,197 6.3413390,49.3070930,201 6.3415350,49.3070350,202 6.3420620,49.3067490,207 6.3418520,49.3066780,205 6.3417460,49.3063330,206 6.3417050,49.3059940,209 6.3415510,49.3055800,210 6.3412990,49.3053260,210 6.3408270,49.3046950,208 6.3404530,49.3040800,208 6.3400960,49.3033910,209 6.3398190,49.3029830,213 6.3397050,49.3028710,214 6.3394530,49.3024200,220 6.3391930,49.3020070,219 6.3390810,49.3017010,220 6.3390720,49.3015640,221 6.3391600,49.3011510,225 6.3392270,49.3008930,222 6.3394550,49.3005590,217 6.3395160,49.3004980,217 6.3396100,49.3004540,217 6.3400770,49.3000750,216 6.3401550,49.2999630,215 6.3402310,49.2998280,214 6.3403280,49.2997320,214 6.3406790,49.2992660,209 6.3409410,49.2989500,206 6.3410280,49.2988850,205 6.3411220,49.2988370,205 6.3412750,49.2987900,204 6.3416890,49.2986910,203 6.3419200,49.2986460,204 6.3421280,49.2986180,204 6.3423860,49.2986000,205 6.3426190,49.2985740,204 6.3428730,49.2985090,204 6.3430610,49.2984620,204 6.3434040,49.2984020,203 6.3440330,49.2983020,202 6.3449570,49.2981810,203 6.3457000,49.2981940,202 6.3457000,49.2981250,202 6.3457200,49.2981000,202 6.3457820,49.2980770,201 6.3457620,49.2980490,201 6.3457030,49.2979350,200 6.3456380,49.2978800,199 6.3455010,49.2978170,198 6.3453760,49.2977390,198 6.3453920,49.2977250,198 6.3456720,49.2972340,199 6.3458030,49.2972670,200 6.3458380,49.2972340,200 6.3459750,49.2969790,200 6.3461290,49.2967550,200 6.3465070,49.2968930,200 6.3468320,49.2962900,200 6.3467500,49.2961280,199 6.3467230,49.2957340,198 6.3467270,49.2955210,197 6.3466380,49.2955170,197 6.3461000,49.2955300,197 6.3459080,49.2955530,197 6.3449570,49.2957850,197 6.3447520,49.2960010,198 6.3449570,49.2957850,197 6.3459080,49.2955530,197 6.3461000,49.2955300,197 6.3466380,49.2955170,197 6.3467270,49.2955210,197 6.3467230,49.2957340,198 6.3467500,49.2961280,199 6.3468320,49.2962900,200 6.3465070,49.2968930,200 6.3461290,49.2967550,200 6.3459750,49.2969790,200 6.3458380,49.2972340,200 6.3458030,49.2972670,200 6.3456720,49.2972340,199 6.3453920,49.2977250,198 6.3453760,49.2977390,198 6.3455010,49.2978170,198 6.3456380,49.2978800,199 6.3457030,49.2979350,200 6.3457620,49.2980490,201 6.3457820,49.2980770,201 6.3457200,49.2981000,202 6.3457000,49.2981250,202 6.3457000,49.2981940,202 6.3449570,49.2981810,203 6.3440330,49.2983020,202 6.3434040,49.2984020,203 6.3430610,49.2984620,204 6.3428730,49.2985090,204 6.3426190,49.2985740,204 6.3423860,49.2986000,205 6.3421280,49.2986180,204 6.3419200,49.2986460,204 6.3416890,49.2986910,203 6.3412750,49.2987900,204 6.3411220,49.2988370,205 6.3410280,49.2988850,205 6.3409410,49.2989500,206 6.3406790,49.2992660,209 6.3403280,49.2997320,214 6.3402310,49.2998280,214 6.3401550,49.2999630,215 6.3400770,49.3000750,216 6.3396100,49.3004540,217 6.3395160,49.3004980,217 6.3394550,49.3005590,217 6.3392270,49.3008930,222 6.3391600,49.3011510,225 6.3395460,49.3011170,230 6.3398650,49.3010580,233 6.3399780,49.3010600,234 6.3404710,49.3011230,242 6.3405990,49.3011260,243 6.3410240,49.3010750,247 6.3411500,49.3010470,248 6.3413160,49.3009740,249 6.3414720,49.3009480,250 6.3417690,49.3009560,252 6.3425550,49.3010720,254 6.3429200,49.3010700,256 6.3431160,49.3010960,256 6.3432960,49.3011700,257 6.3435340,49.3013130,257 6.3437030,49.3013880,257 6.3439130,49.3014220,258 6.3441870,49.3014080,259 6.3445580,49.3014150,260 6.3449040,49.3014570,260 6.3453660,49.3014660,262 6.3458540,49.3014660,262 6.3459710,49.3014730,263 6.3460660,49.3014900,263 6.3461830,49.3014980,263 6.3463480,49.3014790,264 6.3464280,49.3014860,264 6.3465420,49.3015210,264 6.3467930,49.3015550,264 6.3468830,49.3015890,264 6.3469370,49.3016380,264 6.3471580,49.3018920,264 6.3473180,49.3021960,262 6.3479650,49.3032490,252 6.3485020,49.3033210,254 6.3488330,49.3033410,255 6.3490850,49.3033780,255 6.3495640,49.3034100,256 6.3499690,49.3034520,256 6.3502320,49.3034710,257 6.3505390,49.3034760,258 6.3506780,49.3034960,259 6.3508590,49.3035400,260 6.3511460,49.3035680,260 6.3514780,49.3035550,262 6.3516120,49.3035670,262 6.3517150,49.3035560,263 6.3517940,49.3035100,264 6.3524960,49.3030320,270 6.3525810,49.3029430,271 6.3526240,49.3028030,272 6.3526460,49.3026090,272 6.3526810,49.3025230,272 6.3528280,49.3024060,273 6.3530510,49.3024780,274 6.3532650,49.3025090,274 6.3535230,49.3025060,275 6.3537350,49.3024800,275 6.3539870,49.3024800,276 6.3542100,49.3024620,276 6.3543870,49.3023960,276 6.3545470,49.3022960,275 6.3546840,49.3022660,275 6.3547940,49.3022750,276 6.3553660,49.3024100,280 6.3561250,49.3025740,286 6.3589010,49.3031250,300 6.3631410,49.3040210,310 6.3633750,49.3040310,309 6.3643780,49.3038320,311 6.3658850,49.3035640,312 6.3667030,49.3034840,313 6.3667190,49.3033740,312 6.3668700,49.3032720,312 6.3675560,49.3029590,308 6.3682510,49.3027600,305 6.3697850,49.3024870,302 6.3703080,49.3024050,303 6.3711020,49.3023190,305 6.3721400,49.3022580,305 6.3723840,49.3022100,305 6.3726440,49.3021190,304 6.3730250,49.3019250,300 6.3736490,49.3015430,300 6.3740920,49.3012570,300 6.3741100,49.3007940,296 6.3741010,49.3006810,296 6.3740420,49.3005470,296 6.3737040,49.3001630,296 6.3730200,49.2999780,293 6.3729820,49.2998840,294 6.3727120,49.2995130,294 6.3727570,49.2992850,295 6.3728250,49.2991150,296 6.3729620,49.2989480,297 6.3731350,49.2988280,298 6.3733400,49.2987580,299 6.3736580,49.2987050,299 6.3746430,49.2986200,296 6.3749120,49.2985650,296 6.3752180,49.2984640,295 6.3754350,49.2984100,294 6.3778710,49.2980140,291 6.3781540,49.2979390,292 6.3784230,49.2978070,291 6.3786070,49.2976560,290 6.3790410,49.2972310,288 6.3791720,49.2970930,289 6.3793080,49.2967680,291 6.3793270,49.2965460,293 6.3791160,49.2960840,295 6.3789040,49.2957760,298 6.3789070,49.2953030,301 6.3788660,49.2949330,302 6.3757200,49.2919040,323 6.3751090,49.2912330,328 6.3750420,49.2910890,328 6.3751580,49.2909160,327 6.3756000,49.2906750,325 6.3766880,49.2901260,321 6.3769620,49.2898520,320 6.3771440,49.2894750,321 6.3772290,49.2891200,322 6.3771880,49.2888660,322 6.3769570,49.2885870,322 6.3764660,49.2882690,323 6.3756590,49.2878210,325 6.3742220,49.2873520,326 6.3740430,49.2872690,326 6.3739080,49.2871550,326 6.3738130,49.2870260,326 6.3737780,49.2868900,326 6.3738030,49.2867490,326 6.3738940,49.2866200,324 6.3740290,49.2865050,324 6.3731880,49.2862990,321 6.3716440,49.2856010,314 6.3731880,49.2862990,321 6.3740290,49.2865050,324 6.3738940,49.2866200,324 6.3738030,49.2867490,326 6.3737780,49.2868900,326 6.3738130,49.2870260,326 6.3739080,49.2871550,326 6.3740430,49.2872690,326 6.3742220,49.2873520,326 6.3756590,49.2878210,325 6.3764660,49.2882690,323 6.3769570,49.2885870,322 6.3771880,49.2888660,322 6.3772290,49.2891200,322 6.3771440,49.2894750,321 6.3769620,49.2898520,320 6.3766880,49.2901260,321 6.3756000,49.2906750,325 6.3751580,49.2909160,327 6.3750420,49.2910890,328 6.3751090,49.2912330,328 6.3757200,49.2919040,323 6.3788660,49.2949330,302 6.3789070,49.2953030,301 6.3789040,49.2957760,298 6.3791160,49.2960840,295 6.3793270,49.2965460,293 6.3793080,49.2967680,291 6.3791720,49.2970930,289 6.3790410,49.2972310,288 6.3786070,49.2976560,290 6.3784230,49.2978070,291 6.3781540,49.2979390,292 6.3778710,49.2980140,291 6.3754350,49.2984100,294 6.3752180,49.2984640,295 6.3749120,49.2985650,296 6.3746430,49.2986200,296 6.3736580,49.2987050,299 6.3733400,49.2987580,299 6.3731350,49.2988280,298 6.3729620,49.2989480,297 6.3728250,49.2991150,296 6.3727570,49.2992850,295 6.3727120,49.2995130,294 6.3729820,49.2998840,294 6.3730200,49.2999780,293 6.3737040,49.3001630,296 6.3740420,49.3005470,296 6.3741010,49.3006810,296 6.3741100,49.3007940,296 6.3740920,49.3012570,300 6.3736490,49.3015430,300 6.3742320,49.3022260,330 6.3743130,49.3024190,334 6.3743400,49.3026880,336 6.3742110,49.3028770,336 6.3739850,49.3034470,336 6.3739880,49.3035100,336 6.3745080,49.3038390,337 6.3756830,49.3046100,338 6.3752970,49.3048060,338 6.3751760,49.3049390,338 6.3748870,49.3051050,335 6.3748200,49.3051520,334 6.3747870,49.3052160,332 6.3747350,49.3052440,332 6.3745580,49.3052470,328 6.3744840,49.3052710,327 6.3741500,49.3054180,318 6.3739840,49.3055160,314 6.3742280,49.3057240,315 6.3743400,49.3058640,316 6.3743960,49.3060200,316 6.3744030,49.3061990,316 6.3743700,49.3063350,316 6.3742940,49.3064640,315 6.3741570,49.3065760,315 6.3739710,49.3066830,315 6.3737910,49.3067500,315 6.3714910,49.3073140,312 6.3711020,49.3074410,311 6.3707590,49.3076140,309 6.3704730,49.3078740,306 6.3702920,49.3080840,304 6.3701580,49.3082990,302 6.3683050,49.3087530,293 6.3673030,49.3090200,288 6.3651770,49.3095370,279 6.3609670,49.3105760,264 6.3606190,49.3106490,264 6.3602660,49.3106870,263 6.3588430,49.3107880,259 6.3584720,49.3108020,258 6.3579340,49.3108520,258 6.3537840,49.3111510,246 6.3523070,49.3111310,240 6.3488190,49.3111010,230 6.3472780,49.3110910,224 6.3470510,49.3104160,220 6.3469960,49.3103310,219 6.3468410,49.3103350,217 6.3462710,49.3104100,214 6.3454180,49.3105700,211 6.3444280,49.3106730,207 6.3443810,49.3106330,206 6.3440020,49.3105030,200 6.3433900,49.3103980,196 6.3433050,49.3103990,196 6.3425930,49.3103320,194 6.3417720,49.3101740,192 6.3416720,49.3101450,191 6.3415470,49.3100890,190 6.3413840,49.3100410,190 6.3411000,49.3099860,189 6.3407540,49.3099380,188 6.3405190,49.3099140,189 6.3400990,49.3098980,188 6.3400250,49.3098900,188 6.3398400,49.3098320,187 6.3397470,49.3097780,185 6.3396570,49.3096700,184 6.3396450,49.3095800,184 6.3396150,49.3095090,184 6.3395270,49.3094070,183 6.3396160,49.3094090,184 6.3398290,49.3094580,185 6.3399630,49.3094590,186 6.3401820,49.3094510,186 6.3402340,49.3094570,187 6.3404590,49.3095520,186</coordinates></LineString></Placemark>
</Document></kml>