<?xml version="1.0" encoding="UTF-8"?>
<gpx version="1.1" creator="olifant"
     xmlns="http://www.topografix.com/GPX/1/1"
     xmlns:xsi="http://www.w3.org/2001/XMLSchema-instance"
     xsi:schemaLocation="http://www.topografix.com/GPX/1/1 http://www.topografix.com/GPX/1/1/gpx.xsd">
  <metadata><name>La vallee de la Canner</name><desc>15.0 km. D+ 249 m. 87 % de chemins. Depart : Kedange-sur-Canner, pres de la mairie (35 min de Metz). Une hetraie et une riviere tranquille, le plus forestier du lot et le plus plat.</desc></metadata>
  <wpt lat="49.3095000" lon="6.3412000"><name>Kedange-sur-Canner</name><desc>Depart en voiture, 35 min de Metz. Se garer pres de la mairie.</desc></wpt>
  <wpt lat="49.2959530" lon="6.3446340"><name>Hombourg-Budange</name><desc>Chateau et parc, au bord de la Canner.</desc></wpt>
  <wpt lat="49.2841470" lon="6.3731800"><name>Foret de Hombourg-Budange</name><desc>Grande hetraie, chemins forestiers larges et bien traces.</desc></wpt>
  <trk><name>La vallee de la Canner</name><trkseg>
    <trkpt lat="49.3095520" lon="6.3404590"><ele>186.2</ele></trkpt>
    <trkpt lat="49.3094570" lon="6.3402340"><ele>186.8</ele></trkpt>
    <trkpt lat="49.3094510" lon="6.3401820"><ele>186.5</ele></trkpt>
    <trkpt lat="49.3094590" lon="6.3399630"><ele>185.5</ele></trkpt>
    <trkpt lat="49.3094580" lon="6.3398290"><ele>184.8</ele></trkpt>
    <trkpt lat="49.3094090" lon="6.3396160"><ele>183.5</ele></trkpt>
    <trkpt lat="49.3094070" lon="6.3395270"><ele>183.2</ele></trkpt>
    <trkpt lat="49.3093250" lon="6.3394570"><ele>183.0</ele></trkpt>
    <trkpt lat="49.3092490" lon="6.3394150"><ele>183.0</ele></trkpt>
    <trkpt lat="49.3090220" lon="6.3394540"><ele>183.0</ele></trkpt>
    <trkpt lat="49.3090040" lon="6.3395170"><ele>183.2</ele></trkpt>
    <trkpt lat="49.3089730" lon="6.3395820"><ele>183.2</ele></trkpt>
    <trkpt lat="49.3089040" lon="6.3396460"><ele>183.5</ele></trkpt>
    <trkpt lat="49.3088060" lon="6.3396680"><ele>184.0</ele></trkpt>
    <trkpt lat="49.3087010" lon="6.3396750"><ele>184.5</ele></trkpt>
    <trkpt lat="49.3082490" lon="6.3396340"><ele>183.8</ele></trkpt>
    <trkpt lat="49.3080900" lon="6.3395660"><ele>183.5</ele></trkpt>
    <trkpt lat="49.3080280" lon="6.3395000"><ele>183.0</ele></trkpt>
    <trkpt lat="49.3076930" lon="6.3396070"><ele>183.0</ele></trkpt>
    <trkpt lat="49.3072910" lon="6.3396980"><ele>183.5</ele></trkpt>
    <trkpt lat="49.3070150" lon="6.3397020"><ele>183.8</ele></trkpt>
    <trkpt lat="49.3070190" lon="6.3400110"><ele>185.2</ele></trkpt>
    <trkpt lat="49.3069800" lon="6.3402450"><ele>187.0</ele></trkpt>
    <trkpt lat="49.3069830" lon="6.3404180"><ele>188.2</ele></trkpt>
    <trkpt lat="49.3070800" lon="6.3411400"><ele>197.2</ele></trkpt>
    <trkpt lat="49.3070930" lon="6.3413390"><ele>200.8</ele></trkpt>
    <trkpt lat="49.3070350" lon="6.3415350"><ele>202.5</ele></trkpt>
    <trkpt lat="49.3067490" lon="6.3420620"><ele>207.0</ele></trkpt>
    <trkpt lat="49.3066780" lon="6.3418520"><ele>205.2</ele></trkpt>
    <trkpt lat="49.3063330" lon="6.3417460"><ele>206.0</ele></trkpt>
    <trkpt lat="49.3059940" lon="6.3417050"><ele>209.0</ele></trkpt>
    <trkpt lat="49.3055800" lon="6.3415510"><ele>210.2</ele></trkpt>
    <trkpt lat="49.3053260" lon="6.3412990"><ele>209.5</ele></trkpt>
    <trkpt lat="49.3046950" lon="6.3408270"><ele>208.0</ele></trkpt>
    <trkpt lat="49.3040800" lon="6.3404530"><ele>207.8</ele></trkpt>
    <trkpt lat="49.3033910" lon="6.3400960"><ele>209.2</ele></trkpt>
    <trkpt lat="49.3029830" lon="6.3398190"><ele>213.2</ele></trkpt>
    <trkpt lat="49.3028710" lon="6.3397050"><ele>214.5</ele></trkpt>
    <trkpt lat="49.3024200" lon="6.3394530"><ele>219.8</ele></trkpt>
    <trkpt lat="49.3020070" lon="6.3391930"><ele>219.0</ele></trkpt>
    <trkpt lat="49.3017010" lon="6.3390810"><ele>220.0</ele></trkpt>
    <trkpt lat="49.3015640" lon="6.3390720"><ele>221.2</ele></trkpt>
    <trkpt lat="49.3011510" lon="6.3391600"><ele>224.8</ele></trkpt>
    <trkpt lat="49.3008930" lon="6.3392270"><ele>222.5</ele></trkpt>
    <trkpt lat="49.3005590" lon="6.3394550"><ele>217.2</ele></trkpt>
    <trkpt lat="49.3004980" lon="6.3395160"><ele>216.8</ele></trkpt>
    <trkpt lat="49.3004540" lon="6.3396100"><ele>217.0</ele></trkpt>
    <trkpt lat="49.3000750" lon="6.3400770"><ele>216.2</ele></trkpt>
    <trkpt lat="49.2999630" lon="6.3401550"><ele>215.0</ele></trkpt>
    <trkpt lat="49.2998280" lon="6.3402310"><ele>214.2</ele></trkpt>
    <trkpt lat="49.2997320" lon="6.3403280"><ele>213.8</ele></trkpt>
    <trkpt lat="49.2992660" lon="6.3406790"><ele>209.2</ele></trkpt>
    <trkpt lat="49.2989500" lon="6.3409410"><ele>205.8</ele></trkpt>
    <trkpt lat="49.2988850" lon="6.3410280"><ele>205.2</ele></trkpt>
    <trkpt lat="49.2988370" lon="6.3411220"><ele>204.8</ele></trkpt>
    <trkpt lat="49.2987900" lon="6.3412750"><ele>204.2</ele></trkpt>
    <trkpt lat="49.2986910" lon="6.3416890"><ele>203.2</ele></trkpt>
    <trkpt lat="49.2986460" lon="6.3419200"><ele>203.8</ele></trkpt>
    <trkpt lat="49.2986180" lon="6.3421280"><ele>204.5</ele></trkpt>
    <trkpt lat="49.2986000" lon="6.3423860"><ele>204.8</ele></trkpt>
    <trkpt lat="49.2985740" lon="6.3426190"><ele>204.2</ele></trkpt>
    <trkpt lat="49.2985090" lon="6.3428730"><ele>203.5</ele></trkpt>
    <trkpt lat="49.2984620" lon="6.3430610"><ele>203.8</ele></trkpt>
    <trkpt lat="49.2984020" lon="6.3434040"><ele>202.8</ele></trkpt>
    <trkpt lat="49.2983020" lon="6.3440330"><ele>202.0</ele></trkpt>
    <trkpt lat="49.2981810" lon="6.3449570"><ele>202.8</ele></trkpt>
    <trkpt lat="49.2981940" lon="6.3457000"><ele>202.0</ele></trkpt>
    <trkpt lat="49.2981250" lon="6.3457000"><ele>201.8</ele></trkpt>
    <trkpt lat="49.2981000" lon="6.3457200"><ele>201.5</ele></trkpt>
    <trkpt lat="49.2980770" lon="6.3457820"><ele>201.2</ele></trkpt>
    <trkpt lat="49.2980490" lon="6.3457620"><ele>201.0</ele></trkpt>
    <trkpt lat="49.2979350" lon="6.3457030"><ele>199.8</ele></trkpt>
    <trkpt lat="49.2978800" lon="6.3456380"><ele>199.2</ele></trkpt>
    <trkpt lat="49.2978170" lon="6.3455010"><ele>198.5</ele></trkpt>
    <trkpt lat="49.2977390" lon="6.3453760"><ele>197.8</ele></trkpt>
    <trkpt lat="49.2977250" lon="6.3453920"><ele>198.0</ele></trkpt>
    <trkpt lat="49.2972340" lon="6.3456720"><ele>199.2</ele></trkpt>
    <trkpt lat="49.2972670" lon="6.3458030"><ele>199.5</ele></trkpt>
    <trkpt lat="49.2972340" lon="6.3458380"><ele>199.8</ele></trkpt>
    <trkpt lat="49.2969790" lon="6.3459750"><ele>200.0</ele></trkpt>
    <trkpt lat="49.2967550" lon="6.3461290"><ele>200.0</ele></trkpt>
    <trkpt lat="49.2968930" lon="6.3465070"><ele>200.2</ele></trkpt>
    <trkpt lat="49.2962900" lon="6.3468320"><ele>199.5</ele></trkpt>
    <trkpt lat="49.2961280" lon="6.3467500"><ele>199.0</ele></trkpt>
    <trkpt lat="49.2957340" lon="6.3467230"><ele>197.5</ele></trkpt>
    <trkpt lat="49.2955210" lon="6.3467270"><ele>197.0</ele></trkpt>
    <trkpt lat="49.2955170" lon="6.3466380"><ele>197.0</ele></trkpt>
    <trkpt lat="49.2955300" lon="6.3461000"><ele>196.8</ele></trkpt>
    <trkpt lat="49.2955530" lon="6.3459080"><ele>196.8</ele></trkpt>
    <trkpt lat="49.2957850" lon="6.3449570"><ele>197.0</ele></trkpt>
    <trkpt lat="49.2960010" lon="6.3447520"><ele>197.8</ele></trkpt>
    <trkpt lat="49.2957850" lon="6.3449570"><ele>197.0</ele></trkpt>
    <trkpt lat="49.2955530" lon="6.3459080"><ele>196.8</ele></trkpt>
    <trkpt lat="49.2955300" lon="6.3461000"><ele>196.8</ele></trkpt>
    <trkpt lat="49.2955170" lon="6.3466380"><ele>197.0</ele></trkpt>
    <trkpt lat="49.2955210" lon="6.3467270"><ele>197.0</ele></trkpt>
    <trkpt lat="49.2957340" lon="6.3467230"><ele>197.5</ele></trkpt>
    <trkpt lat="49.2961280" lon="6.3467500"><ele>199.0</ele></trkpt>
    <trkpt lat="49.2962900" lon="6.3468320"><ele>199.5</ele></trkpt>
    <trkpt lat="49.2968930" lon="6.3465070"><ele>200.2</ele></trkpt>
    <trkpt lat="49.2967550" lon="6.3461290"><ele>200.0</ele></trkpt>
    <trkpt lat="49.2969790" lon="6.3459750"><ele>200.0</ele></trkpt>
    <trkpt lat="49.2972340" lon="6.3458380"><ele>199.8</ele></trkpt>
    <trkpt lat="49.2972670" lon="6.3458030"><ele>199.5</ele></trkpt>
    <trkpt lat="49.2972340" lon="6.3456720"><ele>199.2</ele></trkpt>
    <trkpt lat="49.2977250" lon="6.3453920"><ele>198.0</ele></trkpt>
    <trkpt lat="49.2977390" lon="6.3453760"><ele>197.8</ele></trkpt>
    <trkpt lat="49.2978170" lon="6.3455010"><ele>198.5</ele></trkpt>
    <trkpt lat="49.2978800" lon="6.3456380"><ele>199.2</ele></trkpt>
    <trkpt lat="49.2979350" lon="6.3457030"><ele>199.8</ele></trkpt>
    <trkpt lat="49.2980490" lon="6.3457620"><ele>201.0</ele></trkpt>
    <trkpt lat="49.2980770" lon="6.3457820"><ele>201.2</ele></trkpt>
    <trkpt lat="49.2981000" lon="6.3457200"><ele>201.5</ele></trkpt>
    <trkpt lat="49.2981250" lon="6.3457000"><ele>201.8</ele></trkpt>
    <trkpt lat="49.2981940" lon="6.3457000"><ele>202.0</ele></trkpt>
    <trkpt lat="49.2981810" lon="6.3449570"><ele>202.8</ele></trkpt>
    <trkpt lat="49.2983020" lon="6.3440330"><ele>202.0</ele></trkpt>
    <trkpt lat="49.2984020" lon="6.3434040"><ele>202.8</ele></trkpt>
    <trkpt lat="49.2984620" lon="6.3430610"><ele>203.8</ele></trkpt>
    <trkpt lat="49.2985090" lon="6.3428730"><ele>203.5</ele></trkpt>
    <trkpt lat="49.2985740" lon="6.3426190"><ele>204.2</ele></trkpt>
    <trkpt lat="49.2986000" lon="6.3423860"><ele>204.8</ele></trkpt>
    <trkpt lat="49.2986180" lon="6.3421280"><ele>204.5</ele></trkpt>
    <trkpt lat="49.2986460" lon="6.3419200"><ele>203.8</ele></trkpt>
    <trkpt lat="49.2986910" lon="6.3416890"><ele>203.2</ele></trkpt>
    <trkpt lat="49.2987900" lon="6.3412750"><ele>204.2</ele></trkpt>
    <trkpt lat="49.2988370" lon="6.3411220"><ele>204.8</ele></trkpt>
    <trkpt lat="49.2988850" lon="6.3410280"><ele>205.2</ele></trkpt>
    <trkpt lat="49.2989500" lon="6.3409410"><ele>205.8</ele></trkpt>
    <trkpt lat="49.2992660" lon="6.3406790"><ele>209.2</ele></trkpt>
    <trkpt lat="49.2997320" lon="6.3403280"><ele>213.8</ele></trkpt>
    <trkpt lat="49.2998280" lon="6.3402310"><ele>214.2</ele></trkpt>
    <trkpt lat="49.2999630" lon="6.3401550"><ele>215.0</ele></trkpt>
    <trkpt lat="49.3000750" lon="6.3400770"><ele>216.2</ele></trkpt>
    <trkpt lat="49.3004540" lon="6.3396100"><ele>217.0</ele></trkpt>
    <trkpt lat="49.3004980" lon="6.3395160"><ele>216.8</ele></trkpt>
    <trkpt lat="49.3005590" lon="6.3394550"><ele>217.2</ele></trkpt>
    <trkpt lat="49.3008930" lon="6.3392270"><ele>222.5</ele></trkpt>
    <trkpt lat="49.3011510" lon="6.3391600"><ele>224.8</ele></trkpt>
    <trkpt lat="49.3011170" lon="6.3395460"><ele>230.2</ele></trkpt>
    <trkpt lat="49.3010580" lon="6.3398650"><ele>233.2</ele></trkpt>
    <trkpt lat="49.3010600" lon="6.3399780"><ele>234.2</ele></trkpt>
    <trkpt lat="49.3011230" lon="6.3404710"><ele>241.8</ele></trkpt>
    <trkpt lat="49.3011260" lon="6.3405990"><ele>243.2</ele></trkpt>
    <trkpt lat="49.3010750" lon="6.3410240"><ele>247.2</ele></trkpt>
    <trkpt lat="49.3010470" lon="6.3411500"><ele>248.2</ele></trkpt>
    <trkpt lat="49.3009740" lon="6.3413160"><ele>249.2</ele></trkpt>
    <trkpt lat="49.3009480" lon="6.3414720"><ele>250.5</ele></trkpt>
    <trkpt lat="49.3009560" lon="6.3417690"><ele>252.0</ele></trkpt>
    <trkpt lat="49.3010720" lon="6.3425550"><ele>254.2</ele></trkpt>
    <trkpt lat="49.3010700" lon="6.3429200"><ele>255.5</ele></trkpt>
    <trkpt lat="49.3010960" lon="6.3431160"><ele>256.2</ele></trkpt>
    <trkpt lat="49.3011700" lon="6.3432960"><ele>257.2</ele></trkpt>
    <trkpt lat="49.3013130" lon="6.3435340"><ele>257.2</ele></trkpt>
    <trkpt lat="49.3013880" lon="6.3437030"><ele>257.2</ele></trkpt>
    <trkpt lat="49.3014220" lon="6.3439130"><ele>257.5</ele></trkpt>
    <trkpt lat="49.3014080" lon="6.3441870"><ele>258.8</ele></trkpt>
    <trkpt lat="49.3014150" lon="6.3445580"><ele>260.0</ele></trkpt>
    <trkpt lat="49.3014570" lon="6.3449040"><ele>260.2</ele></trkpt>
    <trkpt lat="49.3014660" lon="6.3453660"><ele>261.8</ele></trkpt>
    <trkpt lat="49.3014660" lon="6.3458540"><ele>262.5</ele></trkpt>
    <trkpt lat="49.3014730" lon="6.3459710"><ele>262.8</ele></trkpt>
    <trkpt lat="49.3014900" lon="6.3460660"><ele>263.0</ele></trkpt>
    <trkpt lat="49.3014980" lon="6.3461830"><ele>263.2</ele></trkpt>
    <trkpt lat="49.3014790" lon="6.3463480"><ele>263.5</ele></trkpt>
    <trkpt lat="49.3014860" lon="6.3464280"><ele>263.5</ele></trkpt>
    <trkpt lat="49.3015210" lon="6.3465420"><ele>263.8</ele></trkpt>
    <trkpt lat="49.3015550" lon="6.3467930"><ele>264.0</ele></trkpt>
    <trkpt lat="49.3015890" lon="6.3468830"><ele>264.0</ele></trkpt>
    <trkpt lat="49.3016380" lon="6.3469370"><ele>264.0</ele></trkpt>
    <trkpt lat="49.3018920" lon="6.3471580"><ele>263.8</ele></trkpt>
    <trkpt lat="49.3021960" lon="6.3473180"><ele>262.5</ele></trkpt>
    <trkpt lat="49.3032490" lon="6.3479650"><ele>252.5</ele></trkpt>
    <trkpt lat="49.3033210" lon="6.3485020"><ele>253.8</ele></trkpt>
    <trkpt lat="49.3033410" lon="6.3488330"><ele>255.2</ele></trkpt>
    <trkpt lat="49.3033780" lon="6.3490850"><ele>255.2</ele></trkpt>
    <trkpt lat="49.3034100" lon="6.3495640"><ele>256.0</ele></trkpt>
    <trkpt lat="49.3034520" lon="6.3499690"><ele>256.5</ele></trkpt>
    <trkpt lat="49.3034710" lon="6.3502320"><ele>257.2</ele></trkpt>
    <trkpt lat="49.3034760" lon="6.3505390"><ele>258.2</ele></trkpt>
    <trkpt lat="49.3034960" lon="6.3506780"><ele>259.0</ele></trkpt>
    <trkpt lat="49.3035400" lon="6.3508590"><ele>259.8</ele></trkpt>
    <trkpt lat="49.3035680" lon="6.3511460"><ele>260.5</ele></trkpt>
    <trkpt lat="49.3035550" lon="6.3514780"><ele>261.8</ele></trkpt>
    <trkpt lat="49.3035670" lon="6.3516120"><ele>262.2</ele></trkpt>
    <trkpt lat="49.3035560" lon="6.3517150"><ele>262.8</ele></trkpt>
    <trkpt lat="49.3035100" lon="6.3517940"><ele>263.5</ele></trkpt>
    <trkpt lat="49.3030320" lon="6.3524960"><ele>270.0</ele></trkpt>
    <trkpt lat="49.3029430" lon="6.3525810"><ele>271.0</ele></trkpt>
    <trkpt lat="49.3028030" lon="6.3526240"><ele>272.2</ele></trkpt>
    <trkpt lat="49.3026090" lon="6.3526460"><ele>272.5</ele></trkpt>
    <trkpt lat="49.3025230" lon="6.3526810"><ele>272.5</ele></trkpt>
    <trkpt lat="49.3024060" lon="6.3528280"><ele>272.8</ele></trkpt>
    <trkpt lat="49.3024780" lon="6.3530510"><ele>273.8</ele></trkpt>
    <trkpt lat="49.3025090" lon="6.3532650"><ele>274.5</ele></trkpt>
    <trkpt lat="49.3025060" lon="6.3535230"><ele>275.0</ele></trkpt>
    <trkpt lat="49.3024800" lon="6.3537350"><ele>275.2</ele></trkpt>
    <trkpt lat="49.3024800" lon="6.3539870"><ele>276.0</ele></trkpt>
    <trkpt lat="49.3024620" lon="6.3542100"><ele>276.5</ele></trkpt>
    <trkpt lat="49.3023960" lon="6.3543870"><ele>276.2</ele></trkpt>
    <trkpt lat="49.3022960" lon="6.3545470"><ele>275.2</ele></trkpt>
    <trkpt lat="49.3022660" lon="6.3546840"><ele>275.2</ele></trkpt>
    <trkpt lat="49.3022750" lon="6.3547940"><ele>276.0</ele></trkpt>
    <trkpt lat="49.3024100" lon="6.3553660"><ele>279.5</ele></trkpt>
    <trkpt lat="49.3025740" lon="6.3561250"><ele>285.5</ele></trkpt>
    <trkpt lat="49.3031250" lon="6.3589010"><ele>300.0</ele></trkpt>
    <trkpt lat="49.3040210" lon="6.3631410"><ele>309.5</ele></trkpt>
    <trkpt lat="49.3040310" lon="6.3633750"><ele>309.2</ele></trkpt>
    <trkpt lat="49.3038320" lon="6.3643780"><ele>311.0</ele></trkpt>
    <trkpt lat="49.3035640" lon="6.3658850"><ele>311.5</ele></trkpt>
    <trkpt lat="49.3034840" lon="6.3667030"><ele>313.2</ele></trkpt>
    <trkpt lat="49.3033740" lon="6.3667190"><ele>312.5</ele></trkpt>
    <trkpt lat="49.3032720" lon="6.3668700"><ele>311.5</ele></trkpt>
    <trkpt lat="49.3029590" lon="6.3675560"><ele>308.5</ele></trkpt>
    <trkpt lat="49.3027600" lon="6.3682510"><ele>305.0</ele></trkpt>
    <trkpt lat="49.3024870" lon="6.3697850"><ele>301.8</ele></trkpt>
    <trkpt lat="49.3024050" lon="6.3703080"><ele>302.8</ele></trkpt>
    <trkpt lat="49.3023190" lon="6.3711020"><ele>305.2</ele></trkpt>
    <trkpt lat="49.3022580" lon="6.3721400"><ele>305.0</ele></trkpt>
    <trkpt lat="49.3022100" lon="6.3723840"><ele>304.8</ele></trkpt>
    <trkpt lat="49.3021190" lon="6.3726440"><ele>303.5</ele></trkpt>
    <trkpt lat="49.3019250" lon="6.3730250"><ele>300.2</ele></trkpt>
    <trkpt lat="49.3015430" lon="6.3736490"><ele>300.0</ele></trkpt>
    <trkpt lat="49.3012570" lon="6.3740920"><ele>300.5</ele></trkpt>
    <trkpt lat="49.3007940" lon="6.3741100"><ele>296.5</ele></trkpt>
    <trkpt lat="49.3006810" lon="6.3741010"><ele>296.5</ele></trkpt>
    <trkpt lat="49.3005470" lon="6.3740420"><ele>296.0</ele></trkpt>
    <trkpt lat="49.3001630" lon="6.3737040"><ele>296.2</ele></trkpt>
    <trkpt lat="49.2999780" lon="6.3730200"><ele>292.8</ele></trkpt>
    <trkpt lat="49.2998840" lon="6.3729820"><ele>293.5</ele></trkpt>
    <trkpt lat="49.2995130" lon="6.3727120"><ele>293.5</ele></trkpt>
    <trkpt lat="49.2992850" lon="6.3727570"><ele>295.0</ele></trkpt>
    <trkpt lat="49.2991150" lon="6.3728250"><ele>296.5</ele></trkpt>
    <trkpt lat="49.2989480" lon="6.3729620"><ele>297.2</ele></trkpt>
    <trkpt lat="49.2988280" lon="6.3731350"><ele>297.8</ele></trkpt>
    <trkpt lat="49.2987580" lon="6.3733400"><ele>299.2</ele></trkpt>
    <trkpt lat="49.2987050" lon="6.3736580"><ele>299.2</ele></trkpt>
    <trkpt lat="49.2986200" lon="6.3746430"><ele>296.0</ele></trkpt>
    <trkpt lat="49.2985650" lon="6.3749120"><ele>296.2</ele></trkpt>
    <trkpt lat="49.2984640" lon="6.3752180"><ele>295.0</ele></trkpt>
    <trkpt lat="49.2984100" lon="6.3754350"><ele>294.5</ele></trkpt>
    <trkpt lat="49.2980140" lon="6.3778710"><ele>291.2</ele></trkpt>
    <trkpt lat="49.2979390" lon="6.3781540"><ele>291.8</ele></trkpt>
    <trkpt lat="49.2978070" lon="6.3784230"><ele>291.0</ele></trkpt>
    <trkpt lat="49.2976560" lon="6.3786070"><ele>290.5</ele></trkpt>
    <trkpt lat="49.2972310" lon="6.3790410"><ele>288.5</ele></trkpt>
    <trkpt lat="49.2970930" lon="6.3791720"><ele>289.0</ele></trkpt>
    <trkpt lat="49.2967680" lon="6.3793080"><ele>291.2</ele></trkpt>
    <trkpt lat="49.2965460" lon="6.3793270"><ele>292.8</ele></trkpt>
    <trkpt lat="49.2960840" lon="6.3791160"><ele>295.2</ele></trkpt>
    <trkpt lat="49.2957760" lon="6.3789040"><ele>298.2</ele></trkpt>
    <trkpt lat="49.2953030" lon="6.3789070"><ele>301.0</ele></trkpt>
    <trkpt lat="49.2949330" lon="6.3788660"><ele>302.5</ele></trkpt>
    <trkpt lat="49.2919040" lon="6.3757200"><ele>322.8</ele></trkpt>
    <trkpt lat="49.2912330" lon="6.3751090"><ele>327.5</ele></trkpt>
    <trkpt lat="49.2910890" lon="6.3750420"><ele>327.8</ele></trkpt>
    <trkpt lat="49.2909160" lon="6.3751580"><ele>327.0</ele></trkpt>
    <trkpt lat="49.2906750" lon="6.3756000"><ele>324.8</ele></trkpt>
    <trkpt lat="49.2901260" lon="6.3766880"><ele>320.8</ele></trkpt>
    <trkpt lat="49.2898520" lon="6.3769620"><ele>320.2</ele></trkpt>
    <trkpt lat="49.2894750" lon="6.3771440"><ele>321.0</ele></trkpt>
    <trkpt lat="49.2891200" lon="6.3772290"><ele>322.0</ele></trkpt>
    <trkpt lat="49.2888660" lon="6.3771880"><ele>322.5</ele></trkpt>
    <trkpt lat="49.2885870" lon="6.3769570"><ele>322.5</ele></trkpt>
    <trkpt lat="49.2882690" lon="6.3764660"><ele>323.0</ele></trkpt>
    <trkpt lat="49.2878210" lon="6.3756590"><ele>325.0</ele></trkpt>
    <trkpt lat="49.2873520" lon="6.3742220"><ele>326.2</ele></trkpt>
    <trkpt lat="49.2872690" lon="6.3740430"><ele>326.0</ele></trkpt>
    <trkpt lat="49.2871550" lon="6.3739080"><ele>326.2</ele></trkpt>
    <trkpt lat="49.2870260" lon="6.3738130"><ele>326.2</ele></trkpt>
    <trkpt lat="49.2868900" lon="6.3737780"><ele>326.2</ele></trkpt>
    <trkpt lat="49.2867490" lon="6.3738030"><ele>325.5</ele></trkpt>
    <trkpt lat="49.2866200" lon="6.3738940"><ele>324.5</ele></trkpt>
    <trkpt lat="49.2865050" lon="6.3740290"><ele>324.0</ele></trkpt>
    <trkpt lat="49.2862990" lon="6.3731880"><ele>320.8</ele></trkpt>
    <trkpt lat="49.2856010" lon="6.3716440"><ele>313.8</ele></trkpt>
    <trkpt lat="49.2862990" lon="6.3731880"><ele>320.8</ele></trkpt>
    <trkpt lat="49.2865050" lon="6.3740290"><ele>324.0</ele></trkpt>
    <trkpt lat="49.2866200" lon="6.3738940"><ele>324.5</ele></trkpt>
    <trkpt lat="49.2867490" lon="6.3738030"><ele>325.5</ele></trkpt>
    <trkpt lat="49.2868900" lon="6.3737780"><ele>326.2</ele></trkpt>
    <trkpt lat="49.2870260" lon="6.3738130"><ele>326.2</ele></trkpt>
    <trkpt lat="49.2871550" lon="6.3739080"><ele>326.2</ele></trkpt>
    <trkpt lat="49.2872690" lon="6.3740430"><ele>326.0</ele></trkpt>
    <trkpt lat="49.2873520" lon="6.3742220"><ele>326.2</ele></trkpt>
    <trkpt lat="49.2878210" lon="6.3756590"><ele>325.0</ele></trkpt>
    <trkpt lat="49.2882690" lon="6.3764660"><ele>323.0</ele></trkpt>
    <trkpt lat="49.2885870" lon="6.3769570"><ele>322.5</ele></trkpt>
    <trkpt lat="49.2888660" lon="6.3771880"><ele>322.5</ele></trkpt>
    <trkpt lat="49.2891200" lon="6.3772290"><ele>322.0</ele></trkpt>
    <trkpt lat="49.2894750" lon="6.3771440"><ele>321.0</ele></trkpt>
    <trkpt lat="49.2898520" lon="6.3769620"><ele>320.2</ele></trkpt>
    <trkpt lat="49.2901260" lon="6.3766880"><ele>320.8</ele></trkpt>
    <trkpt lat="49.2906750" lon="6.3756000"><ele>324.8</ele></trkpt>
    <trkpt lat="49.2909160" lon="6.3751580"><ele>327.0</ele></trkpt>
    <trkpt lat="49.2910890" lon="6.3750420"><ele>327.8</ele></trkpt>
    <trkpt lat="49.2912330" lon="6.3751090"><ele>327.5</ele></trkpt>
    <trkpt lat="49.2919040" lon="6.3757200"><ele>322.8</ele></trkpt>
    <trkpt lat="49.2949330" lon="6.3788660"><ele>302.5</ele></trkpt>
    <trkpt lat="49.2953030" lon="6.3789070"><ele>301.0</ele></trkpt>
    <trkpt lat="49.2957760" lon="6.3789040"><ele>298.2</ele></trkpt>
    <trkpt lat="49.2960840" lon="6.3791160"><ele>295.2</ele></trkpt>
    <trkpt lat="49.2965460" lon="6.3793270"><ele>292.8</ele></trkpt>
    <trkpt lat="49.2967680" lon="6.3793080"><ele>291.2</ele></trkpt>
    <trkpt lat="49.2970930" lon="6.3791720"><ele>289.0</ele></trkpt>
    <trkpt lat="49.2972310" lon="6.3790410"><ele>288.5</ele></trkpt>
    <trkpt lat="49.2976560" lon="6.3786070"><ele>290.5</ele></trkpt>
    <trkpt lat="49.2978070" lon="6.3784230"><ele>291.0</ele></trkpt>
    <trkpt lat="49.2979390" lon="6.3781540"><ele>291.8</ele></trkpt>
    <trkpt lat="49.2980140" lon="6.3778710"><ele>291.2</ele></trkpt>
    <trkpt lat="49.2984100" lon="6.3754350"><ele>294.5</ele></trkpt>
    <trkpt lat="49.2984640" lon="6.3752180"><ele>295.0</ele></trkpt>
    <trkpt lat="49.2985650" lon="6.3749120"><ele>296.2</ele></trkpt>
    <trkpt lat="49.2986200" lon="6.3746430"><ele>296.0</ele></trkpt>
    <trkpt lat="49.2987050" lon="6.3736580"><ele>299.2</ele></trkpt>
    <trkpt lat="49.2987580" lon="6.3733400"><ele>299.2</ele></trkpt>
    <trkpt lat="49.2988280" lon="6.3731350"><ele>297.8</ele></trkpt>
    <trkpt lat="49.2989480" lon="6.3729620"><ele>297.2</ele></trkpt>
    <trkpt lat="49.2991150" lon="6.3728250"><ele>296.5</ele></trkpt>
    <trkpt lat="49.2992850" lon="6.3727570"><ele>295.0</ele></trkpt>
    <trkpt lat="49.2995130" lon="6.3727120"><ele>293.5</ele></trkpt>
    <trkpt lat="49.2998840" lon="6.3729820"><ele>293.5</ele></trkpt>
    <trkpt lat="49.2999780" lon="6.3730200"><ele>292.8</ele></trkpt>
    <trkpt lat="49.3001630" lon="6.3737040"><ele>296.2</ele></trkpt>
    <trkpt lat="49.3005470" lon="6.3740420"><ele>296.0</ele></trkpt>
    <trkpt lat="49.3006810" lon="6.3741010"><ele>296.5</ele></trkpt>
    <trkpt lat="49.3007940" lon="6.3741100"><ele>296.5</ele></trkpt>
    <trkpt lat="49.3012570" lon="6.3740920"><ele>300.5</ele></trkpt>
    <trkpt lat="49.3015430" lon="6.3736490"><ele>300.0</ele></trkpt>
    <trkpt lat="49.3022260" lon="6.3742320"><ele>330.5</ele></trkpt>
    <trkpt lat="49.3024190" lon="6.3743130"><ele>333.5</ele></trkpt>
    <trkpt lat="49.3026880" lon="6.3743400"><ele>335.5</ele></trkpt>
    <trkpt lat="49.3028770" lon="6.3742110"><ele>336.2</ele></trkpt>
    <trkpt lat="49.3034470" lon="6.3739850"><ele>336.2</ele></trkpt>
    <trkpt lat="49.3035100" lon="6.3739880"><ele>336.2</ele></trkpt>
    <trkpt lat="49.3038390" lon="6.3745080"><ele>337.0</ele></trkpt>
    <trkpt lat="49.3046100" lon="6.3756830"><ele>338.2</ele></trkpt>
    <trkpt lat="49.3048060" lon="6.3752970"><ele>338.0</ele></trkpt>
    <trkpt lat="49.3049390" lon="6.3751760"><ele>337.5</ele></trkpt>
    <trkpt lat="49.3051050" lon="6.3748870"><ele>334.8</ele></trkpt>
    <trkpt lat="49.3051520" lon="6.3748200"><ele>333.5</ele></trkpt>
    <trkpt lat="49.3052160" lon="6.3747870"><ele>332.5</ele></trkpt>
    <trkpt lat="49.3052440" lon="6.3747350"><ele>331.5</ele></trkpt>
    <trkpt lat="49.3052470" lon="6.3745580"><ele>328.2</ele></trkpt>
    <trkpt lat="49.3052710" lon="6.3744840"><ele>326.8</ele></trkpt>
    <trkpt lat="49.3054180" lon="6.3741500"><ele>318.0</ele></trkpt>
    <trkpt lat="49.3055160" lon="6.3739840"><ele>313.8</ele></trkpt>
    <trkpt lat="49.3057240" lon="6.3742280"><ele>315.2</ele></trkpt>
    <trkpt lat="49.3058640" lon="6.3743400"><ele>316.0</ele></trkpt>
    <trkpt lat="49.3060200" lon="6.3743960"><ele>316.2</ele></trkpt>
    <trkpt lat="49.3061990" lon="6.3744030"><ele>316.2</ele></trkpt>
    <trkpt lat="49.3063350" lon="6.3743700"><ele>315.8</ele></trkpt>
    <trkpt lat="49.3064640" lon="6.3742940"><ele>315.2</ele></trkpt>
    <trkpt lat="49.3065760" lon="6.3741570"><ele>314.8</ele></trkpt>
    <trkpt lat="49.3066830" lon="6.3739710"><ele>315.2</ele></trkpt>
    <trkpt lat="49.3067500" lon="6.3737910"><ele>315.0</ele></trkpt>
    <trkpt lat="49.3073140" lon="6.3714910"><ele>312.2</ele></trkpt>
    <trkpt lat="49.3074410" lon="6.3711020"><ele>310.8</ele></trkpt>
    <trkpt lat="49.3076140" lon="6.3707590"><ele>309.0</ele></trkpt>
    <trkpt lat="49.3078740" lon="6.3704730"><ele>306.2</ele></trkpt>
    <trkpt lat="49.3080840" lon="6.3702920"><ele>303.8</ele></trkpt>
    <trkpt lat="49.3082990" lon="6.3701580"><ele>301.8</ele></trkpt>
    <trkpt lat="49.3087530" lon="6.3683050"><ele>292.8</ele></trkpt>
    <trkpt lat="49.3090200" lon="6.3673030"><ele>288.2</ele></trkpt>
    <trkpt lat="49.3095370" lon="6.3651770"><ele>279.2</ele></trkpt>
    <trkpt lat="49.3105760" lon="6.3609670"><ele>264.2</ele></trkpt>
    <trkpt lat="49.3106490" lon="6.3606190"><ele>263.5</ele></trkpt>
    <trkpt lat="49.3106870" lon="6.3602660"><ele>262.8</ele></trkpt>
    <trkpt lat="49.3107880" lon="6.3588430"><ele>258.8</ele></trkpt>
    <trkpt lat="49.3108020" lon="6.3584720"><ele>258.2</ele></trkpt>
    <trkpt lat="49.3108520" lon="6.3579340"><ele>257.5</ele></trkpt>
    <trkpt lat="49.3111510" lon="6.3537840"><ele>245.5</ele></trkpt>
    <trkpt lat="49.3111310" lon="6.3523070"><ele>240.2</ele></trkpt>
    <trkpt lat="49.3111010" lon="6.3488190"><ele>229.8</ele></trkpt>
    <trkpt lat="49.3110910" lon="6.3472780"><ele>224.0</ele></trkpt>
    <trkpt lat="49.3104160" lon="6.3470510"><ele>219.8</ele></trkpt>
    <trkpt lat="49.3103310" lon="6.3469960"><ele>218.8</ele></trkpt>
    <trkpt lat="49.3103350" lon="6.3468410"><ele>217.2</ele></trkpt>
    <trkpt lat="49.3104100" lon="6.3462710"><ele>213.8</ele></trkpt>
    <trkpt lat="49.3105700" lon="6.3454180"><ele>211.0</ele></trkpt>
    <trkpt lat="49.3106730" lon="6.3444280"><ele>207.2</ele></trkpt>
    <trkpt lat="49.3106330" lon="6.3443810"><ele>206.2</ele></trkpt>
    <trkpt lat="49.3105030" lon="6.3440020"><ele>200.5</ele></trkpt>
    <trkpt lat="49.3103980" lon="6.3433900"><ele>196.2</ele></trkpt>
    <trkpt lat="49.3103990" lon="6.3433050"><ele>196.2</ele></trkpt>
    <trkpt lat="49.3103320" lon="6.3425930"><ele>194.5</ele></trkpt>
    <trkpt lat="49.3101740" lon="6.3417720"><ele>191.5</ele></trkpt>
    <trkpt lat="49.3101450" lon="6.3416720"><ele>191.0</ele></trkpt>
    <trkpt lat="49.3100890" lon="6.3415470"><ele>190.2</ele></trkpt>
    <trkpt lat="49.3100410" lon="6.3413840"><ele>189.5</ele></trkpt>
    <trkpt lat="49.3099860" lon="6.3411000"><ele>188.8</ele></trkpt>
    <trkpt lat="49.3099380" lon="6.3407540"><ele>188.5</ele></trkpt>
    <trkpt lat="49.3099140" lon="6.3405190"><ele>189.0</ele></trkpt>
    <trkpt lat="49.3098980" lon="6.3400990"><ele>188.5</ele></trkpt>
    <trkpt lat="49.3098900" lon="6.3400250"><ele>188.2</ele></trkpt>
    <trkpt lat="49.3098320" lon="6.3398400"><ele>186.8</ele></trkpt>
    <trkpt lat="49.3097780" lon="6.3397470"><ele>185.2</ele></trkpt>
    <trkpt lat="49.3096700" lon="6.3396570"><ele>183.8</ele></trkpt>
    <trkpt lat="49.3095800" lon="6.3396450"><ele>183.8</ele></trkpt>
    <trkpt lat="49.3095090" lon="6.3396150"><ele>183.5</ele></trkpt>
    <trkpt lat="49.3094070" lon="6.3395270"><ele>183.2</ele></trkpt>
    <trkpt lat="49.3094090" lon="6.3396160"><ele>183.5</ele></trkpt>
    <trkpt lat="49.3094580" lon="6.3398290"><ele>184.8</ele></trkpt>
    <trkpt lat="49.3094590" lon="6.3399630"><ele>185.5</ele></trkpt>
    <trkpt lat="49.3094510" lon="6.3401820"><ele>186.5</ele></trkpt>
    <trkpt lat="49.3094570" lon="6.3402340"><ele>186.8</ele></trkpt>
    <trkpt lat="49.3095520" lon="6.3404590"><ele>186.2</ele></trkpt>
  </trkseg></trk>
</gpx>