<?xml version="1.0" encoding="UTF-8"?>
<kml xmlns="http://www.opengis.net/kml/2.2"><Document>
  <name>Chambiere et le plan d'eau</name><description>4.5 km. D+ 19 m. 34 % de chemins. La meme eau par l'autre bout : on longe la rive ouest du plan d'eau, on passe sur la rive nord -- celle que personne ne prend -- et on rentre par l'abbaye Saint-Vincent et l'ile.</description>
  <Style id="depart"><IconStyle><scale>1.2</scale><Icon><href>http://maps.google.com/mapfiles/kml/paddle/grn-circle.png</href></Icon></IconStyle></Style>
  <Style id="etape"><IconStyle><Icon><href>http://maps.google.com/mapfiles/kml/paddle/wht-blank.png</href></Icon></IconStyle></Style>
    <Placemark><name>Depart : Rue des Parmentiers, Metz</name><description>Depart des deux boucles vers Borny, dans la Nouvelle Ville. A dix minutes a pied de la gare, dont il partage les commodites.</description><styleUrl>#depart</styleUrl><Point><coordinates>6.1768700,49.1153870,0</coordinates></Point></Placemark>
    <Placemark><name>1. Jardin de l'Esplanade</name><description>Terrasse au-dessus de la Moselle, vue sur le Mont Saint-Quentin.</description><styleUrl>#etape</styleUrl><Point><coordinates>6.1705190,49.1159680,0</coordinates></Point></Placemark>
    <Placemark><name>2. Parc du Lac aux Cygnes</name><description>Rive du plan d'eau sous l'Esplanade, cygnes et saules.</description><styleUrl>#etape</styleUrl><Point><coordinates>6.1673270,49.1161600,0</coordinates></Point></Placemark>
    <Placemark><name>3. Base de loisirs de l'Esplanade</name><description>Rive ouest du plan d'eau, face au Saulcy. Buvette l'ete.</description><styleUrl>#etape</styleUrl><Point><coordinates>6.1631070,49.1158530,0</coordinates></Point></Placemark>
    <Placemark><name>4. Plan d'eau, rive nord</name><description>La rive d'en face, celle que personne ne prend. Plus calme, plus ombragee.</description><styleUrl>#etape</styleUrl><Point><coordinates>6.1644000,49.1192000,0</coordinates></Point></Placemark>
    <Placemark><name>5. Abbaye Saint-Vincent</name><description>Ancienne abbaye du quartier Chambiere, facade classique.</description><styleUrl>#etape</styleUrl><Point><coordinates>6.1724500,49.1231340,0</coordinates></Point></Placemark>
    <Placemark><name>6. Temple Neuf et le Moyen Pont</name><description>Pointe de l'ile du Petit-Saulcy, entre les deux bras de la Moselle ; la vue sur la cathedrale et le plan d'eau.</description><styleUrl>#etape</styleUrl><Point><coordinates>6.1703820,49.1197430,0</coordinates></Point></Placemark>
    <Style id="t1"><LineStyle><color>ff2E7A8C</color><width>4</width></LineStyle></Style>
    <Placemark><name>Chambiere et le plan d'eau</name><description>4.5 km. D+ 19 m. 34 % de chemins. La meme eau par l'autre bout : on longe la rive ouest du plan d'eau, on passe sur la rive nord -- celle que personne ne prend -- et on rentre par l'abbaye Saint-Vincent et l'ile.</description><styleUrl>#t1</styleUrl><LineString><tessellate>1</tessellate><coordinates>6.1768670,49.1153870,174 6.1766270,49.1151930,174 6.1763740,49.1150400,174 6.1761790,49.1149300,174 6.1761630,49.1149200,174 6.1759210,49.1147900,174 6.1758600,49.1148100,174 6.1757900,49.1148400,174 6.1756540,49.1148970,174 6.1753530,49.1150280,175 6.1752220,49.1150830,175 6.1750010,49.1151570,175 6.1748990,49.1151860,175 6.1745290,49.1153320,176 6.1741900,49.1154570,177 6.1740920,49.1154990,177 6.1740250,49.1155380,177 6.1740090,49.1155540,177 6.1740510,49.1156050,177 6.1738750,49.1157030,177 6.1731540,49.1160400,178 6.1728450,49.1161960,179 6.1727720,49.1162270,179 6.1724170,49.1163850,180 6.1718220,49.1166550,182 6.1713770,49.1168540,184 6.1713610,49.1168380,184 6.1713030,49.1168550,184 6.1712460,49.1168730,184 6.1711830,49.1168310,184 6.1710660,49.1166490,184 6.1708900,49.1164880,183 6.1706320,49.1162500,182 6.1705340,49.1161620,181 6.1705010,49.1161330,181 6.1705480,49.1161050,181 6.1705790,49.1160690,181 6.1705890,49.1160280,181 6.1705780,49.1159870,181 6.1705520,49.1159550,181 6.1705780,49.1159870,181 6.1705890,49.1160280,181 6.1705790,49.1160690,181 6.1705480,49.1161050,181 6.1705010,49.1161330,181 6.1705340,49.1161620,181 6.1706320,49.1162500,182 6.1701230,49.1164970,182 6.1695730,49.1167630,180 6.1694930,49.1168050,179 6.1693770,49.1168320,178 6.1693100,49.1168390,178 6.1690950,49.1168510,177 6.1688200,49.1167950,176 6.1687900,49.1168000,176 6.1687060,49.1168130,176 6.1686460,49.1168250,176 6.1685320,49.1168470,174 6.1684590,49.1168590,172 6.1683910,49.1168710,172 6.1682370,49.1168760,170 6.1680530,49.1168490,168 6.1679080,49.1167840,168 6.1677890,49.1166960,168 6.1677680,49.1166360,169 6.1675660,49.1165940,167 6.1674750,49.1166120,167 6.1670360,49.1161370,167 6.1671560,49.1160810,167 6.1671560,49.1160810,167 6.1670360,49.1161370,167 6.1664490,49.1155630,169 6.1664240,49.1155160,169 6.1662560,49.1154800,168 6.1661920,49.1154710,168 6.1653460,49.1155090,169 6.1652720,49.1155290,170 6.1652540,49.1154730,169 6.1652340,49.1153570,168 6.1652400,49.1152870,168 6.1653050,49.1150160,167 6.1650560,49.1150270,167 6.1649000,49.1149870,167 6.1647060,49.1149550,167 6.1643200,49.1149230,166 6.1642460,49.1149240,166 6.1635940,49.1150220,167 6.1632470,49.1150950,166 6.1627130,49.1152430,167 6.1625090,49.1153000,167 6.1623900,49.1153470,167 6.1623260,49.1153920,167 6.1622690,49.1154420,167 6.1621180,49.1156350,167 6.1618060,49.1163920,166 6.1617400,49.1165810,166 6.1616910,49.1167750,167 6.1616350,49.1174180,167 6.1615620,49.1176880,167 6.1615020,49.1179060,167 6.1614810,49.1179410,167 6.1613890,49.1179230,167 6.1612090,49.1179160,168 6.1610430,49.1179340,169 6.1608600,49.1179710,170 6.1608170,49.1180300,170 6.1607770,49.1181150,170 6.1607230,49.1182470,169 6.1606150,49.1188230,168 6.1605840,49.1190320,170 6.1605930,49.1190810,170 6.1606310,49.1191400,170 6.1607810,49.1191340,169 6.1608230,49.1191170,168 6.1609380,49.1190470,168 6.1609690,49.1190410,168 6.1610100,49.1190440,168 6.1610450,49.1189770,167 6.1610680,49.1189570,167 6.1611070,49.1189390,167 6.1611940,49.1189280,167 6.1613950,49.1189550,167 6.1624670,49.1191160,168 6.1625920,49.1190530,167 6.1631040,49.1189930,167 6.1635500,49.1189190,168 6.1637780,49.1189440,168 6.1637660,49.1189860,168 6.1637750,49.1190280,168 6.1638050,49.1190650,168 6.1638480,49.1190920,168 6.1639010,49.1191100,168 6.1639590,49.1191160,168 6.1640260,49.1191090,168 6.1640850,49.1190880,168 6.1641290,49.1190540,168 6.1642640,49.1191050,168 6.1643560,49.1192150,167 6.1643810,49.1192440,167 6.1644250,49.1192800,167 6.1646560,49.1193910,168 6.1647590,49.1193620,168 6.1649810,49.1192020,168 6.1650140,49.1191850,168 6.1652090,49.1194670,167 6.1652910,49.1195430,167 6.1655610,49.1196890,167 6.1655550,49.1196610,167 6.1655700,49.1196350,167 6.1656200,49.1195860,167 6.1658660,49.1194760,167 6.1659040,49.1194970,167 6.1662320,49.1196810,168 6.1665620,49.1198630,168 6.1666300,49.1198260,168 6.1667070,49.1198940,168 6.1668450,49.1200160,168 6.1669530,49.1199650,168 6.1670250,49.1199400,168 6.1671220,49.1199400,168 6.1672160,49.1199490,168 6.1673200,49.1199740,168 6.1673880,49.1200110,167 6.1674380,49.1199850,167 6.1675010,49.1200240,167 6.1680210,49.1203080,166 6.1680550,49.1203120,166 6.1680840,49.1203160,166 6.1681070,49.1203080,166 6.1681300,49.1202660,166 6.1682020,49.1202850,168 6.1682660,49.1202930,168 6.1683480,49.1203120,169 6.1683220,49.1203500,168 6.1683150,49.1203940,168 6.1688400,49.1206710,169 6.1689150,49.1207570,169 6.1689680,49.1207900,169 6.1692310,49.1206230,169 6.1692460,49.1206140,169 6.1692690,49.1205970,169 6.1695720,49.1208210,170 6.1699530,49.1211240,169 6.1704470,49.1215160,168 6.1704760,49.1215390,168 6.1704960,49.1215540,168 6.1705460,49.1215910,168 6.1706440,49.1216700,168 6.1709330,49.1219070,169 6.1712610,49.1221840,168 6.1716870,49.1226100,168 6.1717340,49.1226100,168 6.1717850,49.1226660,168 6.1718140,49.1227820,168 6.1721070,49.1232410,168 6.1721210,49.1232560,168 6.1721070,49.1232410,168 6.1718140,49.1227820,168 6.1717850,49.1226660,168 6.1717340,49.1226100,168 6.1717230,49.1225890,168 6.1713550,49.1222140,168 6.1712420,49.1221070,168 6.1710130,49.1219280,169 6.1709690,49.1218840,168 6.1706750,49.1216520,168 6.1705800,49.1215740,168 6.1705670,49.1215610,168 6.1705690,49.1215480,168 6.1705880,49.1215290,168 6.1705610,49.1215130,168 6.1705490,49.1215030,168 6.1708320,49.1213300,167 6.1707930,49.1212700,167 6.1708310,49.1212570,167 6.1700220,49.1200330,169 6.1699880,49.1200060,169 6.1700170,49.1199820,169 6.1700790,49.1199310,169 6.1701490,49.1199050,169 6.1702460,49.1198490,169 6.1702950,49.1198160,169 6.1703950,49.1197510,168 6.1709210,49.1194160,168 6.1709920,49.1193840,170 6.1710220,49.1193900,170 6.1710740,49.1193520,171 6.1711350,49.1193190,171 6.1714050,49.1195320,169 6.1714690,49.1195690,169 6.1715220,49.1195940,169 6.1716300,49.1195680,170 6.1718770,49.1195100,172 6.1719990,49.1194610,173 6.1725390,49.1193330,175 6.1729180,49.1192400,177 6.1733120,49.1191420,177 6.1735250,49.1190890,178 6.1739480,49.1188890,179 6.1740430,49.1188490,180 6.1745370,49.1186870,181 6.1750450,49.1184970,180 6.1750080,49.1184610,180 6.1750530,49.1184390,180 6.1760070,49.1178570,178 6.1761170,49.1177820,178 6.1762120,49.1177270,178 6.1769650,49.1174010,176 6.1772570,49.1172750,175 6.1780060,49.1169400,173 6.1780100,49.1169380,173 6.1780910,49.1168970,173 6.1779150,49.1166880,174 6.1776850,49.1164140,174 6.1776540,49.1163770,174 6.1776130,49.1163200,174 6.1775060,49.1161750,174 6.1774070,49.1160140,174 6.1772820,49.1158090,174 6.1770330,49.1155220,175 6.1768670,49.1153870,174</coordinates></LineString></Placemark>
</Document></kml>