<?xml version="1.0" encoding="UTF-8"?>
<kml xmlns="http://www.opengis.net/kml/2.2"><Document>
  <name>Le versant de Plappeville</name><description>15.8 km. D+ 160 m. 33 % de chemins. La plus longue, et la seule qui monte vraiment : on gagne la cote par le Ban-Saint-Martin, on traverse le village vigneron de Plappeville et les vergers de Lorry, on redescend plein est.</description>
  <Style id="depart"><IconStyle><scale>1.2</scale><Icon><href>http://maps.google.com/mapfiles/kml/paddle/grn-circle.png</href></Icon></IconStyle></Style>
  <Style id="etape"><IconStyle><Icon><href>http://maps.google.com/mapfiles/kml/paddle/wht-blank.png</href></Icon></IconStyle></Style>
    <Placemark><name>Depart : Gare de Metz, parvis</name><description>Point de ralliement des boucles a pied : a moins d'un quart d'heure de marche pour tout le monde. Abrite, cafe ouvert tot, toilettes.</description><styleUrl>#depart</styleUrl><Point><coordinates>6.1770130,49.1092770,0</coordinates></Point></Placemark>
    <Placemark><name>1. Ile du Saulcy</name><description>Ile universitaire, tres calme hors semestre. Cygnes sur les deux bras.</description><styleUrl>#etape</styleUrl><Point><coordinates>6.1612490,49.1201090,0</coordinates></Point></Placemark>
    <Placemark><name>2. Le Grand Patural, Ban-Saint-Martin</name><description>Prairie et promenade au bord de la Moselle, juste avant de quitter la ville.</description><styleUrl>#etape</styleUrl><Point><coordinates>6.1510520,49.1179290,0</coordinates></Point></Placemark>
    <Placemark><name>3. Plappeville</name><description>Village vigneron du versant nord, ruelles et maisons de maitre.</description><styleUrl>#etape</styleUrl><Point><coordinates>6.1250130,49.1310140,0</coordinates></Point></Placemark>
    <Placemark><name>4. Lorry-les-Metz</name><description>Vergers et vignes en terrasse sur le versant nord de la cote.</description><styleUrl>#etape</styleUrl><Point><coordinates>6.1204400,49.1431090,0</coordinates></Point></Placemark>
    <Style id="t1"><LineStyle><color>ffB8862A</color><width>4</width></LineStyle></Style>
    <Placemark><name>Le versant de Plappeville</name><description>15.8 km. D+ 160 m. 33 % de chemins. La plus longue, et la seule qui monte vraiment : on gagne la cote par le Ban-Saint-Martin, on traverse le village vigneron de Plappeville et les vergers de Lorry, on redescend plein est.</description><styleUrl>#t1</styleUrl><LineString><tessellate>1</tessellate><coordinates>6.1769770,49.1093080,180 6.1771540,49.1093930,180 6.1771030,49.1094370,180 6.1771660,49.1094690,180 6.1772910,49.1095290,180 6.1773130,49.1095400,180 6.1773630,49.1095730,180 6.1773040,49.1096300,180 6.1771340,49.1097880,178 6.1770370,49.1098720,176 6.1770060,49.1099000,176 6.1770100,49.1099770,174 6.1769620,49.1100150,174 6.1767800,49.1101280,174 6.1767370,49.1101660,174 6.1766610,49.1102330,174 6.1766380,49.1102540,174 6.1763430,49.1101110,174 6.1762210,49.1101340,174 6.1761480,49.1101510,174 6.1760570,49.1101740,173 6.1756080,49.1102890,175 6.1755100,49.1103310,175 6.1752170,49.1104100,175 6.1750820,49.1104420,175 6.1750140,49.1104600,176 6.1749460,49.1104780,176 6.1749140,49.1104870,176 6.1738700,49.1107470,177 6.1738450,49.1107360,177 6.1738390,49.1107390,177 6.1737380,49.1108010,177 6.1729270,49.1113020,178 6.1729140,49.1113580,178 6.1728350,49.1113440,178 6.1728050,49.1113370,178 6.1727580,49.1113240,178 6.1727510,49.1112700,178 6.1727480,49.1112480,178 6.1723720,49.1112740,179 6.1722350,49.1112980,179 6.1722030,49.1113100,179 6.1721800,49.1112950,179 6.1721500,49.1113190,179 6.1720930,49.1113670,179 6.1720610,49.1113690,179 6.1720270,49.1113700,179 6.1719530,49.1113730,179 6.1719720,49.1115460,179 6.1719490,49.1115600,179 6.1710940,49.1116280,179 6.1710750,49.1116110,179 6.1710470,49.1116140,179 6.1710020,49.1116170,179 6.1710180,49.1117230,179 6.1710290,49.1118580,179 6.1710320,49.1119430,179 6.1709870,49.1119440,179 6.1709760,49.1119450,179 6.1709070,49.1119560,179 6.1706070,49.1120040,180 6.1703150,49.1120650,181 6.1702180,49.1121000,181 6.1701250,49.1121370,181 6.1700120,49.1121950,181 6.1696870,49.1123020,182 6.1694410,49.1123750,182 6.1692030,49.1124120,182 6.1689670,49.1124790,184 6.1688950,49.1125120,184 6.1689380,49.1125620,184 6.1688840,49.1125860,184 6.1688520,49.1126130,184 6.1688300,49.1126470,184 6.1688090,49.1127010,184 6.1687430,49.1126840,184 6.1686700,49.1126830,183 6.1681500,49.1127260,182 6.1669680,49.1128410,180 6.1668320,49.1128660,180 6.1667990,49.1129140,180 6.1667210,49.1129010,180 6.1666430,49.1128740,179 6.1665750,49.1128600,179 6.1664830,49.1128590,178 6.1664160,49.1128680,177 6.1662200,49.1128970,177 6.1661080,49.1129160,176 6.1658190,49.1129790,176 6.1654700,49.1130740,176 6.1652150,49.1131510,175 6.1648150,49.1132900,174 6.1646140,49.1133670,174 6.1645610,49.1134630,172 6.1644770,49.1135680,170 6.1644660,49.1137030,169 6.1642510,49.1137650,170 6.1636770,49.1140010,171 6.1632540,49.1142180,170 6.1631360,49.1142690,170 6.1630530,49.1143250,170 6.1629320,49.1144240,170 6.1623960,49.1147690,168 6.1621870,49.1149800,168 6.1619170,49.1151560,168 6.1617530,49.1153210,168 6.1616400,49.1154170,168 6.1615930,49.1155050,168 6.1615250,49.1155970,168 6.1614550,49.1156280,168 6.1614050,49.1156880,168 6.1612140,49.1161650,171 6.1609480,49.1173390,172 6.1608920,49.1176310,171 6.1608600,49.1179710,170 6.1608170,49.1180300,170 6.1607770,49.1181150,170 6.1607230,49.1182470,169 6.1606150,49.1188230,168 6.1605840,49.1190320,170 6.1605930,49.1190810,170 6.1606310,49.1191400,170 6.1606800,49.1191870,170 6.1607540,49.1192360,169 6.1608110,49.1193110,168 6.1608360,49.1193830,168 6.1608890,49.1194370,168 6.1608800,49.1194620,168 6.1608030,49.1196830,167 6.1609040,49.1197000,167 6.1611120,49.1197950,168 6.1612430,49.1201090,167 6.1611120,49.1197950,168 6.1609040,49.1197000,167 6.1608030,49.1196830,167 6.1608800,49.1194620,168 6.1608890,49.1194370,168 6.1608360,49.1193830,168 6.1608110,49.1193110,168 6.1607540,49.1192360,169 6.1606800,49.1191870,170 6.1606310,49.1191400,170 6.1605930,49.1190810,170 6.1605840,49.1190320,170 6.1606150,49.1188230,168 6.1607230,49.1182470,169 6.1607770,49.1181150,170 6.1608430,49.1182340,168 6.1607530,49.1183730,168 6.1604360,49.1183120,168 6.1601360,49.1182310,168 6.1600500,49.1182070,168 6.1599080,49.1181380,168 6.1593070,49.1178830,168 6.1591480,49.1178280,168 6.1589450,49.1177680,168 6.1583190,49.1176420,167 6.1579790,49.1175980,167 6.1576990,49.1176110,167 6.1572550,49.1176590,168 6.1566650,49.1177530,167 6.1562680,49.1178020,166 6.1562090,49.1177910,166 6.1561370,49.1177690,166 6.1560450,49.1177550,166 6.1557120,49.1177760,166 6.1556250,49.1177890,166 6.1553810,49.1177960,166 6.1551300,49.1177960,167 6.1550950,49.1178060,167 6.1548610,49.1177000,167 6.1547520,49.1176760,167 6.1545830,49.1176610,167 6.1544150,49.1176580,167 6.1543170,49.1176720,167 6.1541800,49.1177120,167 6.1535600,49.1177530,167 6.1529020,49.1178190,168 6.1526330,49.1178560,168 6.1522690,49.1178930,168 6.1519000,49.1179380,167 6.1516560,49.1179630,167 6.1512970,49.1179490,167 6.1511750,49.1179340,167 6.1510580,49.1179120,168 6.1510240,49.1179060,168 6.1508730,49.1178670,168 6.1507730,49.1178580,168 6.1506800,49.1178310,167 6.1505670,49.1177820,167 6.1503840,49.1176770,167 6.1503190,49.1176640,167 6.1502590,49.1176520,167 6.1500910,49.1177250,167 6.1500440,49.1177570,167 6.1499250,49.1178880,167 6.1498900,49.1179120,167 6.1498450,49.1179350,167 6.1495810,49.1180280,167 6.1495170,49.1180780,167 6.1491490,49.1180160,167 6.1490270,49.1179940,167 6.1484560,49.1179090,167 6.1487780,49.1172930,168 6.1487030,49.1172540,168 6.1486820,49.1172340,168 6.1486250,49.1171800,169 6.1486020,49.1171590,169 6.1485420,49.1171040,170 6.1484950,49.1170450,170 6.1484550,49.1169890,170 6.1483300,49.1170370,170 6.1483140,49.1170200,170 6.1475900,49.1172900,169 6.1445040,49.1184410,170 6.1445270,49.1184640,170 6.1440720,49.1186270,170 6.1440430,49.1186560,170 6.1439190,49.1187220,170 6.1438610,49.1187730,170 6.1439520,49.1187550,170 6.1441590,49.1186940,170 6.1441320,49.1187170,170 6.1442280,49.1188060,170 6.1440900,49.1188750,170 6.1441470,49.1189320,169 6.1445410,49.1192320,168 6.1448060,49.1194080,168 6.1451050,49.1195620,168 6.1455630,49.1197920,167 6.1460820,49.1199980,167 6.1466610,49.1201930,168 6.1469770,49.1202870,167 6.1468930,49.1203170,167 6.1467750,49.1203650,167 6.1466350,49.1204160,167 6.1465990,49.1204360,167 6.1462380,49.1206380,167 6.1461950,49.1206620,167 6.1460390,49.1207490,167 6.1458470,49.1208560,167 6.1456130,49.1209870,167 6.1449850,49.1213390,167 6.1448620,49.1214120,167 6.1449080,49.1214330,167 6.1449530,49.1214590,167 6.1453260,49.1217100,167 6.1455810,49.1218940,167 6.1456170,49.1219390,167 6.1455680,49.1219520,167 6.1453480,49.1220520,167 6.1444690,49.1224760,168 6.1444120,49.1225350,168 6.1443740,49.1225060,168 6.1443550,49.1224910,168 6.1441350,49.1223450,168 6.1440790,49.1223270,168 6.1440110,49.1223270,168 6.1435500,49.1224580,169 6.1426690,49.1227070,172 6.1426130,49.1227150,173 6.1424800,49.1227430,174 6.1423330,49.1227870,174 6.1419530,49.1229120,177 6.1416940,49.1230500,179 6.1415680,49.1231370,180 6.1415570,49.1231830,181 6.1415710,49.1232290,181 6.1417480,49.1234940,183 6.1417820,49.1235650,184 6.1417680,49.1236190,184 6.1413690,49.1239220,188 6.1413520,49.1240380,189 6.1412450,49.1241020,190 6.1411450,49.1241820,191 6.1411080,49.1242040,191 6.1410290,49.1242520,192 6.1403910,49.1246250,196 6.1402650,49.1247290,196 6.1401450,49.1248510,197 6.1401420,49.1249090,197 6.1402280,49.1249600,196 6.1399600,49.1251700,198 6.1398160,49.1252560,198 6.1391710,49.1256060,200 6.1391010,49.1255940,200 6.1385980,49.1255280,201 6.1382660,49.1254900,200 6.1380210,49.1254860,201 6.1378350,49.1255080,201 6.1376590,49.1255710,201 6.1374180,49.1257650,202 6.1371510,49.1260770,202 6.1370140,49.1262260,204 6.1368420,49.1263330,204 6.1353860,49.1269840,208 6.1347350,49.1272110,208 6.1343190,49.1273890,208 6.1338200,49.1276320,208 6.1336090,49.1278000,207 6.1335260,49.1278870,206 6.1334370,49.1280220,206 6.1333740,49.1280750,207 6.1332890,49.1281200,207 6.1331950,49.1281550,208 6.1330980,49.1281870,208 6.1329730,49.1282070,209 6.1328330,49.1282120,209 6.1326640,49.1281950,210 6.1325420,49.1281850,212 6.1324320,49.1281900,212 6.1323390,49.1282140,212 6.1317290,49.1284430,214 6.1308460,49.1286990,214 6.1305150,49.1288360,214 6.1304720,49.1288560,214 6.1303720,49.1287830,214 6.1302120,49.1290150,212 6.1299080,49.1289760,212 6.1292820,49.1292900,210 6.1282300,49.1297900,212 6.1281230,49.1298620,212 6.1279110,49.1300210,214 6.1278070,49.1300890,214 6.1276810,49.1301350,214 6.1268210,49.1303250,219 6.1266430,49.1303610,220 6.1265710,49.1303720,221 6.1264960,49.1303880,221 6.1258870,49.1305130,224 6.1258230,49.1305340,225 6.1253570,49.1306810,228 6.1250340,49.1308320,230 6.1247830,49.1309450,231 6.1247980,49.1309890,231 6.1248130,49.1310620,231 6.1248320,49.1312030,232 6.1249100,49.1312060,232 6.1249230,49.1311940,232 6.1249370,49.1312140,232 6.1250240,49.1312220,232 6.1251650,49.1311600,231 6.1250020,49.1310180,230 6.1251650,49.1311600,231 6.1250240,49.1312220,232 6.1249370,49.1312140,232 6.1249230,49.1311940,232 6.1249100,49.1312060,232 6.1248320,49.1312030,232 6.1248630,49.1312910,234 6.1248970,49.1313500,234 6.1250710,49.1315610,236 6.1251610,49.1317040,237 6.1252490,49.1319220,239 6.1253070,49.1320820,240 6.1252540,49.1320930,240 6.1249410,49.1322100,242 6.1248740,49.1322230,243 6.1247600,49.1322270,244 6.1246920,49.1322420,244 6.1233610,49.1328650,254 6.1237130,49.1331940,253 6.1239840,49.1335310,252 6.1240280,49.1335750,252 6.1240450,49.1336230,252 6.1240510,49.1336630,252 6.1240390,49.1336950,252 6.1239830,49.1337740,253 6.1236270,49.1341850,257 6.1235800,49.1342510,257 6.1235840,49.1343100,257 6.1236170,49.1343770,257 6.1238160,49.1346450,255 6.1239970,49.1353460,252 6.1239820,49.1354820,252 6.1238640,49.1357380,252 6.1238370,49.1358410,252 6.1238140,49.1360180,252 6.1238240,49.1363260,252 6.1238160,49.1364350,252 6.1237740,49.1365610,252 6.1235990,49.1369770,253 6.1235760,49.1371010,253 6.1235690,49.1372290,253 6.1236010,49.1373170,252 6.1237000,49.1374410,252 6.1237250,49.1374630,251 6.1238020,49.1375590,250 6.1238400,49.1376650,250 6.1238510,49.1377770,249 6.1238180,49.1383350,244 6.1236380,49.1394630,236 6.1235800,49.1397310,238 6.1234490,49.1401500,240 6.1234120,49.1402800,240 6.1234070,49.1403360,241 6.1234200,49.1403960,242 6.1234570,49.1404550,242 6.1235270,49.1405140,242 6.1237560,49.1406470,242 6.1238610,49.1407090,242 6.1240010,49.1408040,242 6.1240490,49.1408580,242 6.1240680,49.1409620,242 6.1240380,49.1410190,242 6.1239880,49.1410680,242 6.1239200,49.1411240,242 6.1237800,49.1412390,242 6.1237180,49.1412920,243 6.1236430,49.1413510,243 6.1234960,49.1414890,243 6.1229910,49.1420020,244 6.1229690,49.1420200,244 6.1228940,49.1421550,243 6.1224670,49.1425490,240 6.1224400,49.1426000,240 6.1224230,49.1426360,240 6.1222180,49.1425940,240 6.1220910,49.1425670,241 6.1220690,49.1426030,240 6.1218140,49.1430520,239 6.1215600,49.1434780,235 6.1214680,49.1436170,234 6.1213400,49.1438130,232 6.1211090,49.1441410,228 6.1208420,49.1444370,225 6.1206840,49.1445670,224 6.1205700,49.1446250,223 6.1205040,49.1446130,223 6.1198100,49.1444140,224 6.1204590,49.1436080,234 6.1205350,49.1435430,234 6.1206790,49.1433950,236 6.1205350,49.1435430,234 6.1204590,49.1436080,234 6.1198100,49.1444140,224 6.1205040,49.1446130,223 6.1205700,49.1446250,223 6.1206840,49.1445670,224 6.1208420,49.1444370,225 6.1211090,49.1441410,228 6.1213400,49.1438130,232 6.1214680,49.1436170,234 6.1215600,49.1434780,235 6.1218140,49.1430520,239 6.1220690,49.1426030,240 6.1220910,49.1425670,241 6.1222180,49.1425940,240 6.1224230,49.1426360,240 6.1224400,49.1426000,240 6.1224670,49.1425490,240 6.1228940,49.1421550,243 6.1229690,49.1420200,244 6.1229910,49.1420020,244 6.1234960,49.1414890,243 6.1236430,49.1413510,243 6.1237180,49.1412920,243 6.1237800,49.1412390,242 6.1239200,49.1411240,242 6.1239880,49.1410680,242 6.1240380,49.1410190,242 6.1240680,49.1409620,242 6.1240490,49.1408580,242 6.1240010,49.1408040,242 6.1238610,49.1407090,242 6.1237560,49.1406470,242 6.1235270,49.1405140,242 6.1234570,49.1404550,242 6.1234200,49.1403960,242 6.1234070,49.1403360,241 6.1234120,49.1402800,240 6.1234490,49.1401500,240 6.1235800,49.1397310,238 6.1236380,49.1394630,236 6.1238180,49.1383350,244 6.1244490,49.1384410,243 6.1249080,49.1384720,242 6.1253110,49.1383460,242 6.1253620,49.1383490,242 6.1270220,49.1384550,236 6.1280370,49.1385330,233 6.1291560,49.1386620,229 6.1303550,49.1387930,224 6.1316060,49.1390000,219 6.1332010,49.1391530,215 6.1337370,49.1392780,214 6.1339490,49.1393550,212 6.1341620,49.1394000,211 6.1343860,49.1394270,211 6.1351330,49.1387080,215 6.1354120,49.1384530,215 6.1355170,49.1383930,215 6.1360540,49.1378110,210 6.1367930,49.1369090,195 6.1368000,49.1367860,194 6.1367800,49.1367520,193 6.1368710,49.1367200,192 6.1371860,49.1364110,188 6.1373200,49.1363140,187 6.1374770,49.1362520,186 6.1376200,49.1362250,186 6.1377520,49.1362170,186 6.1378160,49.1361340,186 6.1380250,49.1359560,186 6.1384790,49.1351890,198 6.1400820,49.1356130,196 6.1401070,49.1355890,197 6.1401230,49.1355700,197 6.1406290,49.1351530,203 6.1414580,49.1345760,212 6.1418020,49.1343260,214 6.1419440,49.1342060,215 6.1421010,49.1340390,214 6.1421580,49.1339580,215 6.1421840,49.1339200,215 6.1424420,49.1335410,214 6.1426030,49.1332890,212 6.1427030,49.1330970,212 6.1427450,49.1329100,212 6.1430130,49.1328130,210 6.1432950,49.1332270,210 6.1432590,49.1333660,210 6.1432840,49.1334330,210 6.1433960,49.1335520,210 6.1435170,49.1336450,209 6.1438280,49.1338020,207 6.1440080,49.1338650,205 6.1444880,49.1337820,195 6.1446140,49.1337450,193 6.1448480,49.1337130,190 6.1452130,49.1336090,185 6.1452790,49.1336790,184 6.1453680,49.1337980,185 6.1454920,49.1339190,184 6.1459540,49.1335970,179 6.1460480,49.1335490,178 6.1463820,49.1334650,175 6.1465350,49.1334170,173 6.1468840,49.1332080,168 6.1469900,49.1331520,168 6.1469830,49.1331250,168 6.1472240,49.1330520,167 6.1472670,49.1330370,167 6.1473100,49.1330220,167 6.1480330,49.1327620,167 6.1483570,49.1326610,167 6.1485290,49.1326110,167 6.1489000,49.1325580,167 6.1490050,49.1325470,167 6.1495000,49.1324990,167 6.1498380,49.1324690,167 6.1499040,49.1324600,167 6.1499500,49.1324440,167 6.1499970,49.1324270,167 6.1500690,49.1323870,167 6.1506360,49.1321030,167 6.1512970,49.1317640,167 6.1514370,49.1316840,167 6.1515530,49.1316070,167 6.1517640,49.1314140,167 6.1517730,49.1314070,167 6.1519160,49.1312740,167 6.1519920,49.1311710,167 6.1520390,49.1311080,167 6.1520940,49.1310310,167 6.1521700,49.1309240,167 6.1522570,49.1308010,167 6.1523780,49.1306880,167 6.1524730,49.1306150,167 6.1525930,49.1305390,167 6.1528970,49.1303930,167 6.1534770,49.1301160,167 6.1539360,49.1298810,166 6.1539970,49.1298610,166 6.1540550,49.1298570,166 6.1547920,49.1297960,166 6.1549180,49.1297700,167 6.1550190,49.1297500,167 6.1553910,49.1296280,166 6.1554510,49.1296030,166 6.1555500,49.1295630,166 6.1556330,49.1295090,166 6.1556860,49.1294750,166 6.1559820,49.1291970,166 6.1562460,49.1289310,166 6.1564860,49.1287060,166 6.1565190,49.1286810,166 6.1568370,49.1284360,166 6.1571090,49.1282330,166 6.1571440,49.1282090,166 6.1572070,49.1281650,166 6.1572790,49.1281120,166 6.1575980,49.1278770,166 6.1579250,49.1276370,166 6.1580200,49.1275610,166 6.1580470,49.1275400,166 6.1581590,49.1274520,166 6.1581720,49.1274420,166 6.1582460,49.1273830,166 6.1582540,49.1273770,166 6.1587170,49.1270200,166 6.1589120,49.1268700,166 6.1589640,49.1268730,166 6.1590740,49.1268810,166 6.1591020,49.1268600,166 6.1592030,49.1268900,166 6.1592810,49.1268900,168 6.1592520,49.1268380,168 6.1594580,49.1267810,172 6.1595000,49.1268590,171 6.1596200,49.1268330,171 6.1595960,49.1267680,172 6.1596330,49.1267440,172 6.1596720,49.1267100,171 6.1598260,49.1267450,170 6.1598590,49.1267440,170 6.1618690,49.1264950,172 6.1619530,49.1264760,172 6.1620720,49.1264500,172 6.1621770,49.1263950,172 6.1622400,49.1263880,172 6.1623680,49.1263680,172 6.1624740,49.1263380,171 6.1625520,49.1263090,170 6.1626120,49.1263210,171 6.1626670,49.1263230,171 6.1627900,49.1262930,170 6.1628750,49.1262500,170 6.1637010,49.1257430,169 6.1637690,49.1256880,170 6.1638500,49.1256130,171 6.1639310,49.1255050,170 6.1642510,49.1250330,168 6.1642930,49.1249740,168 6.1643060,49.1249280,168 6.1643350,49.1248900,168 6.1643630,49.1248560,167 6.1643940,49.1248380,167 6.1650100,49.1239520,167 6.1651560,49.1237560,167 6.1651640,49.1237360,167 6.1651750,49.1236990,167 6.1651960,49.1236700,168 6.1652830,49.1235690,167 6.1653070,49.1235300,166 6.1653480,49.1235030,166 6.1654160,49.1234540,164 6.1654260,49.1234450,164 6.1662220,49.1228020,166 6.1672210,49.1219650,168 6.1672560,49.1219100,168 6.1672620,49.1218430,168 6.1672410,49.1217830,169 6.1672990,49.1217780,169 6.1673420,49.1217750,169 6.1673680,49.1217730,169 6.1675070,49.1216290,170 6.1675330,49.1216010,170 6.1675720,49.1215720,170 6.1676180,49.1215390,170 6.1677250,49.1214890,170 6.1683920,49.1210780,169 6.1684240,49.1210500,168 6.1684200,49.1210130,169 6.1683900,49.1209760,169 6.1684710,49.1209480,169 6.1685870,49.1209080,169 6.1686320,49.1208920,169 6.1686520,49.1209170,168 6.1686770,49.1209020,169 6.1689150,49.1207570,169 6.1689680,49.1207900,169 6.1692310,49.1206230,169 6.1692460,49.1206140,169 6.1692690,49.1205970,169 6.1692990,49.1205730,169 6.1699640,49.1200260,169 6.1699880,49.1200060,169 6.1700170,49.1199820,169 6.1700790,49.1199310,169 6.1701490,49.1199050,169 6.1702460,49.1198490,169 6.1702950,49.1198160,169 6.1709210,49.1194160,168 6.1709920,49.1193840,170 6.1710220,49.1193900,170 6.1710740,49.1193520,171 6.1711350,49.1193190,171 6.1710840,49.1192770,171 6.1710960,49.1192690,172 6.1711240,49.1192510,172 6.1713320,49.1191170,171 6.1714560,49.1190370,172 6.1714090,49.1190010,172 6.1711100,49.1188820,172 6.1708060,49.1187000,172 6.1705930,49.1185560,172 6.1701190,49.1181690,176 6.1705540,49.1179200,177 6.1705510,49.1179050,177 6.1706680,49.1178470,179 6.1706520,49.1178330,179 6.1711600,49.1175580,182 6.1716520,49.1173340,183 6.1717860,49.1172640,183 6.1721570,49.1170610,182 6.1724080,49.1169280,181 6.1725780,49.1168340,181 6.1731420,49.1166020,179 6.1730940,49.1165770,179 6.1728320,49.1163050,179 6.1727720,49.1162270,179 6.1728450,49.1161960,179 6.1731540,49.1160400,178 6.1738750,49.1157030,177 6.1740510,49.1156050,177 6.1740090,49.1155540,177 6.1740250,49.1155380,177 6.1740920,49.1154990,177 6.1740160,49.1154230,177 6.1739880,49.1154350,177 6.1739530,49.1154230,177 6.1738790,49.1153770,177 6.1730440,49.1145640,178 6.1729340,49.1145060,178 6.1726340,49.1142050,179 6.1725080,49.1140410,179 6.1724230,49.1139040,179 6.1724540,49.1138870,179 6.1724910,49.1138690,179 6.1725200,49.1138540,179 6.1732810,49.1134630,176 6.1733170,49.1134420,176 6.1733580,49.1134200,176 6.1734400,49.1133710,176 6.1736650,49.1132550,176 6.1738630,49.1131750,176 6.1741470,49.1130430,176 6.1743900,49.1128640,175 6.1749130,49.1124800,175 6.1749870,49.1124260,175 6.1750360,49.1123910,175 6.1751970,49.1122860,175 6.1752280,49.1122640,175 6.1752560,49.1122440,175 6.1753510,49.1121760,175 6.1754290,49.1121200,174 6.1758160,49.1118440,174 6.1759870,49.1117520,174 6.1760390,49.1116940,174 6.1761840,49.1116900,174 6.1761850,49.1116290,174 6.1763990,49.1116130,174 6.1764020,49.1115770,174 6.1763740,49.1115080,174 6.1763780,49.1114630,174 6.1763820,49.1114120,174 6.1763860,49.1113670,174 6.1765350,49.1112590,174 6.1765520,49.1112470,174 6.1765850,49.1112620,174 6.1766220,49.1112360,174 6.1766730,49.1112620,174 6.1767280,49.1112160,174 6.1768730,49.1110950,174 6.1769010,49.1110900,174 6.1769320,49.1109300,174 6.1769420,49.1107760,174 6.1769420,49.1105880,174 6.1769430,49.1105460,174 6.1769460,49.1104880,174 6.1769440,49.1104060,174 6.1766380,49.1102540,174 6.1766610,49.1102330,174 6.1767370,49.1101660,174 6.1767800,49.1101280,174 6.1769620,49.1100150,174 6.1770100,49.1099770,174 6.1770060,49.1099000,176 6.1770370,49.1098720,176 6.1771340,49.1097880,178 6.1773040,49.1096300,180 6.1773630,49.1095730,180 6.1773130,49.1095400,180 6.1772910,49.1095290,180 6.1771660,49.1094690,180 6.1771030,49.1094370,180 6.1771540,49.1093930,180 6.1769770,49.1093080,179</coordinates></LineString></Placemark>
</Document></kml>