<?xml version="1.0" encoding="UTF-8"?>
<kml xmlns="http://www.opengis.net/kml/2.2"><Document>
  <name>Les cotes de Jussy</name><description>7.8 km. D+ 185 m. 42 % de chemins. Depart : Sainte-Ruffine, centre du village (15 min de Metz). Le versant ouest des cotes de Moselle, vignes en bas, hetraie en haut, vue sur la vallee tout du long.</description>
  <Style id="depart"><IconStyle><scale>1.2</scale><Icon><href>
    http://maps.google.com/mapfiles/kml/paddle/grn-circle.png</href></IconStyle></Style>
  <Style id="etape"><IconStyle><Icon><href>
    http://maps.google.com/mapfiles/kml/paddle/wht-blank.png</href></Icon></IconStyle></Style>
    <Placemark><name>Depart : Sainte-Ruffine</name><description>Petit village accroche a la cote, depart des sentiers du versant ouest.</description><styleUrl>#depart</styleUrl><Point><coordinates>6.0963210,49.1057750,0</coordinates></Point></Placemark>
    <Placemark><name>1. Jussy</name><description>Village vigneron, vue sur la vallee depuis les hauts.</description><styleUrl>#etape</styleUrl><Point><coordinates>6.0860600,49.1019750,0</coordinates></Point></Placemark>
    <Placemark><name>2. Vaux</name><description>Fond de vallon boise, source et lavoir.</description><styleUrl>#etape</styleUrl><Point><coordinates>6.0807540,49.0941090,0</coordinates></Point></Placemark>
    <Placemark><name>3. Eglise fortifiee Saint-Quentin, Scy-Chazelles</name><description>Eglise fortifiee du XIIe siecle, tombe de Robert Schuman a l'interieur, sa maison a 200 m. C'est ici que commence la montee.</description><styleUrl>#etape</styleUrl><Point><coordinates>6.1113370,49.1110920,0</coordinates></Point></Placemark>
    <Style id="t1"><LineStyle><color>ff5A6E2F</color><width>4</width></LineStyle></Style>
    <Placemark><name>Les cotes de Jussy</name><description>7.8 km. D+ 185 m. 42 % de chemins. Depart : Sainte-Ruffine, centre du village (15 min de Metz). Le versant ouest des cotes de Moselle, vignes en bas, hetraie en haut, vue sur la vallee tout du long.</description><styleUrl>#t1</styleUrl><LineString><tessellate>1</tessellate><coordinates>6.0963650,49.1057780,220 6.0963860,49.1056470,219 6.0964170,49.1055370,219 6.0964440,49.1054690,219 6.0964760,49.1053280,219 6.0965150,49.1050470,218 6.0965020,49.1049710,218 6.0964510,49.1048740,217 6.0963840,49.1047830,216 6.0962810,49.1046950,215 6.0962460,49.1046240,214 6.0961800,49.1044950,213 6.0961100,49.1043390,210 6.0961220,49.1041560,208 6.0958010,49.1042230,208 6.0957350,49.1042460,207 6.0956510,49.1042780,207 6.0951000,49.1043620,206 6.0950780,49.1041910,203 6.0946190,49.1042070,201 6.0945530,49.1041830,200 6.0942580,49.1042330,200 6.0942580,49.1041650,199 6.0942120,49.1041550,199 6.0941310,49.1041580,199 6.0937030,49.1042170,200 6.0934590,49.1042250,199 6.0933170,49.1037150,194 6.0933040,49.1036720,194 6.0932100,49.1036780,194 6.0931510,49.1036700,194 6.0927280,49.1036770,198 6.0926830,49.1036660,198 6.0926330,49.1036810,198 6.0925390,49.1036820,199 6.0924530,49.1036390,200 6.0924130,49.1036500,200 6.0923640,49.1036460,200 6.0920870,49.1036000,200 6.0919260,49.1035870,201 6.0917630,49.1035900,202 6.0916160,49.1036140,203 6.0915970,49.1035880,204 6.0916060,49.1026260,213 6.0915750,49.1025270,214 6.0915370,49.1024780,214 6.0914810,49.1024260,214 6.0913840,49.1024670,214 6.0911050,49.1025290,214 6.0908350,49.1025430,216 6.0907280,49.1025370,216 6.0906450,49.1025160,216 6.0904990,49.1024570,218 6.0903380,49.1023760,219 6.0898930,49.1021110,220 6.0894190,49.1024080,224 6.0892720,49.1024830,224 6.0892460,49.1024890,224 6.0886870,49.1022010,226 6.0885420,49.1023090,227 6.0882270,49.1022020,228 6.0877790,49.1021130,230 6.0877030,49.1020880,231 6.0876570,49.1021160,231 6.0875630,49.1020360,232 6.0873080,49.1018620,233 6.0872500,49.1018300,233 6.0871710,49.1017720,234 6.0867450,49.1019440,236 6.0863950,49.1021620,240 6.0863200,49.1021990,240 6.0862630,49.1022060,240 6.0862190,49.1021800,240 6.0861790,49.1021040,241 6.0861270,49.1019700,241 6.0861230,49.1018950,241 6.0861590,49.1017520,240 6.0861710,49.1016860,240 6.0861760,49.1016580,239 6.0861530,49.1013050,237 6.0861570,49.1012460,237 6.0860890,49.1011800,236 6.0860420,49.1011130,236 6.0860060,49.1010700,236 6.0859130,49.1009900,236 6.0860410,49.1008860,235 6.0861650,49.1007650,233 6.0862140,49.1006870,232 6.0859440,49.1005410,234 6.0858640,49.1005010,234 6.0856970,49.1004160,234 6.0856620,49.1003790,234 6.0856410,49.1003390,234 6.0854910,49.0999880,231 6.0853970,49.0998190,228 6.0851870,49.0995500,224 6.0848940,49.0992230,221 6.0847510,49.0989750,220 6.0845440,49.0985840,220 6.0844170,49.0983880,220 6.0842830,49.0981360,221 6.0842600,49.0980580,221 6.0842630,49.0977010,221 6.0842410,49.0975730,220 6.0840590,49.0970060,223 6.0839410,49.0965060,232 6.0839410,49.0961480,232 6.0839530,49.0961350,232 6.0840080,49.0960680,232 6.0840060,49.0960350,231 6.0839930,49.0960030,230 6.0839650,49.0959670,230 6.0838750,49.0958890,230 6.0837640,49.0958220,229 6.0836960,49.0957910,229 6.0836200,49.0957660,229 6.0832250,49.0956590,228 6.0830120,49.0956640,228 6.0828020,49.0956420,228 6.0821830,49.0954840,229 6.0818430,49.0953630,229 6.0817730,49.0953320,229 6.0816170,49.0952550,229 6.0814400,49.0951360,226 6.0811530,49.0950440,225 6.0810310,49.0950080,225 6.0809800,49.0949970,226 6.0809110,49.0949930,226 6.0808740,49.0949210,225 6.0808140,49.0948480,223 6.0805100,49.0945970,222 6.0804850,49.0945720,222 6.0804720,49.0945430,221 6.0804650,49.0945260,221 6.0804680,49.0944780,220 6.0804870,49.0943980,218 6.0805220,49.0942900,216 6.0805490,49.0942040,215 6.0805690,49.0941120,214 6.0807480,49.0940890,214 6.0805690,49.0941120,214 6.0805490,49.0942040,215 6.0805220,49.0942900,216 6.0804870,49.0943980,218 6.0804680,49.0944780,220 6.0804650,49.0945260,221 6.0804720,49.0945430,221 6.0804850,49.0945720,222 6.0805100,49.0945970,222 6.0808140,49.0948480,223 6.0808740,49.0949210,225 6.0809110,49.0949930,226 6.0809800,49.0949970,226 6.0810310,49.0950080,225 6.0811530,49.0950440,225 6.0814400,49.0951360,226 6.0816170,49.0952550,229 6.0817730,49.0953320,229 6.0818430,49.0953630,229 6.0821830,49.0954840,229 6.0828020,49.0956420,228 6.0830120,49.0956640,228 6.0832250,49.0956590,228 6.0836200,49.0957660,229 6.0836960,49.0957910,229 6.0837640,49.0958220,229 6.0838750,49.0958890,230 6.0839650,49.0959670,230 6.0839930,49.0960030,230 6.0840060,49.0960350,231 6.0840080,49.0960680,232 6.0839530,49.0961350,232 6.0839410,49.0961480,232 6.0839410,49.0965060,232 6.0840590,49.0970060,223 6.0842410,49.0975730,220 6.0842630,49.0977010,221 6.0842600,49.0980580,221 6.0842830,49.0981360,221 6.0844170,49.0983880,220 6.0845440,49.0985840,220 6.0847510,49.0989750,220 6.0848940,49.0992230,221 6.0851870,49.0995500,224 6.0853970,49.0998190,228 6.0856610,49.0997070,227 6.0858710,49.0995940,225 6.0860680,49.0994380,224 6.0862170,49.0993480,222 6.0863050,49.0994190,224 6.0865850,49.0995820,225 6.0867090,49.0996970,226 6.0869560,49.0998660,225 6.0870200,49.0999180,225 6.0871440,49.0998070,223 6.0871990,49.0997990,222 6.0872620,49.0997980,222 6.0873250,49.0998080,223 6.0878390,49.1000160,224 6.0879210,49.1000580,224 6.0880970,49.1001700,224 6.0883930,49.1003980,224 6.0885080,49.1005580,223 6.0886570,49.1006120,223 6.0888530,49.1007190,222 6.0890020,49.1008770,221 6.0891590,49.1009830,220 6.0893510,49.1011110,218 6.0895650,49.1012710,216 6.0896960,49.1013850,215 6.0898030,49.1014940,215 6.0899380,49.1016000,215 6.0901750,49.1017130,214 6.0906510,49.1019090,214 6.0910030,49.1020530,213 6.0912160,49.1021960,214 6.0914810,49.1024260,214 6.0915370,49.1024780,214 6.0915750,49.1025270,214 6.0916060,49.1026260,213 6.0915970,49.1035880,204 6.0916160,49.1036140,203 6.0917630,49.1035900,202 6.0919260,49.1035870,201 6.0920870,49.1036000,200 6.0923640,49.1036460,200 6.0924130,49.1036500,200 6.0924530,49.1036390,200 6.0925390,49.1036820,199 6.0926330,49.1036810,198 6.0926830,49.1036660,198 6.0927280,49.1036770,198 6.0931510,49.1036700,194 6.0932100,49.1036780,194 6.0933040,49.1036720,194 6.0933170,49.1037150,194 6.0934590,49.1042250,199 6.0937030,49.1042170,200 6.0941310,49.1041580,199 6.0942120,49.1041550,199 6.0942580,49.1041650,199 6.0942580,49.1042330,200 6.0945530,49.1041830,200 6.0946190,49.1042070,201 6.0950780,49.1041910,203 6.0951000,49.1043620,206 6.0956510,49.1042780,207 6.0957350,49.1042460,207 6.0958010,49.1042230,208 6.0961220,49.1041560,208 6.0961100,49.1043390,210 6.0961800,49.1044950,213 6.0962460,49.1046240,214 6.0962810,49.1046950,215 6.0963840,49.1047830,216 6.0964510,49.1048740,217 6.0965020,49.1049710,218 6.0965150,49.1050470,218 6.0965750,49.1050440,218 6.0967530,49.1050600,219 6.0977750,49.1053390,222 6.0978610,49.1053630,222 6.0978890,49.1053720,222 6.0981910,49.1054700,224 6.0984140,49.1055540,224 6.0986510,49.1056600,224 6.0994020,49.1060830,213 6.0994980,49.1061340,211 6.0997810,49.1062600,207 6.0999120,49.1063040,206 6.1000250,49.1063270,204 6.1002640,49.1063510,202 6.1004190,49.1063490,202 6.1010880,49.1062940,198 6.1028350,49.1061380,183 6.1044410,49.1059460,174 6.1050220,49.1058990,172 6.1054800,49.1058820,170 6.1057460,49.1058910,170 6.1061590,49.1059290,169 6.1062420,49.1059380,169 6.1066150,49.1059990,170 6.1066640,49.1060060,170 6.1066130,49.1061320,170 6.1065770,49.1062560,170 6.1065650,49.1063030,170 6.1065510,49.1063530,170 6.1065240,49.1064600,170 6.1065580,49.1064640,170 6.1066260,49.1064720,171 6.1069530,49.1065070,172 6.1071760,49.1065320,173 6.1072330,49.1065390,174 6.1072370,49.1065660,174 6.1072980,49.1069740,175 6.1072310,49.1069840,175 6.1072770,49.1071990,175 6.1072870,49.1072460,175 6.1073010,49.1073060,175 6.1074220,49.1074970,176 6.1075880,49.1077820,178 6.1077260,49.1080040,179 6.1080100,49.1084030,181 6.1080400,49.1083930,181 6.1086390,49.1081890,180 6.1093250,49.1079550,179 6.1094680,49.1079230,179 6.1095450,49.1079110,179 6.1095870,49.1079040,179 6.1099210,49.1085350,185 6.1099320,49.1086250,186 6.1099280,49.1086480,187 6.1099520,49.1086810,188 6.1099630,49.1087140,188 6.1100060,49.1087310,188 6.1104600,49.1086900,188 6.1105480,49.1087340,189 6.1106100,49.1089430,194 6.1108970,49.1092250,200 6.1110960,49.1094750,208 6.1112250,49.1095640,210 6.1112870,49.1096230,211 6.1113260,49.1096880,213 6.1114520,49.1101270,218 6.1117990,49.1108250,222 6.1112620,49.1109820,222 6.1111790,49.1110070,222 6.1111040,49.1110450,221 6.1110680,49.1110610,221 6.1109980,49.1110030,221 6.1107120,49.1107020,219 6.1104980,49.1104340,216 6.1102730,49.1100210,209 6.1097780,49.1092380,198 6.1097440,49.1091830,196 6.1096800,49.1091320,196 6.1095410,49.1090480,194 6.1094270,49.1089980,192 6.1092780,49.1089730,191 6.1091200,49.1089810,190 6.1087230,49.1090580,188 6.1086480,49.1090780,188 6.1084490,49.1091290,188 6.1080640,49.1092480,188 6.1079330,49.1092810,188 6.1078360,49.1092810,188 6.1077670,49.1092590,187 6.1076900,49.1092210,186 6.1076100,49.1091640,186 6.1075520,49.1090850,185 6.1075350,49.1090090,185 6.1075640,49.1089670,184 6.1076070,49.1089350,184 6.1080770,49.1087730,184 6.1081220,49.1087470,184 6.1081540,49.1087080,183 6.1081660,49.1086650,183 6.1081550,49.1086170,182 6.1080100,49.1084030,181 6.1077260,49.1080040,179 6.1075880,49.1077820,178 6.1074220,49.1074970,176 6.1073010,49.1073060,175 6.1072870,49.1072460,175 6.1072770,49.1071990,175 6.1072310,49.1069840,175 6.1072980,49.1069740,175 6.1072370,49.1065660,174 6.1072330,49.1065390,174 6.1071760,49.1065320,173 6.1069530,49.1065070,172 6.1066260,49.1064720,171 6.1065580,49.1064640,170 6.1065240,49.1064600,170 6.1065510,49.1063530,170 6.1065650,49.1063030,170 6.1065770,49.1062560,170 6.1066130,49.1061320,170 6.1066640,49.1060060,170 6.1066150,49.1059990,170 6.1062420,49.1059380,169 6.1061590,49.1059290,169 6.1057460,49.1058910,170 6.1054800,49.1058820,170 6.1050220,49.1058990,172 6.1044410,49.1059460,174 6.1028350,49.1061380,183 6.1010880,49.1062940,198 6.1004190,49.1063490,202 6.1002640,49.1063510,202 6.1000250,49.1063270,204 6.0999120,49.1063040,206 6.0997810,49.1062600,207 6.0994980,49.1061340,211 6.0994020,49.1060830,213 6.0992850,49.1061410,213 6.0991640,49.1061920,214 6.0989430,49.1062640,214 6.0987500,49.1062810,216 6.0983770,49.1062990,219 6.0982400,49.1062990,219 6.0980810,49.1062880,220 6.0979070,49.1062560,220 6.0977470,49.1062120,220 6.0974050,49.1060540,220 6.0973360,49.1061150,220 6.0968600,49.1059990,220 6.0963470,49.1058930,220 6.0963650,49.1057780,219</coordinates></LineString></Placemark>
</Document></kml>