<?xml version="1.0" encoding="UTF-8"?>
<gpx version="1.1" creator="olifant"
     xmlns="http://www.topografix.com/GPX/1/1"
     xmlns:xsi="http://www.w3.org/2001/XMLSchema-instance"
     xsi:schemaLocation="http://www.topografix.com/GPX/1/1 http://www.topografix.com/GPX/1/1/gpx.xsd">
  <metadata><name>Le versant de Plappeville</name><desc>15.8 km. D+ 160 m. 33 % de chemins. La plus longue, et la seule qui monte vraiment : on gagne la cote par le Ban-Saint-Martin, on traverse le village vigneron de Plappeville et les vergers de Lorry, on redescend plein est.</desc></metadata>
  <wpt lat="49.1092770" lon="6.1770130"><name>Gare de Metz, parvis</name><desc>Point de ralliement des boucles a pied : a moins d'un quart d'heure de marche pour tout le monde. Abrite, cafe ouvert tot, toilettes.</desc></wpt>
  <wpt lat="49.1201090" lon="6.1612490"><name>Ile du Saulcy</name><desc>Ile universitaire, tres calme hors semestre. Cygnes sur les deux bras.</desc></wpt>
  <wpt lat="49.1179290" lon="6.1510520"><name>Le Grand Patural, Ban-Saint-Martin</name><desc>Prairie et promenade au bord de la Moselle, juste avant de quitter la ville.</desc></wpt>
  <wpt lat="49.1310140" lon="6.1250130"><name>Plappeville</name><desc>Village vigneron du versant nord, ruelles et maisons de maitre.</desc></wpt>
  <wpt lat="49.1431090" lon="6.1204400"><name>Lorry-les-Metz</name><desc>Vergers et vignes en terrasse sur le versant nord de la cote.</desc></wpt>
  <trk><name>Le versant de Plappeville</name><trkseg>
    <trkpt lat="49.1093080" lon="6.1769770"><ele>179.5</ele></trkpt>
    <trkpt lat="49.1093930" lon="6.1771540"><ele>179.8</ele></trkpt>
    <trkpt lat="49.1094370" lon="6.1771030"><ele>179.8</ele></trkpt>
    <trkpt lat="49.1094690" lon="6.1771660"><ele>179.8</ele></trkpt>
    <trkpt lat="49.1095290" lon="6.1772910"><ele>179.8</ele></trkpt>
    <trkpt lat="49.1095400" lon="6.1773130"><ele>179.8</ele></trkpt>
    <trkpt lat="49.1095730" lon="6.1773630"><ele>179.5</ele></trkpt>
    <trkpt lat="49.1096300" lon="6.1773040"><ele>179.8</ele></trkpt>
    <trkpt lat="49.1097880" lon="6.1771340"><ele>178.0</ele></trkpt>
    <trkpt lat="49.1098720" lon="6.1770370"><ele>176.0</ele></trkpt>
    <trkpt lat="49.1099000" lon="6.1770060"><ele>175.5</ele></trkpt>
    <trkpt lat="49.1099770" lon="6.1770100"><ele>174.2</ele></trkpt>
    <trkpt lat="49.1100150" lon="6.1769620"><ele>173.8</ele></trkpt>
    <trkpt lat="49.1101280" lon="6.1767800"><ele>174.0</ele></trkpt>
    <trkpt lat="49.1101660" lon="6.1767370"><ele>174.0</ele></trkpt>
    <trkpt lat="49.1102330" lon="6.1766610"><ele>174.0</ele></trkpt>
    <trkpt lat="49.1102540" lon="6.1766380"><ele>174.0</ele></trkpt>
    <trkpt lat="49.1101110" lon="6.1763430"><ele>173.8</ele></trkpt>
    <trkpt lat="49.1101340" lon="6.1762210"><ele>173.5</ele></trkpt>
    <trkpt lat="49.1101510" lon="6.1761480"><ele>173.5</ele></trkpt>
    <trkpt lat="49.1101740" lon="6.1760570"><ele>173.2</ele></trkpt>
    <trkpt lat="49.1102890" lon="6.1756080"><ele>174.8</ele></trkpt>
    <trkpt lat="49.1103310" lon="6.1755100"><ele>175.0</ele></trkpt>
    <trkpt lat="49.1104100" lon="6.1752170"><ele>175.0</ele></trkpt>
    <trkpt lat="49.1104420" lon="6.1750820"><ele>175.2</ele></trkpt>
    <trkpt lat="49.1104600" lon="6.1750140"><ele>175.5</ele></trkpt>
    <trkpt lat="49.1104780" lon="6.1749460"><ele>175.8</ele></trkpt>
    <trkpt lat="49.1104870" lon="6.1749140"><ele>175.8</ele></trkpt>
    <trkpt lat="49.1107470" lon="6.1738700"><ele>177.0</ele></trkpt>
    <trkpt lat="49.1107360" lon="6.1738450"><ele>177.0</ele></trkpt>
    <trkpt lat="49.1107390" lon="6.1738390"><ele>177.0</ele></trkpt>
    <trkpt lat="49.1108010" lon="6.1737380"><ele>177.0</ele></trkpt>
    <trkpt lat="49.1113020" lon="6.1729270"><ele>178.0</ele></trkpt>
    <trkpt lat="49.1113580" lon="6.1729140"><ele>178.0</ele></trkpt>
    <trkpt lat="49.1113440" lon="6.1728350"><ele>178.0</ele></trkpt>
    <trkpt lat="49.1113370" lon="6.1728050"><ele>178.0</ele></trkpt>
    <trkpt lat="49.1113240" lon="6.1727580"><ele>178.0</ele></trkpt>
    <trkpt lat="49.1112700" lon="6.1727510"><ele>178.0</ele></trkpt>
    <trkpt lat="49.1112480" lon="6.1727480"><ele>178.0</ele></trkpt>
    <trkpt lat="49.1112740" lon="6.1723720"><ele>179.0</ele></trkpt>
    <trkpt lat="49.1112980" lon="6.1722350"><ele>179.0</ele></trkpt>
    <trkpt lat="49.1113100" lon="6.1722030"><ele>179.0</ele></trkpt>
    <trkpt lat="49.1112950" lon="6.1721800"><ele>179.0</ele></trkpt>
    <trkpt lat="49.1113190" lon="6.1721500"><ele>179.0</ele></trkpt>
    <trkpt lat="49.1113670" lon="6.1720930"><ele>179.0</ele></trkpt>
    <trkpt lat="49.1113690" lon="6.1720610"><ele>179.0</ele></trkpt>
    <trkpt lat="49.1113700" lon="6.1720270"><ele>179.0</ele></trkpt>
    <trkpt lat="49.1113730" lon="6.1719530"><ele>179.0</ele></trkpt>
    <trkpt lat="49.1115460" lon="6.1719720"><ele>178.8</ele></trkpt>
    <trkpt lat="49.1115600" lon="6.1719490"><ele>178.8</ele></trkpt>
    <trkpt lat="49.1116280" lon="6.1710940"><ele>179.0</ele></trkpt>
    <trkpt lat="49.1116110" lon="6.1710750"><ele>179.0</ele></trkpt>
    <trkpt lat="49.1116140" lon="6.1710470"><ele>179.0</ele></trkpt>
    <trkpt lat="49.1116170" lon="6.1710020"><ele>179.0</ele></trkpt>
    <trkpt lat="49.1117230" lon="6.1710180"><ele>179.0</ele></trkpt>
    <trkpt lat="49.1118580" lon="6.1710290"><ele>179.0</ele></trkpt>
    <trkpt lat="49.1119430" lon="6.1710320"><ele>179.0</ele></trkpt>
    <trkpt lat="49.1119440" lon="6.1709870"><ele>179.0</ele></trkpt>
    <trkpt lat="49.1119450" lon="6.1709760"><ele>179.0</ele></trkpt>
    <trkpt lat="49.1119560" lon="6.1709070"><ele>179.0</ele></trkpt>
    <trkpt lat="49.1120040" lon="6.1706070"><ele>179.8</ele></trkpt>
    <trkpt lat="49.1120650" lon="6.1703150"><ele>180.8</ele></trkpt>
    <trkpt lat="49.1121000" lon="6.1702180"><ele>180.8</ele></trkpt>
    <trkpt lat="49.1121370" lon="6.1701250"><ele>181.0</ele></trkpt>
    <trkpt lat="49.1121950" lon="6.1700120"><ele>180.8</ele></trkpt>
    <trkpt lat="49.1123020" lon="6.1696870"><ele>181.8</ele></trkpt>
    <trkpt lat="49.1123750" lon="6.1694410"><ele>182.0</ele></trkpt>
    <trkpt lat="49.1124120" lon="6.1692030"><ele>182.2</ele></trkpt>
    <trkpt lat="49.1124790" lon="6.1689670"><ele>183.5</ele></trkpt>
    <trkpt lat="49.1125120" lon="6.1688950"><ele>184.0</ele></trkpt>
    <trkpt lat="49.1125620" lon="6.1689380"><ele>184.0</ele></trkpt>
    <trkpt lat="49.1125860" lon="6.1688840"><ele>183.8</ele></trkpt>
    <trkpt lat="49.1126130" lon="6.1688520"><ele>183.8</ele></trkpt>
    <trkpt lat="49.1126470" lon="6.1688300"><ele>183.8</ele></trkpt>
    <trkpt lat="49.1127010" lon="6.1688090"><ele>183.8</ele></trkpt>
    <trkpt lat="49.1126840" lon="6.1687430"><ele>183.5</ele></trkpt>
    <trkpt lat="49.1126830" lon="6.1686700"><ele>183.2</ele></trkpt>
    <trkpt lat="49.1127260" lon="6.1681500"><ele>182.5</ele></trkpt>
    <trkpt lat="49.1128410" lon="6.1669680"><ele>180.2</ele></trkpt>
    <trkpt lat="49.1128660" lon="6.1668320"><ele>180.0</ele></trkpt>
    <trkpt lat="49.1129140" lon="6.1667990"><ele>179.8</ele></trkpt>
    <trkpt lat="49.1129010" lon="6.1667210"><ele>179.5</ele></trkpt>
    <trkpt lat="49.1128740" lon="6.1666430"><ele>179.2</ele></trkpt>
    <trkpt lat="49.1128600" lon="6.1665750"><ele>178.8</ele></trkpt>
    <trkpt lat="49.1128590" lon="6.1664830"><ele>177.8</ele></trkpt>
    <trkpt lat="49.1128680" lon="6.1664160"><ele>177.2</ele></trkpt>
    <trkpt lat="49.1128970" lon="6.1662200"><ele>176.8</ele></trkpt>
    <trkpt lat="49.1129160" lon="6.1661080"><ele>176.5</ele></trkpt>
    <trkpt lat="49.1129790" lon="6.1658190"><ele>176.2</ele></trkpt>
    <trkpt lat="49.1130740" lon="6.1654700"><ele>175.5</ele></trkpt>
    <trkpt lat="49.1131510" lon="6.1652150"><ele>175.0</ele></trkpt>
    <trkpt lat="49.1132900" lon="6.1648150"><ele>174.5</ele></trkpt>
    <trkpt lat="49.1133670" lon="6.1646140"><ele>174.5</ele></trkpt>
    <trkpt lat="49.1134630" lon="6.1645610"><ele>172.5</ele></trkpt>
    <trkpt lat="49.1135680" lon="6.1644770"><ele>170.5</ele></trkpt>
    <trkpt lat="49.1137030" lon="6.1644660"><ele>169.0</ele></trkpt>
    <trkpt lat="49.1137650" lon="6.1642510"><ele>170.0</ele></trkpt>
    <trkpt lat="49.1140010" lon="6.1636770"><ele>170.8</ele></trkpt>
    <trkpt lat="49.1142180" lon="6.1632540"><ele>170.2</ele></trkpt>
    <trkpt lat="49.1142690" lon="6.1631360"><ele>170.5</ele></trkpt>
    <trkpt lat="49.1143250" lon="6.1630530"><ele>170.2</ele></trkpt>
    <trkpt lat="49.1144240" lon="6.1629320"><ele>169.5</ele></trkpt>
    <trkpt lat="49.1147690" lon="6.1623960"><ele>168.5</ele></trkpt>
    <trkpt lat="49.1149800" lon="6.1621870"><ele>168.2</ele></trkpt>
    <trkpt lat="49.1151560" lon="6.1619170"><ele>167.8</ele></trkpt>
    <trkpt lat="49.1153210" lon="6.1617530"><ele>168.2</ele></trkpt>
    <trkpt lat="49.1154170" lon="6.1616400"><ele>168.2</ele></trkpt>
    <trkpt lat="49.1155050" lon="6.1615930"><ele>168.0</ele></trkpt>
    <trkpt lat="49.1155970" lon="6.1615250"><ele>168.0</ele></trkpt>
    <trkpt lat="49.1156280" lon="6.1614550"><ele>168.0</ele></trkpt>
    <trkpt lat="49.1156880" lon="6.1614050"><ele>168.2</ele></trkpt>
    <trkpt lat="49.1161650" lon="6.1612140"><ele>171.0</ele></trkpt>
    <trkpt lat="49.1173390" lon="6.1609480"><ele>171.5</ele></trkpt>
    <trkpt lat="49.1176310" lon="6.1608920"><ele>171.0</ele></trkpt>
    <trkpt lat="49.1179710" lon="6.1608600"><ele>170.0</ele></trkpt>
    <trkpt lat="49.1180300" lon="6.1608170"><ele>170.0</ele></trkpt>
    <trkpt lat="49.1181150" lon="6.1607770"><ele>169.8</ele></trkpt>
    <trkpt lat="49.1182470" lon="6.1607230"><ele>168.8</ele></trkpt>
    <trkpt lat="49.1188230" lon="6.1606150"><ele>168.5</ele></trkpt>
    <trkpt lat="49.1190320" lon="6.1605840"><ele>170.2</ele></trkpt>
    <trkpt lat="49.1190810" lon="6.1605930"><ele>170.2</ele></trkpt>
    <trkpt lat="49.1191400" lon="6.1606310"><ele>170.2</ele></trkpt>
    <trkpt lat="49.1191870" lon="6.1606800"><ele>170.0</ele></trkpt>
    <trkpt lat="49.1192360" lon="6.1607540"><ele>169.2</ele></trkpt>
    <trkpt lat="49.1193110" lon="6.1608110"><ele>168.5</ele></trkpt>
    <trkpt lat="49.1193830" lon="6.1608360"><ele>168.0</ele></trkpt>
    <trkpt lat="49.1194370" lon="6.1608890"><ele>168.0</ele></trkpt>
    <trkpt lat="49.1194620" lon="6.1608800"><ele>167.8</ele></trkpt>
    <trkpt lat="49.1196830" lon="6.1608030"><ele>167.2</ele></trkpt>
    <trkpt lat="49.1197000" lon="6.1609040"><ele>167.2</ele></trkpt>
    <trkpt lat="49.1197950" lon="6.1611120"><ele>167.5</ele></trkpt>
    <trkpt lat="49.1201090" lon="6.1612430"><ele>167.0</ele></trkpt>
    <trkpt lat="49.1197950" lon="6.1611120"><ele>167.5</ele></trkpt>
    <trkpt lat="49.1197000" lon="6.1609040"><ele>167.2</ele></trkpt>
    <trkpt lat="49.1196830" lon="6.1608030"><ele>167.2</ele></trkpt>
    <trkpt lat="49.1194620" lon="6.1608800"><ele>167.8</ele></trkpt>
    <trkpt lat="49.1194370" lon="6.1608890"><ele>168.0</ele></trkpt>
    <trkpt lat="49.1193830" lon="6.1608360"><ele>168.0</ele></trkpt>
    <trkpt lat="49.1193110" lon="6.1608110"><ele>168.5</ele></trkpt>
    <trkpt lat="49.1192360" lon="6.1607540"><ele>169.2</ele></trkpt>
    <trkpt lat="49.1191870" lon="6.1606800"><ele>170.0</ele></trkpt>
    <trkpt lat="49.1191400" lon="6.1606310"><ele>170.2</ele></trkpt>
    <trkpt lat="49.1190810" lon="6.1605930"><ele>170.2</ele></trkpt>
    <trkpt lat="49.1190320" lon="6.1605840"><ele>170.2</ele></trkpt>
    <trkpt lat="49.1188230" lon="6.1606150"><ele>168.5</ele></trkpt>
    <trkpt lat="49.1182470" lon="6.1607230"><ele>168.8</ele></trkpt>
    <trkpt lat="49.1181150" lon="6.1607770"><ele>169.8</ele></trkpt>
    <trkpt lat="49.1182340" lon="6.1608430"><ele>168.5</ele></trkpt>
    <trkpt lat="49.1183730" lon="6.1607530"><ele>167.5</ele></trkpt>
    <trkpt lat="49.1183120" lon="6.1604360"><ele>167.8</ele></trkpt>
    <trkpt lat="49.1182310" lon="6.1601360"><ele>167.8</ele></trkpt>
    <trkpt lat="49.1182070" lon="6.1600500"><ele>167.5</ele></trkpt>
    <trkpt lat="49.1181380" lon="6.1599080"><ele>167.8</ele></trkpt>
    <trkpt lat="49.1178830" lon="6.1593070"><ele>167.5</ele></trkpt>
    <trkpt lat="49.1178280" lon="6.1591480"><ele>168.2</ele></trkpt>
    <trkpt lat="49.1177680" lon="6.1589450"><ele>168.0</ele></trkpt>
    <trkpt lat="49.1176420" lon="6.1583190"><ele>167.2</ele></trkpt>
    <trkpt lat="49.1175980" lon="6.1579790"><ele>167.2</ele></trkpt>
    <trkpt lat="49.1176110" lon="6.1576990"><ele>167.0</ele></trkpt>
    <trkpt lat="49.1176590" lon="6.1572550"><ele>167.5</ele></trkpt>
    <trkpt lat="49.1177530" lon="6.1566650"><ele>166.8</ele></trkpt>
    <trkpt lat="49.1178020" lon="6.1562680"><ele>165.8</ele></trkpt>
    <trkpt lat="49.1177910" lon="6.1562090"><ele>166.0</ele></trkpt>
    <trkpt lat="49.1177690" lon="6.1561370"><ele>166.0</ele></trkpt>
    <trkpt lat="49.1177550" lon="6.1560450"><ele>166.0</ele></trkpt>
    <trkpt lat="49.1177760" lon="6.1557120"><ele>166.0</ele></trkpt>
    <trkpt lat="49.1177890" lon="6.1556250"><ele>166.0</ele></trkpt>
    <trkpt lat="49.1177960" lon="6.1553810"><ele>166.5</ele></trkpt>
    <trkpt lat="49.1177960" lon="6.1551300"><ele>166.8</ele></trkpt>
    <trkpt lat="49.1178060" lon="6.1550950"><ele>166.8</ele></trkpt>
    <trkpt lat="49.1177000" lon="6.1548610"><ele>167.0</ele></trkpt>
    <trkpt lat="49.1176760" lon="6.1547520"><ele>167.2</ele></trkpt>
    <trkpt lat="49.1176610" lon="6.1545830"><ele>167.2</ele></trkpt>
    <trkpt lat="49.1176580" lon="6.1544150"><ele>167.2</ele></trkpt>
    <trkpt lat="49.1176720" lon="6.1543170"><ele>167.2</ele></trkpt>
    <trkpt lat="49.1177120" lon="6.1541800"><ele>167.0</ele></trkpt>
    <trkpt lat="49.1177530" lon="6.1535600"><ele>167.0</ele></trkpt>
    <trkpt lat="49.1178190" lon="6.1529020"><ele>167.8</ele></trkpt>
    <trkpt lat="49.1178560" lon="6.1526330"><ele>167.5</ele></trkpt>
    <trkpt lat="49.1178930" lon="6.1522690"><ele>167.5</ele></trkpt>
    <trkpt lat="49.1179380" lon="6.1519000"><ele>167.2</ele></trkpt>
    <trkpt lat="49.1179630" lon="6.1516560"><ele>167.2</ele></trkpt>
    <trkpt lat="49.1179490" lon="6.1512970"><ele>167.2</ele></trkpt>
    <trkpt lat="49.1179340" lon="6.1511750"><ele>167.2</ele></trkpt>
    <trkpt lat="49.1179120" lon="6.1510580"><ele>167.5</ele></trkpt>
    <trkpt lat="49.1179060" lon="6.1510240"><ele>167.5</ele></trkpt>
    <trkpt lat="49.1178670" lon="6.1508730"><ele>167.5</ele></trkpt>
    <trkpt lat="49.1178580" lon="6.1507730"><ele>167.5</ele></trkpt>
    <trkpt lat="49.1178310" lon="6.1506800"><ele>167.2</ele></trkpt>
    <trkpt lat="49.1177820" lon="6.1505670"><ele>167.0</ele></trkpt>
    <trkpt lat="49.1176770" lon="6.1503840"><ele>167.2</ele></trkpt>
    <trkpt lat="49.1176640" lon="6.1503190"><ele>167.2</ele></trkpt>
    <trkpt lat="49.1176520" lon="6.1502590"><ele>167.2</ele></trkpt>
    <trkpt lat="49.1177250" lon="6.1500910"><ele>167.0</ele></trkpt>
    <trkpt lat="49.1177570" lon="6.1500440"><ele>167.0</ele></trkpt>
    <trkpt lat="49.1178880" lon="6.1499250"><ele>167.0</ele></trkpt>
    <trkpt lat="49.1179120" lon="6.1498900"><ele>167.0</ele></trkpt>
    <trkpt lat="49.1179350" lon="6.1498450"><ele>167.0</ele></trkpt>
    <trkpt lat="49.1180280" lon="6.1495810"><ele>167.0</ele></trkpt>
    <trkpt lat="49.1180780" lon="6.1495170"><ele>167.0</ele></trkpt>
    <trkpt lat="49.1180160" lon="6.1491490"><ele>167.0</ele></trkpt>
    <trkpt lat="49.1179940" lon="6.1490270"><ele>167.0</ele></trkpt>
    <trkpt lat="49.1179090" lon="6.1484560"><ele>167.0</ele></trkpt>
    <trkpt lat="49.1172930" lon="6.1487780"><ele>168.0</ele></trkpt>
    <trkpt lat="49.1172540" lon="6.1487030"><ele>168.5</ele></trkpt>
    <trkpt lat="49.1172340" lon="6.1486820"><ele>168.5</ele></trkpt>
    <trkpt lat="49.1171800" lon="6.1486250"><ele>169.0</ele></trkpt>
    <trkpt lat="49.1171590" lon="6.1486020"><ele>169.2</ele></trkpt>
    <trkpt lat="49.1171040" lon="6.1485420"><ele>169.5</ele></trkpt>
    <trkpt lat="49.1170450" lon="6.1484950"><ele>169.8</ele></trkpt>
    <trkpt lat="49.1169890" lon="6.1484550"><ele>169.8</ele></trkpt>
    <trkpt lat="49.1170370" lon="6.1483300"><ele>169.8</ele></trkpt>
    <trkpt lat="49.1170200" lon="6.1483140"><ele>169.8</ele></trkpt>
    <trkpt lat="49.1172900" lon="6.1475900"><ele>169.0</ele></trkpt>
    <trkpt lat="49.1184410" lon="6.1445040"><ele>169.5</ele></trkpt>
    <trkpt lat="49.1184640" lon="6.1445270"><ele>169.5</ele></trkpt>
    <trkpt lat="49.1186270" lon="6.1440720"><ele>169.5</ele></trkpt>
    <trkpt lat="49.1186560" lon="6.1440430"><ele>169.5</ele></trkpt>
    <trkpt lat="49.1187220" lon="6.1439190"><ele>169.5</ele></trkpt>
    <trkpt lat="49.1187730" lon="6.1438610"><ele>169.5</ele></trkpt>
    <trkpt lat="49.1187550" lon="6.1439520"><ele>169.5</ele></trkpt>
    <trkpt lat="49.1186940" lon="6.1441590"><ele>169.5</ele></trkpt>
    <trkpt lat="49.1187170" lon="6.1441320"><ele>169.5</ele></trkpt>
    <trkpt lat="49.1188060" lon="6.1442280"><ele>169.8</ele></trkpt>
    <trkpt lat="49.1188750" lon="6.1440900"><ele>169.8</ele></trkpt>
    <trkpt lat="49.1189320" lon="6.1441470"><ele>168.8</ele></trkpt>
    <trkpt lat="49.1192320" lon="6.1445410"><ele>168.0</ele></trkpt>
    <trkpt lat="49.1194080" lon="6.1448060"><ele>168.5</ele></trkpt>
    <trkpt lat="49.1195620" lon="6.1451050"><ele>168.0</ele></trkpt>
    <trkpt lat="49.1197920" lon="6.1455630"><ele>167.2</ele></trkpt>
    <trkpt lat="49.1199980" lon="6.1460820"><ele>167.0</ele></trkpt>
    <trkpt lat="49.1201930" lon="6.1466610"><ele>167.5</ele></trkpt>
    <trkpt lat="49.1202870" lon="6.1469770"><ele>166.8</ele></trkpt>
    <trkpt lat="49.1203170" lon="6.1468930"><ele>167.0</ele></trkpt>
    <trkpt lat="49.1203650" lon="6.1467750"><ele>167.0</ele></trkpt>
    <trkpt lat="49.1204160" lon="6.1466350"><ele>167.2</ele></trkpt>
    <trkpt lat="49.1204360" lon="6.1465990"><ele>167.2</ele></trkpt>
    <trkpt lat="49.1206380" lon="6.1462380"><ele>167.0</ele></trkpt>
    <trkpt lat="49.1206620" lon="6.1461950"><ele>167.0</ele></trkpt>
    <trkpt lat="49.1207490" lon="6.1460390"><ele>167.0</ele></trkpt>
    <trkpt lat="49.1208560" lon="6.1458470"><ele>167.0</ele></trkpt>
    <trkpt lat="49.1209870" lon="6.1456130"><ele>167.0</ele></trkpt>
    <trkpt lat="49.1213390" lon="6.1449850"><ele>167.0</ele></trkpt>
    <trkpt lat="49.1214120" lon="6.1448620"><ele>167.0</ele></trkpt>
    <trkpt lat="49.1214330" lon="6.1449080"><ele>167.0</ele></trkpt>
    <trkpt lat="49.1214590" lon="6.1449530"><ele>167.0</ele></trkpt>
    <trkpt lat="49.1217100" lon="6.1453260"><ele>167.0</ele></trkpt>
    <trkpt lat="49.1218940" lon="6.1455810"><ele>167.0</ele></trkpt>
    <trkpt lat="49.1219390" lon="6.1456170"><ele>167.0</ele></trkpt>
    <trkpt lat="49.1219520" lon="6.1455680"><ele>167.0</ele></trkpt>
    <trkpt lat="49.1220520" lon="6.1453480"><ele>167.0</ele></trkpt>
    <trkpt lat="49.1224760" lon="6.1444690"><ele>167.8</ele></trkpt>
    <trkpt lat="49.1225350" lon="6.1444120"><ele>168.0</ele></trkpt>
    <trkpt lat="49.1225060" lon="6.1443740"><ele>167.8</ele></trkpt>
    <trkpt lat="49.1224910" lon="6.1443550"><ele>167.8</ele></trkpt>
    <trkpt lat="49.1223450" lon="6.1441350"><ele>168.0</ele></trkpt>
    <trkpt lat="49.1223270" lon="6.1440790"><ele>168.0</ele></trkpt>
    <trkpt lat="49.1223270" lon="6.1440110"><ele>168.2</ele></trkpt>
    <trkpt lat="49.1224580" lon="6.1435500"><ele>169.0</ele></trkpt>
    <trkpt lat="49.1227070" lon="6.1426690"><ele>172.5</ele></trkpt>
    <trkpt lat="49.1227150" lon="6.1426130"><ele>173.0</ele></trkpt>
    <trkpt lat="49.1227430" lon="6.1424800"><ele>173.8</ele></trkpt>
    <trkpt lat="49.1227870" lon="6.1423330"><ele>174.5</ele></trkpt>
    <trkpt lat="49.1229120" lon="6.1419530"><ele>177.2</ele></trkpt>
    <trkpt lat="49.1230500" lon="6.1416940"><ele>178.8</ele></trkpt>
    <trkpt lat="49.1231370" lon="6.1415680"><ele>180.5</ele></trkpt>
    <trkpt lat="49.1231830" lon="6.1415570"><ele>181.0</ele></trkpt>
    <trkpt lat="49.1232290" lon="6.1415710"><ele>181.2</ele></trkpt>
    <trkpt lat="49.1234940" lon="6.1417480"><ele>182.8</ele></trkpt>
    <trkpt lat="49.1235650" lon="6.1417820"><ele>183.5</ele></trkpt>
    <trkpt lat="49.1236190" lon="6.1417680"><ele>184.2</ele></trkpt>
    <trkpt lat="49.1239220" lon="6.1413690"><ele>187.5</ele></trkpt>
    <trkpt lat="49.1240380" lon="6.1413520"><ele>188.8</ele></trkpt>
    <trkpt lat="49.1241020" lon="6.1412450"><ele>190.0</ele></trkpt>
    <trkpt lat="49.1241820" lon="6.1411450"><ele>190.8</ele></trkpt>
    <trkpt lat="49.1242040" lon="6.1411080"><ele>191.0</ele></trkpt>
    <trkpt lat="49.1242520" lon="6.1410290"><ele>191.8</ele></trkpt>
    <trkpt lat="49.1246250" lon="6.1403910"><ele>196.0</ele></trkpt>
    <trkpt lat="49.1247290" lon="6.1402650"><ele>196.0</ele></trkpt>
    <trkpt lat="49.1248510" lon="6.1401450"><ele>197.0</ele></trkpt>
    <trkpt lat="49.1249090" lon="6.1401420"><ele>197.0</ele></trkpt>
    <trkpt lat="49.1249600" lon="6.1402280"><ele>196.2</ele></trkpt>
    <trkpt lat="49.1251700" lon="6.1399600"><ele>198.0</ele></trkpt>
    <trkpt lat="49.1252560" lon="6.1398160"><ele>198.5</ele></trkpt>
    <trkpt lat="49.1256060" lon="6.1391710"><ele>199.5</ele></trkpt>
    <trkpt lat="49.1255940" lon="6.1391010"><ele>199.8</ele></trkpt>
    <trkpt lat="49.1255280" lon="6.1385980"><ele>201.0</ele></trkpt>
    <trkpt lat="49.1254900" lon="6.1382660"><ele>200.5</ele></trkpt>
    <trkpt lat="49.1254860" lon="6.1380210"><ele>200.8</ele></trkpt>
    <trkpt lat="49.1255080" lon="6.1378350"><ele>201.0</ele></trkpt>
    <trkpt lat="49.1255710" lon="6.1376590"><ele>200.8</ele></trkpt>
    <trkpt lat="49.1257650" lon="6.1374180"><ele>202.0</ele></trkpt>
    <trkpt lat="49.1260770" lon="6.1371510"><ele>202.5</ele></trkpt>
    <trkpt lat="49.1262260" lon="6.1370140"><ele>203.5</ele></trkpt>
    <trkpt lat="49.1263330" lon="6.1368420"><ele>204.5</ele></trkpt>
    <trkpt lat="49.1269840" lon="6.1353860"><ele>208.2</ele></trkpt>
    <trkpt lat="49.1272110" lon="6.1347350"><ele>208.0</ele></trkpt>
    <trkpt lat="49.1273890" lon="6.1343190"><ele>207.5</ele></trkpt>
    <trkpt lat="49.1276320" lon="6.1338200"><ele>207.5</ele></trkpt>
    <trkpt lat="49.1278000" lon="6.1336090"><ele>206.8</ele></trkpt>
    <trkpt lat="49.1278870" lon="6.1335260"><ele>206.5</ele></trkpt>
    <trkpt lat="49.1280220" lon="6.1334370"><ele>206.5</ele></trkpt>
    <trkpt lat="49.1280750" lon="6.1333740"><ele>206.8</ele></trkpt>
    <trkpt lat="49.1281200" lon="6.1332890"><ele>207.2</ele></trkpt>
    <trkpt lat="49.1281550" lon="6.1331950"><ele>207.8</ele></trkpt>
    <trkpt lat="49.1281870" lon="6.1330980"><ele>208.5</ele></trkpt>
    <trkpt lat="49.1282070" lon="6.1329730"><ele>209.0</ele></trkpt>
    <trkpt lat="49.1282120" lon="6.1328330"><ele>209.2</ele></trkpt>
    <trkpt lat="49.1281950" lon="6.1326640"><ele>210.5</ele></trkpt>
    <trkpt lat="49.1281850" lon="6.1325420"><ele>211.5</ele></trkpt>
    <trkpt lat="49.1281900" lon="6.1324320"><ele>212.0</ele></trkpt>
    <trkpt lat="49.1282140" lon="6.1323390"><ele>212.5</ele></trkpt>
    <trkpt lat="49.1284430" lon="6.1317290"><ele>214.2</ele></trkpt>
    <trkpt lat="49.1286990" lon="6.1308460"><ele>214.2</ele></trkpt>
    <trkpt lat="49.1288360" lon="6.1305150"><ele>214.0</ele></trkpt>
    <trkpt lat="49.1288560" lon="6.1304720"><ele>214.0</ele></trkpt>
    <trkpt lat="49.1287830" lon="6.1303720"><ele>214.5</ele></trkpt>
    <trkpt lat="49.1290150" lon="6.1302120"><ele>212.5</ele></trkpt>
    <trkpt lat="49.1289760" lon="6.1299080"><ele>212.2</ele></trkpt>
    <trkpt lat="49.1292900" lon="6.1292820"><ele>210.5</ele></trkpt>
    <trkpt lat="49.1297900" lon="6.1282300"><ele>212.0</ele></trkpt>
    <trkpt lat="49.1298620" lon="6.1281230"><ele>212.5</ele></trkpt>
    <trkpt lat="49.1300210" lon="6.1279110"><ele>213.5</ele></trkpt>
    <trkpt lat="49.1300890" lon="6.1278070"><ele>213.8</ele></trkpt>
    <trkpt lat="49.1301350" lon="6.1276810"><ele>214.5</ele></trkpt>
    <trkpt lat="49.1303250" lon="6.1268210"><ele>219.0</ele></trkpt>
    <trkpt lat="49.1303610" lon="6.1266430"><ele>220.5</ele></trkpt>
    <trkpt lat="49.1303720" lon="6.1265710"><ele>220.8</ele></trkpt>
    <trkpt lat="49.1303880" lon="6.1264960"><ele>221.0</ele></trkpt>
    <trkpt lat="49.1305130" lon="6.1258870"><ele>224.5</ele></trkpt>
    <trkpt lat="49.1305340" lon="6.1258230"><ele>224.8</ele></trkpt>
    <trkpt lat="49.1306810" lon="6.1253570"><ele>228.0</ele></trkpt>
    <trkpt lat="49.1308320" lon="6.1250340"><ele>229.8</ele></trkpt>
    <trkpt lat="49.1309450" lon="6.1247830"><ele>231.0</ele></trkpt>
    <trkpt lat="49.1309890" lon="6.1247980"><ele>231.0</ele></trkpt>
    <trkpt lat="49.1310620" lon="6.1248130"><ele>231.0</ele></trkpt>
    <trkpt lat="49.1312030" lon="6.1248320"><ele>232.5</ele></trkpt>
    <trkpt lat="49.1312060" lon="6.1249100"><ele>232.0</ele></trkpt>
    <trkpt lat="49.1311940" lon="6.1249230"><ele>231.5</ele></trkpt>
    <trkpt lat="49.1312140" lon="6.1249370"><ele>231.8</ele></trkpt>
    <trkpt lat="49.1312220" lon="6.1250240"><ele>231.5</ele></trkpt>
    <trkpt lat="49.1311600" lon="6.1251650"><ele>231.2</ele></trkpt>
    <trkpt lat="49.1310180" lon="6.1250020"><ele>230.5</ele></trkpt>
    <trkpt lat="49.1311600" lon="6.1251650"><ele>231.2</ele></trkpt>
    <trkpt lat="49.1312220" lon="6.1250240"><ele>231.5</ele></trkpt>
    <trkpt lat="49.1312140" lon="6.1249370"><ele>231.8</ele></trkpt>
    <trkpt lat="49.1311940" lon="6.1249230"><ele>231.5</ele></trkpt>
    <trkpt lat="49.1312060" lon="6.1249100"><ele>232.0</ele></trkpt>
    <trkpt lat="49.1312030" lon="6.1248320"><ele>232.5</ele></trkpt>
    <trkpt lat="49.1312910" lon="6.1248630"><ele>233.5</ele></trkpt>
    <trkpt lat="49.1313500" lon="6.1248970"><ele>234.0</ele></trkpt>
    <trkpt lat="49.1315610" lon="6.1250710"><ele>235.8</ele></trkpt>
    <trkpt lat="49.1317040" lon="6.1251610"><ele>237.2</ele></trkpt>
    <trkpt lat="49.1319220" lon="6.1252490"><ele>239.0</ele></trkpt>
    <trkpt lat="49.1320820" lon="6.1253070"><ele>239.8</ele></trkpt>
    <trkpt lat="49.1320930" lon="6.1252540"><ele>240.0</ele></trkpt>
    <trkpt lat="49.1322100" lon="6.1249410"><ele>242.2</ele></trkpt>
    <trkpt lat="49.1322230" lon="6.1248740"><ele>242.8</ele></trkpt>
    <trkpt lat="49.1322270" lon="6.1247600"><ele>243.5</ele></trkpt>
    <trkpt lat="49.1322420" lon="6.1246920"><ele>244.0</ele></trkpt>
    <trkpt lat="49.1328650" lon="6.1233610"><ele>254.0</ele></trkpt>
    <trkpt lat="49.1331940" lon="6.1237130"><ele>252.8</ele></trkpt>
    <trkpt lat="49.1335310" lon="6.1239840"><ele>252.5</ele></trkpt>
    <trkpt lat="49.1335750" lon="6.1240280"><ele>252.2</ele></trkpt>
    <trkpt lat="49.1336230" lon="6.1240450"><ele>252.2</ele></trkpt>
    <trkpt lat="49.1336630" lon="6.1240510"><ele>252.5</ele></trkpt>
    <trkpt lat="49.1336950" lon="6.1240390"><ele>252.5</ele></trkpt>
    <trkpt lat="49.1337740" lon="6.1239830"><ele>253.2</ele></trkpt>
    <trkpt lat="49.1341850" lon="6.1236270"><ele>256.8</ele></trkpt>
    <trkpt lat="49.1342510" lon="6.1235800"><ele>257.2</ele></trkpt>
    <trkpt lat="49.1343100" lon="6.1235840"><ele>257.2</ele></trkpt>
    <trkpt lat="49.1343770" lon="6.1236170"><ele>256.8</ele></trkpt>
    <trkpt lat="49.1346450" lon="6.1238160"><ele>254.8</ele></trkpt>
    <trkpt lat="49.1353460" lon="6.1239970"><ele>251.8</ele></trkpt>
    <trkpt lat="49.1354820" lon="6.1239820"><ele>251.8</ele></trkpt>
    <trkpt lat="49.1357380" lon="6.1238640"><ele>252.5</ele></trkpt>
    <trkpt lat="49.1358410" lon="6.1238370"><ele>252.5</ele></trkpt>
    <trkpt lat="49.1360180" lon="6.1238140"><ele>252.5</ele></trkpt>
    <trkpt lat="49.1363260" lon="6.1238240"><ele>252.2</ele></trkpt>
    <trkpt lat="49.1364350" lon="6.1238160"><ele>252.2</ele></trkpt>
    <trkpt lat="49.1365610" lon="6.1237740"><ele>252.0</ele></trkpt>
    <trkpt lat="49.1369770" lon="6.1235990"><ele>253.0</ele></trkpt>
    <trkpt lat="49.1371010" lon="6.1235760"><ele>253.2</ele></trkpt>
    <trkpt lat="49.1372290" lon="6.1235690"><ele>253.2</ele></trkpt>
    <trkpt lat="49.1373170" lon="6.1236010"><ele>252.5</ele></trkpt>
    <trkpt lat="49.1374410" lon="6.1237000"><ele>251.5</ele></trkpt>
    <trkpt lat="49.1374630" lon="6.1237250"><ele>251.2</ele></trkpt>
    <trkpt lat="49.1375590" lon="6.1238020"><ele>250.2</ele></trkpt>
    <trkpt lat="49.1376650" lon="6.1238400"><ele>249.5</ele></trkpt>
    <trkpt lat="49.1377770" lon="6.1238510"><ele>249.0</ele></trkpt>
    <trkpt lat="49.1383350" lon="6.1238180"><ele>244.0</ele></trkpt>
    <trkpt lat="49.1394630" lon="6.1236380"><ele>236.5</ele></trkpt>
    <trkpt lat="49.1397310" lon="6.1235800"><ele>238.0</ele></trkpt>
    <trkpt lat="49.1401500" lon="6.1234490"><ele>240.0</ele></trkpt>
    <trkpt lat="49.1402800" lon="6.1234120"><ele>240.5</ele></trkpt>
    <trkpt lat="49.1403360" lon="6.1234070"><ele>241.0</ele></trkpt>
    <trkpt lat="49.1403960" lon="6.1234200"><ele>241.5</ele></trkpt>
    <trkpt lat="49.1404550" lon="6.1234570"><ele>241.8</ele></trkpt>
    <trkpt lat="49.1405140" lon="6.1235270"><ele>242.0</ele></trkpt>
    <trkpt lat="49.1406470" lon="6.1237560"><ele>241.5</ele></trkpt>
    <trkpt lat="49.1407090" lon="6.1238610"><ele>241.5</ele></trkpt>
    <trkpt lat="49.1408040" lon="6.1240010"><ele>241.8</ele></trkpt>
    <trkpt lat="49.1408580" lon="6.1240490"><ele>242.0</ele></trkpt>
    <trkpt lat="49.1409620" lon="6.1240680"><ele>242.0</ele></trkpt>
    <trkpt lat="49.1410190" lon="6.1240380"><ele>242.0</ele></trkpt>
    <trkpt lat="49.1410680" lon="6.1239880"><ele>242.0</ele></trkpt>
    <trkpt lat="49.1411240" lon="6.1239200"><ele>242.0</ele></trkpt>
    <trkpt lat="49.1412390" lon="6.1237800"><ele>242.5</ele></trkpt>
    <trkpt lat="49.1412920" lon="6.1237180"><ele>242.8</ele></trkpt>
    <trkpt lat="49.1413510" lon="6.1236430"><ele>242.8</ele></trkpt>
    <trkpt lat="49.1414890" lon="6.1234960"><ele>243.2</ele></trkpt>
    <trkpt lat="49.1420020" lon="6.1229910"><ele>243.8</ele></trkpt>
    <trkpt lat="49.1420200" lon="6.1229690"><ele>243.8</ele></trkpt>
    <trkpt lat="49.1421550" lon="6.1228940"><ele>243.0</ele></trkpt>
    <trkpt lat="49.1425490" lon="6.1224670"><ele>240.5</ele></trkpt>
    <trkpt lat="49.1426000" lon="6.1224400"><ele>240.2</ele></trkpt>
    <trkpt lat="49.1426360" lon="6.1224230"><ele>240.0</ele></trkpt>
    <trkpt lat="49.1425940" lon="6.1222180"><ele>240.5</ele></trkpt>
    <trkpt lat="49.1425670" lon="6.1220910"><ele>240.8</ele></trkpt>
    <trkpt lat="49.1426030" lon="6.1220690"><ele>240.5</ele></trkpt>
    <trkpt lat="49.1430520" lon="6.1218140"><ele>239.0</ele></trkpt>
    <trkpt lat="49.1434780" lon="6.1215600"><ele>234.8</ele></trkpt>
    <trkpt lat="49.1436170" lon="6.1214680"><ele>233.8</ele></trkpt>
    <trkpt lat="49.1438130" lon="6.1213400"><ele>231.8</ele></trkpt>
    <trkpt lat="49.1441410" lon="6.1211090"><ele>228.2</ele></trkpt>
    <trkpt lat="49.1444370" lon="6.1208420"><ele>225.0</ele></trkpt>
    <trkpt lat="49.1445670" lon="6.1206840"><ele>223.8</ele></trkpt>
    <trkpt lat="49.1446250" lon="6.1205700"><ele>223.0</ele></trkpt>
    <trkpt lat="49.1446130" lon="6.1205040"><ele>223.0</ele></trkpt>
    <trkpt lat="49.1444140" lon="6.1198100"><ele>224.2</ele></trkpt>
    <trkpt lat="49.1436080" lon="6.1204590"><ele>233.5</ele></trkpt>
    <trkpt lat="49.1435430" lon="6.1205350"><ele>234.2</ele></trkpt>
    <trkpt lat="49.1433950" lon="6.1206790"><ele>235.8</ele></trkpt>
    <trkpt lat="49.1435430" lon="6.1205350"><ele>234.2</ele></trkpt>
    <trkpt lat="49.1436080" lon="6.1204590"><ele>233.5</ele></trkpt>
    <trkpt lat="49.1444140" lon="6.1198100"><ele>224.2</ele></trkpt>
    <trkpt lat="49.1446130" lon="6.1205040"><ele>223.0</ele></trkpt>
    <trkpt lat="49.1446250" lon="6.1205700"><ele>223.0</ele></trkpt>
    <trkpt lat="49.1445670" lon="6.1206840"><ele>223.8</ele></trkpt>
    <trkpt lat="49.1444370" lon="6.1208420"><ele>225.0</ele></trkpt>
    <trkpt lat="49.1441410" lon="6.1211090"><ele>228.2</ele></trkpt>
    <trkpt lat="49.1438130" lon="6.1213400"><ele>231.8</ele></trkpt>
    <trkpt lat="49.1436170" lon="6.1214680"><ele>233.8</ele></trkpt>
    <trkpt lat="49.1434780" lon="6.1215600"><ele>234.8</ele></trkpt>
    <trkpt lat="49.1430520" lon="6.1218140"><ele>239.0</ele></trkpt>
    <trkpt lat="49.1426030" lon="6.1220690"><ele>240.5</ele></trkpt>
    <trkpt lat="49.1425670" lon="6.1220910"><ele>240.8</ele></trkpt>
    <trkpt lat="49.1425940" lon="6.1222180"><ele>240.5</ele></trkpt>
    <trkpt lat="49.1426360" lon="6.1224230"><ele>240.0</ele></trkpt>
    <trkpt lat="49.1426000" lon="6.1224400"><ele>240.2</ele></trkpt>
    <trkpt lat="49.1425490" lon="6.1224670"><ele>240.5</ele></trkpt>
    <trkpt lat="49.1421550" lon="6.1228940"><ele>243.0</ele></trkpt>
    <trkpt lat="49.1420200" lon="6.1229690"><ele>243.8</ele></trkpt>
    <trkpt lat="49.1420020" lon="6.1229910"><ele>243.8</ele></trkpt>
    <trkpt lat="49.1414890" lon="6.1234960"><ele>243.2</ele></trkpt>
    <trkpt lat="49.1413510" lon="6.1236430"><ele>242.8</ele></trkpt>
    <trkpt lat="49.1412920" lon="6.1237180"><ele>242.8</ele></trkpt>
    <trkpt lat="49.1412390" lon="6.1237800"><ele>242.5</ele></trkpt>
    <trkpt lat="49.1411240" lon="6.1239200"><ele>242.0</ele></trkpt>
    <trkpt lat="49.1410680" lon="6.1239880"><ele>242.0</ele></trkpt>
    <trkpt lat="49.1410190" lon="6.1240380"><ele>242.0</ele></trkpt>
    <trkpt lat="49.1409620" lon="6.1240680"><ele>242.0</ele></trkpt>
    <trkpt lat="49.1408580" lon="6.1240490"><ele>242.0</ele></trkpt>
    <trkpt lat="49.1408040" lon="6.1240010"><ele>241.8</ele></trkpt>
    <trkpt lat="49.1407090" lon="6.1238610"><ele>241.5</ele></trkpt>
    <trkpt lat="49.1406470" lon="6.1237560"><ele>241.5</ele></trkpt>
    <trkpt lat="49.1405140" lon="6.1235270"><ele>242.0</ele></trkpt>
    <trkpt lat="49.1404550" lon="6.1234570"><ele>241.8</ele></trkpt>
    <trkpt lat="49.1403960" lon="6.1234200"><ele>241.5</ele></trkpt>
    <trkpt lat="49.1403360" lon="6.1234070"><ele>241.0</ele></trkpt>
    <trkpt lat="49.1402800" lon="6.1234120"><ele>240.5</ele></trkpt>
    <trkpt lat="49.1401500" lon="6.1234490"><ele>240.0</ele></trkpt>
    <trkpt lat="49.1397310" lon="6.1235800"><ele>238.0</ele></trkpt>
    <trkpt lat="49.1394630" lon="6.1236380"><ele>236.5</ele></trkpt>
    <trkpt lat="49.1383350" lon="6.1238180"><ele>244.0</ele></trkpt>
    <trkpt lat="49.1384410" lon="6.1244490"><ele>242.8</ele></trkpt>
    <trkpt lat="49.1384720" lon="6.1249080"><ele>242.0</ele></trkpt>
    <trkpt lat="49.1383460" lon="6.1253110"><ele>242.5</ele></trkpt>
    <trkpt lat="49.1383490" lon="6.1253620"><ele>242.5</ele></trkpt>
    <trkpt lat="49.1384550" lon="6.1270220"><ele>235.8</ele></trkpt>
    <trkpt lat="49.1385330" lon="6.1280370"><ele>233.2</ele></trkpt>
    <trkpt lat="49.1386620" lon="6.1291560"><ele>228.8</ele></trkpt>
    <trkpt lat="49.1387930" lon="6.1303550"><ele>224.2</ele></trkpt>
    <trkpt lat="49.1390000" lon="6.1316060"><ele>219.2</ele></trkpt>
    <trkpt lat="49.1391530" lon="6.1332010"><ele>215.0</ele></trkpt>
    <trkpt lat="49.1392780" lon="6.1337370"><ele>213.8</ele></trkpt>
    <trkpt lat="49.1393550" lon="6.1339490"><ele>212.5</ele></trkpt>
    <trkpt lat="49.1394000" lon="6.1341620"><ele>211.2</ele></trkpt>
    <trkpt lat="49.1394270" lon="6.1343860"><ele>211.0</ele></trkpt>
    <trkpt lat="49.1387080" lon="6.1351330"><ele>215.2</ele></trkpt>
    <trkpt lat="49.1384530" lon="6.1354120"><ele>215.0</ele></trkpt>
    <trkpt lat="49.1383930" lon="6.1355170"><ele>215.0</ele></trkpt>
    <trkpt lat="49.1378110" lon="6.1360540"><ele>209.5</ele></trkpt>
    <trkpt lat="49.1369090" lon="6.1367930"><ele>195.0</ele></trkpt>
    <trkpt lat="49.1367860" lon="6.1368000"><ele>193.5</ele></trkpt>
    <trkpt lat="49.1367520" lon="6.1367800"><ele>193.0</ele></trkpt>
    <trkpt lat="49.1367200" lon="6.1368710"><ele>192.0</ele></trkpt>
    <trkpt lat="49.1364110" lon="6.1371860"><ele>188.2</ele></trkpt>
    <trkpt lat="49.1363140" lon="6.1373200"><ele>187.2</ele></trkpt>
    <trkpt lat="49.1362520" lon="6.1374770"><ele>186.5</ele></trkpt>
    <trkpt lat="49.1362250" lon="6.1376200"><ele>186.0</ele></trkpt>
    <trkpt lat="49.1362170" lon="6.1377520"><ele>185.5</ele></trkpt>
    <trkpt lat="49.1361340" lon="6.1378160"><ele>185.8</ele></trkpt>
    <trkpt lat="49.1359560" lon="6.1380250"><ele>186.5</ele></trkpt>
    <trkpt lat="49.1351890" lon="6.1384790"><ele>198.2</ele></trkpt>
    <trkpt lat="49.1356130" lon="6.1400820"><ele>196.5</ele></trkpt>
    <trkpt lat="49.1355890" lon="6.1401070"><ele>197.0</ele></trkpt>
    <trkpt lat="49.1355700" lon="6.1401230"><ele>197.2</ele></trkpt>
    <trkpt lat="49.1351530" lon="6.1406290"><ele>203.2</ele></trkpt>
    <trkpt lat="49.1345760" lon="6.1414580"><ele>212.5</ele></trkpt>
    <trkpt lat="49.1343260" lon="6.1418020"><ele>214.2</ele></trkpt>
    <trkpt lat="49.1342060" lon="6.1419440"><ele>214.8</ele></trkpt>
    <trkpt lat="49.1340390" lon="6.1421010"><ele>214.5</ele></trkpt>
    <trkpt lat="49.1339580" lon="6.1421580"><ele>214.8</ele></trkpt>
    <trkpt lat="49.1339200" lon="6.1421840"><ele>214.8</ele></trkpt>
    <trkpt lat="49.1335410" lon="6.1424420"><ele>213.8</ele></trkpt>
    <trkpt lat="49.1332890" lon="6.1426030"><ele>212.5</ele></trkpt>
    <trkpt lat="49.1330970" lon="6.1427030"><ele>212.0</ele></trkpt>
    <trkpt lat="49.1329100" lon="6.1427450"><ele>211.5</ele></trkpt>
    <trkpt lat="49.1328130" lon="6.1430130"><ele>210.2</ele></trkpt>
    <trkpt lat="49.1332270" lon="6.1432950"><ele>210.0</ele></trkpt>
    <trkpt lat="49.1333660" lon="6.1432590"><ele>210.2</ele></trkpt>
    <trkpt lat="49.1334330" lon="6.1432840"><ele>210.0</ele></trkpt>
    <trkpt lat="49.1335520" lon="6.1433960"><ele>209.5</ele></trkpt>
    <trkpt lat="49.1336450" lon="6.1435170"><ele>209.2</ele></trkpt>
    <trkpt lat="49.1338020" lon="6.1438280"><ele>207.0</ele></trkpt>
    <trkpt lat="49.1338650" lon="6.1440080"><ele>205.0</ele></trkpt>
    <trkpt lat="49.1337820" lon="6.1444880"><ele>195.2</ele></trkpt>
    <trkpt lat="49.1337450" lon="6.1446140"><ele>193.2</ele></trkpt>
    <trkpt lat="49.1337130" lon="6.1448480"><ele>190.2</ele></trkpt>
    <trkpt lat="49.1336090" lon="6.1452130"><ele>184.8</ele></trkpt>
    <trkpt lat="49.1336790" lon="6.1452790"><ele>184.5</ele></trkpt>
    <trkpt lat="49.1337980" lon="6.1453680"><ele>184.8</ele></trkpt>
    <trkpt lat="49.1339190" lon="6.1454920"><ele>184.2</ele></trkpt>
    <trkpt lat="49.1335970" lon="6.1459540"><ele>179.0</ele></trkpt>
    <trkpt lat="49.1335490" lon="6.1460480"><ele>178.0</ele></trkpt>
    <trkpt lat="49.1334650" lon="6.1463820"><ele>175.0</ele></trkpt>
    <trkpt lat="49.1334170" lon="6.1465350"><ele>173.0</ele></trkpt>
    <trkpt lat="49.1332080" lon="6.1468840"><ele>168.5</ele></trkpt>
    <trkpt lat="49.1331520" lon="6.1469900"><ele>167.8</ele></trkpt>
    <trkpt lat="49.1331250" lon="6.1469830"><ele>167.8</ele></trkpt>
    <trkpt lat="49.1330520" lon="6.1472240"><ele>166.8</ele></trkpt>
    <trkpt lat="49.1330370" lon="6.1472670"><ele>167.0</ele></trkpt>
    <trkpt lat="49.1330220" lon="6.1473100"><ele>167.0</ele></trkpt>
    <trkpt lat="49.1327620" lon="6.1480330"><ele>167.0</ele></trkpt>
    <trkpt lat="49.1326610" lon="6.1483570"><ele>167.0</ele></trkpt>
    <trkpt lat="49.1326110" lon="6.1485290"><ele>167.0</ele></trkpt>
    <trkpt lat="49.1325580" lon="6.1489000"><ele>167.0</ele></trkpt>
    <trkpt lat="49.1325470" lon="6.1490050"><ele>167.0</ele></trkpt>
    <trkpt lat="49.1324990" lon="6.1495000"><ele>167.0</ele></trkpt>
    <trkpt lat="49.1324690" lon="6.1498380"><ele>167.0</ele></trkpt>
    <trkpt lat="49.1324600" lon="6.1499040"><ele>167.0</ele></trkpt>
    <trkpt lat="49.1324440" lon="6.1499500"><ele>167.0</ele></trkpt>
    <trkpt lat="49.1324270" lon="6.1499970"><ele>167.0</ele></trkpt>
    <trkpt lat="49.1323870" lon="6.1500690"><ele>167.0</ele></trkpt>
    <trkpt lat="49.1321030" lon="6.1506360"><ele>167.0</ele></trkpt>
    <trkpt lat="49.1317640" lon="6.1512970"><ele>167.0</ele></trkpt>
    <trkpt lat="49.1316840" lon="6.1514370"><ele>167.0</ele></trkpt>
    <trkpt lat="49.1316070" lon="6.1515530"><ele>167.0</ele></trkpt>
    <trkpt lat="49.1314140" lon="6.1517640"><ele>167.0</ele></trkpt>
    <trkpt lat="49.1314070" lon="6.1517730"><ele>167.0</ele></trkpt>
    <trkpt lat="49.1312740" lon="6.1519160"><ele>167.0</ele></trkpt>
    <trkpt lat="49.1311710" lon="6.1519920"><ele>167.0</ele></trkpt>
    <trkpt lat="49.1311080" lon="6.1520390"><ele>167.0</ele></trkpt>
    <trkpt lat="49.1310310" lon="6.1520940"><ele>167.0</ele></trkpt>
    <trkpt lat="49.1309240" lon="6.1521700"><ele>167.0</ele></trkpt>
    <trkpt lat="49.1308010" lon="6.1522570"><ele>167.0</ele></trkpt>
    <trkpt lat="49.1306880" lon="6.1523780"><ele>167.0</ele></trkpt>
    <trkpt lat="49.1306150" lon="6.1524730"><ele>167.0</ele></trkpt>
    <trkpt lat="49.1305390" lon="6.1525930"><ele>167.0</ele></trkpt>
    <trkpt lat="49.1303930" lon="6.1528970"><ele>167.0</ele></trkpt>
    <trkpt lat="49.1301160" lon="6.1534770"><ele>167.0</ele></trkpt>
    <trkpt lat="49.1298810" lon="6.1539360"><ele>166.2</ele></trkpt>
    <trkpt lat="49.1298610" lon="6.1539970"><ele>166.5</ele></trkpt>
    <trkpt lat="49.1298570" lon="6.1540550"><ele>166.2</ele></trkpt>
    <trkpt lat="49.1297960" lon="6.1547920"><ele>166.2</ele></trkpt>
    <trkpt lat="49.1297700" lon="6.1549180"><ele>166.8</ele></trkpt>
    <trkpt lat="49.1297500" lon="6.1550190"><ele>167.0</ele></trkpt>
    <trkpt lat="49.1296280" lon="6.1553910"><ele>166.2</ele></trkpt>
    <trkpt lat="49.1296030" lon="6.1554510"><ele>166.0</ele></trkpt>
    <trkpt lat="49.1295630" lon="6.1555500"><ele>166.0</ele></trkpt>
    <trkpt lat="49.1295090" lon="6.1556330"><ele>166.0</ele></trkpt>
    <trkpt lat="49.1294750" lon="6.1556860"><ele>166.0</ele></trkpt>
    <trkpt lat="49.1291970" lon="6.1559820"><ele>165.8</ele></trkpt>
    <trkpt lat="49.1289310" lon="6.1562460"><ele>166.0</ele></trkpt>
    <trkpt lat="49.1287060" lon="6.1564860"><ele>166.0</ele></trkpt>
    <trkpt lat="49.1286810" lon="6.1565190"><ele>166.0</ele></trkpt>
    <trkpt lat="49.1284360" lon="6.1568370"><ele>166.0</ele></trkpt>
    <trkpt lat="49.1282330" lon="6.1571090"><ele>166.0</ele></trkpt>
    <trkpt lat="49.1282090" lon="6.1571440"><ele>166.0</ele></trkpt>
    <trkpt lat="49.1281650" lon="6.1572070"><ele>166.0</ele></trkpt>
    <trkpt lat="49.1281120" lon="6.1572790"><ele>166.0</ele></trkpt>
    <trkpt lat="49.1278770" lon="6.1575980"><ele>166.2</ele></trkpt>
    <trkpt lat="49.1276370" lon="6.1579250"><ele>166.2</ele></trkpt>
    <trkpt lat="49.1275610" lon="6.1580200"><ele>166.0</ele></trkpt>
    <trkpt lat="49.1275400" lon="6.1580470"><ele>166.0</ele></trkpt>
    <trkpt lat="49.1274520" lon="6.1581590"><ele>166.0</ele></trkpt>
    <trkpt lat="49.1274420" lon="6.1581720"><ele>166.0</ele></trkpt>
    <trkpt lat="49.1273830" lon="6.1582460"><ele>166.0</ele></trkpt>
    <trkpt lat="49.1273770" lon="6.1582540"><ele>166.0</ele></trkpt>
    <trkpt lat="49.1270200" lon="6.1587170"><ele>166.0</ele></trkpt>
    <trkpt lat="49.1268700" lon="6.1589120"><ele>166.0</ele></trkpt>
    <trkpt lat="49.1268730" lon="6.1589640"><ele>166.0</ele></trkpt>
    <trkpt lat="49.1268810" lon="6.1590740"><ele>166.0</ele></trkpt>
    <trkpt lat="49.1268600" lon="6.1591020"><ele>166.0</ele></trkpt>
    <trkpt lat="49.1268900" lon="6.1592030"><ele>166.5</ele></trkpt>
    <trkpt lat="49.1268900" lon="6.1592810"><ele>167.8</ele></trkpt>
    <trkpt lat="49.1268380" lon="6.1592520"><ele>167.5</ele></trkpt>
    <trkpt lat="49.1267810" lon="6.1594580"><ele>171.5</ele></trkpt>
    <trkpt lat="49.1268590" lon="6.1595000"><ele>171.0</ele></trkpt>
    <trkpt lat="49.1268330" lon="6.1596200"><ele>171.2</ele></trkpt>
    <trkpt lat="49.1267680" lon="6.1595960"><ele>171.5</ele></trkpt>
    <trkpt lat="49.1267440" lon="6.1596330"><ele>171.5</ele></trkpt>
    <trkpt lat="49.1267100" lon="6.1596720"><ele>171.2</ele></trkpt>
    <trkpt lat="49.1267450" lon="6.1598260"><ele>169.8</ele></trkpt>
    <trkpt lat="49.1267440" lon="6.1598590"><ele>169.8</ele></trkpt>
    <trkpt lat="49.1264950" lon="6.1618690"><ele>171.5</ele></trkpt>
    <trkpt lat="49.1264760" lon="6.1619530"><ele>171.8</ele></trkpt>
    <trkpt lat="49.1264500" lon="6.1620720"><ele>171.8</ele></trkpt>
    <trkpt lat="49.1263950" lon="6.1621770"><ele>171.8</ele></trkpt>
    <trkpt lat="49.1263880" lon="6.1622400"><ele>171.8</ele></trkpt>
    <trkpt lat="49.1263680" lon="6.1623680"><ele>171.5</ele></trkpt>
    <trkpt lat="49.1263380" lon="6.1624740"><ele>171.0</ele></trkpt>
    <trkpt lat="49.1263090" lon="6.1625520"><ele>170.5</ele></trkpt>
    <trkpt lat="49.1263210" lon="6.1626120"><ele>170.8</ele></trkpt>
    <trkpt lat="49.1263230" lon="6.1626670"><ele>170.8</ele></trkpt>
    <trkpt lat="49.1262930" lon="6.1627900"><ele>170.0</ele></trkpt>
    <trkpt lat="49.1262500" lon="6.1628750"><ele>169.5</ele></trkpt>
    <trkpt lat="49.1257430" lon="6.1637010"><ele>169.2</ele></trkpt>
    <trkpt lat="49.1256880" lon="6.1637690"><ele>170.0</ele></trkpt>
    <trkpt lat="49.1256130" lon="6.1638500"><ele>170.8</ele></trkpt>
    <trkpt lat="49.1255050" lon="6.1639310"><ele>170.5</ele></trkpt>
    <trkpt lat="49.1250330" lon="6.1642510"><ele>168.0</ele></trkpt>
    <trkpt lat="49.1249740" lon="6.1642930"><ele>167.8</ele></trkpt>
    <trkpt lat="49.1249280" lon="6.1643060"><ele>167.5</ele></trkpt>
    <trkpt lat="49.1248900" lon="6.1643350"><ele>167.5</ele></trkpt>
    <trkpt lat="49.1248560" lon="6.1643630"><ele>167.2</ele></trkpt>
    <trkpt lat="49.1248380" lon="6.1643940"><ele>167.2</ele></trkpt>
    <trkpt lat="49.1239520" lon="6.1650100"><ele>167.0</ele></trkpt>
    <trkpt lat="49.1237560" lon="6.1651560"><ele>167.2</ele></trkpt>
    <trkpt lat="49.1237360" lon="6.1651640"><ele>167.2</ele></trkpt>
    <trkpt lat="49.1236990" lon="6.1651750"><ele>167.2</ele></trkpt>
    <trkpt lat="49.1236700" lon="6.1651960"><ele>167.5</ele></trkpt>
    <trkpt lat="49.1235690" lon="6.1652830"><ele>167.0</ele></trkpt>
    <trkpt lat="49.1235300" lon="6.1653070"><ele>166.0</ele></trkpt>
    <trkpt lat="49.1235030" lon="6.1653480"><ele>165.5</ele></trkpt>
    <trkpt lat="49.1234540" lon="6.1654160"><ele>164.5</ele></trkpt>
    <trkpt lat="49.1234450" lon="6.1654260"><ele>164.5</ele></trkpt>
    <trkpt lat="49.1228020" lon="6.1662220"><ele>165.8</ele></trkpt>
    <trkpt lat="49.1219650" lon="6.1672210"><ele>167.5</ele></trkpt>
    <trkpt lat="49.1219100" lon="6.1672560"><ele>167.5</ele></trkpt>
    <trkpt lat="49.1218430" lon="6.1672620"><ele>168.2</ele></trkpt>
    <trkpt lat="49.1217830" lon="6.1672410"><ele>168.8</ele></trkpt>
    <trkpt lat="49.1217780" lon="6.1672990"><ele>169.0</ele></trkpt>
    <trkpt lat="49.1217750" lon="6.1673420"><ele>169.0</ele></trkpt>
    <trkpt lat="49.1217730" lon="6.1673680"><ele>169.2</ele></trkpt>
    <trkpt lat="49.1216290" lon="6.1675070"><ele>170.2</ele></trkpt>
    <trkpt lat="49.1216010" lon="6.1675330"><ele>170.2</ele></trkpt>
    <trkpt lat="49.1215720" lon="6.1675720"><ele>170.5</ele></trkpt>
    <trkpt lat="49.1215390" lon="6.1676180"><ele>170.5</ele></trkpt>
    <trkpt lat="49.1214890" lon="6.1677250"><ele>170.0</ele></trkpt>
    <trkpt lat="49.1210780" lon="6.1683920"><ele>168.8</ele></trkpt>
    <trkpt lat="49.1210500" lon="6.1684240"><ele>168.5</ele></trkpt>
    <trkpt lat="49.1210130" lon="6.1684200"><ele>168.8</ele></trkpt>
    <trkpt lat="49.1209760" lon="6.1683900"><ele>168.8</ele></trkpt>
    <trkpt lat="49.1209480" lon="6.1684710"><ele>168.8</ele></trkpt>
    <trkpt lat="49.1209080" lon="6.1685870"><ele>168.8</ele></trkpt>
    <trkpt lat="49.1208920" lon="6.1686320"><ele>168.8</ele></trkpt>
    <trkpt lat="49.1209170" lon="6.1686520"><ele>168.5</ele></trkpt>
    <trkpt lat="49.1209020" lon="6.1686770"><ele>168.8</ele></trkpt>
    <trkpt lat="49.1207570" lon="6.1689150"><ele>169.0</ele></trkpt>
    <trkpt lat="49.1207900" lon="6.1689680"><ele>168.8</ele></trkpt>
    <trkpt lat="49.1206230" lon="6.1692310"><ele>169.0</ele></trkpt>
    <trkpt lat="49.1206140" lon="6.1692460"><ele>169.2</ele></trkpt>
    <trkpt lat="49.1205970" lon="6.1692690"><ele>169.2</ele></trkpt>
    <trkpt lat="49.1205730" lon="6.1692990"><ele>169.2</ele></trkpt>
    <trkpt lat="49.1200260" lon="6.1699640"><ele>169.0</ele></trkpt>
    <trkpt lat="49.1200060" lon="6.1699880"><ele>169.0</ele></trkpt>
    <trkpt lat="49.1199820" lon="6.1700170"><ele>168.8</ele></trkpt>
    <trkpt lat="49.1199310" lon="6.1700790"><ele>168.8</ele></trkpt>
    <trkpt lat="49.1199050" lon="6.1701490"><ele>168.8</ele></trkpt>
    <trkpt lat="49.1198490" lon="6.1702460"><ele>169.0</ele></trkpt>
    <trkpt lat="49.1198160" lon="6.1702950"><ele>169.0</ele></trkpt>
    <trkpt lat="49.1194160" lon="6.1709210"><ele>168.0</ele></trkpt>
    <trkpt lat="49.1193840" lon="6.1709920"><ele>169.5</ele></trkpt>
    <trkpt lat="49.1193900" lon="6.1710220"><ele>169.8</ele></trkpt>
    <trkpt lat="49.1193520" lon="6.1710740"><ele>170.8</ele></trkpt>
    <trkpt lat="49.1193190" lon="6.1711350"><ele>171.2</ele></trkpt>
    <trkpt lat="49.1192770" lon="6.1710840"><ele>171.2</ele></trkpt>
    <trkpt lat="49.1192690" lon="6.1710960"><ele>171.5</ele></trkpt>
    <trkpt lat="49.1192510" lon="6.1711240"><ele>171.5</ele></trkpt>
    <trkpt lat="49.1191170" lon="6.1713320"><ele>171.2</ele></trkpt>
    <trkpt lat="49.1190370" lon="6.1714560"><ele>171.5</ele></trkpt>
    <trkpt lat="49.1190010" lon="6.1714090"><ele>171.5</ele></trkpt>
    <trkpt lat="49.1188820" lon="6.1711100"><ele>172.0</ele></trkpt>
    <trkpt lat="49.1187000" lon="6.1708060"><ele>172.5</ele></trkpt>
    <trkpt lat="49.1185560" lon="6.1705930"><ele>172.2</ele></trkpt>
    <trkpt lat="49.1181690" lon="6.1701190"><ele>176.0</ele></trkpt>
    <trkpt lat="49.1179200" lon="6.1705540"><ele>176.8</ele></trkpt>
    <trkpt lat="49.1179050" lon="6.1705510"><ele>177.2</ele></trkpt>
    <trkpt lat="49.1178470" lon="6.1706680"><ele>179.2</ele></trkpt>
    <trkpt lat="49.1178330" lon="6.1706520"><ele>179.2</ele></trkpt>
    <trkpt lat="49.1175580" lon="6.1711600"><ele>181.8</ele></trkpt>
    <trkpt lat="49.1173340" lon="6.1716520"><ele>183.0</ele></trkpt>
    <trkpt lat="49.1172640" lon="6.1717860"><ele>183.0</ele></trkpt>
    <trkpt lat="49.1170610" lon="6.1721570"><ele>182.0</ele></trkpt>
    <trkpt lat="49.1169280" lon="6.1724080"><ele>181.2</ele></trkpt>
    <trkpt lat="49.1168340" lon="6.1725780"><ele>181.0</ele></trkpt>
    <trkpt lat="49.1166020" lon="6.1731420"><ele>179.0</ele></trkpt>
    <trkpt lat="49.1165770" lon="6.1730940"><ele>179.0</ele></trkpt>
    <trkpt lat="49.1163050" lon="6.1728320"><ele>179.0</ele></trkpt>
    <trkpt lat="49.1162270" lon="6.1727720"><ele>179.0</ele></trkpt>
    <trkpt lat="49.1161960" lon="6.1728450"><ele>179.0</ele></trkpt>
    <trkpt lat="49.1160400" lon="6.1731540"><ele>178.2</ele></trkpt>
    <trkpt lat="49.1157030" lon="6.1738750"><ele>177.0</ele></trkpt>
    <trkpt lat="49.1156050" lon="6.1740510"><ele>177.0</ele></trkpt>
    <trkpt lat="49.1155540" lon="6.1740090"><ele>177.0</ele></trkpt>
    <trkpt lat="49.1155380" lon="6.1740250"><ele>177.0</ele></trkpt>
    <trkpt lat="49.1154990" lon="6.1740920"><ele>177.0</ele></trkpt>
    <trkpt lat="49.1154230" lon="6.1740160"><ele>177.0</ele></trkpt>
    <trkpt lat="49.1154350" lon="6.1739880"><ele>177.0</ele></trkpt>
    <trkpt lat="49.1154230" lon="6.1739530"><ele>177.0</ele></trkpt>
    <trkpt lat="49.1153770" lon="6.1738790"><ele>177.0</ele></trkpt>
    <trkpt lat="49.1145640" lon="6.1730440"><ele>178.0</ele></trkpt>
    <trkpt lat="49.1145060" lon="6.1729340"><ele>178.2</ele></trkpt>
    <trkpt lat="49.1142050" lon="6.1726340"><ele>179.0</ele></trkpt>
    <trkpt lat="49.1140410" lon="6.1725080"><ele>179.0</ele></trkpt>
    <trkpt lat="49.1139040" lon="6.1724230"><ele>179.0</ele></trkpt>
    <trkpt lat="49.1138870" lon="6.1724540"><ele>179.0</ele></trkpt>
    <trkpt lat="49.1138690" lon="6.1724910"><ele>179.0</ele></trkpt>
    <trkpt lat="49.1138540" lon="6.1725200"><ele>179.0</ele></trkpt>
    <trkpt lat="49.1134630" lon="6.1732810"><ele>176.0</ele></trkpt>
    <trkpt lat="49.1134420" lon="6.1733170"><ele>176.0</ele></trkpt>
    <trkpt lat="49.1134200" lon="6.1733580"><ele>176.0</ele></trkpt>
    <trkpt lat="49.1133710" lon="6.1734400"><ele>176.0</ele></trkpt>
    <trkpt lat="49.1132550" lon="6.1736650"><ele>176.0</ele></trkpt>
    <trkpt lat="49.1131750" lon="6.1738630"><ele>176.0</ele></trkpt>
    <trkpt lat="49.1130430" lon="6.1741470"><ele>176.0</ele></trkpt>
    <trkpt lat="49.1128640" lon="6.1743900"><ele>175.2</ele></trkpt>
    <trkpt lat="49.1124800" lon="6.1749130"><ele>175.0</ele></trkpt>
    <trkpt lat="49.1124260" lon="6.1749870"><ele>175.0</ele></trkpt>
    <trkpt lat="49.1123910" lon="6.1750360"><ele>175.0</ele></trkpt>
    <trkpt lat="49.1122860" lon="6.1751970"><ele>175.0</ele></trkpt>
    <trkpt lat="49.1122640" lon="6.1752280"><ele>175.0</ele></trkpt>
    <trkpt lat="49.1122440" lon="6.1752560"><ele>175.0</ele></trkpt>
    <trkpt lat="49.1121760" lon="6.1753510"><ele>174.8</ele></trkpt>
    <trkpt lat="49.1121200" lon="6.1754290"><ele>174.5</ele></trkpt>
    <trkpt lat="49.1118440" lon="6.1758160"><ele>174.2</ele></trkpt>
    <trkpt lat="49.1117520" lon="6.1759870"><ele>174.2</ele></trkpt>
    <trkpt lat="49.1116940" lon="6.1760390"><ele>174.0</ele></trkpt>
    <trkpt lat="49.1116900" lon="6.1761840"><ele>174.0</ele></trkpt>
    <trkpt lat="49.1116290" lon="6.1761850"><ele>174.0</ele></trkpt>
    <trkpt lat="49.1116130" lon="6.1763990"><ele>174.0</ele></trkpt>
    <trkpt lat="49.1115770" lon="6.1764020"><ele>174.0</ele></trkpt>
    <trkpt lat="49.1115080" lon="6.1763740"><ele>174.0</ele></trkpt>
    <trkpt lat="49.1114630" lon="6.1763780"><ele>174.0</ele></trkpt>
    <trkpt lat="49.1114120" lon="6.1763820"><ele>174.0</ele></trkpt>
    <trkpt lat="49.1113670" lon="6.1763860"><ele>174.0</ele></trkpt>
    <trkpt lat="49.1112590" lon="6.1765350"><ele>174.0</ele></trkpt>
    <trkpt lat="49.1112470" lon="6.1765520"><ele>174.0</ele></trkpt>
    <trkpt lat="49.1112620" lon="6.1765850"><ele>174.0</ele></trkpt>
    <trkpt lat="49.1112360" lon="6.1766220"><ele>174.0</ele></trkpt>
    <trkpt lat="49.1112620" lon="6.1766730"><ele>174.0</ele></trkpt>
    <trkpt lat="49.1112160" lon="6.1767280"><ele>174.0</ele></trkpt>
    <trkpt lat="49.1110950" lon="6.1768730"><ele>174.0</ele></trkpt>
    <trkpt lat="49.1110900" lon="6.1769010"><ele>174.0</ele></trkpt>
    <trkpt lat="49.1109300" lon="6.1769320"><ele>174.0</ele></trkpt>
    <trkpt lat="49.1107760" lon="6.1769420"><ele>174.0</ele></trkpt>
    <trkpt lat="49.1105880" lon="6.1769420"><ele>174.0</ele></trkpt>
    <trkpt lat="49.1105460" lon="6.1769430"><ele>173.8</ele></trkpt>
    <trkpt lat="49.1104880" lon="6.1769460"><ele>173.8</ele></trkpt>
    <trkpt lat="49.1104060" lon="6.1769440"><ele>174.0</ele></trkpt>
    <trkpt lat="49.1102540" lon="6.1766380"><ele>174.0</ele></trkpt>
    <trkpt lat="49.1102330" lon="6.1766610"><ele>174.0</ele></trkpt>
    <trkpt lat="49.1101660" lon="6.1767370"><ele>174.0</ele></trkpt>
    <trkpt lat="49.1101280" lon="6.1767800"><ele>174.0</ele></trkpt>
    <trkpt lat="49.1100150" lon="6.1769620"><ele>173.8</ele></trkpt>
    <trkpt lat="49.1099770" lon="6.1770100"><ele>174.2</ele></trkpt>
    <trkpt lat="49.1099000" lon="6.1770060"><ele>175.5</ele></trkpt>
    <trkpt lat="49.1098720" lon="6.1770370"><ele>176.0</ele></trkpt>
    <trkpt lat="49.1097880" lon="6.1771340"><ele>178.0</ele></trkpt>
    <trkpt lat="49.1096300" lon="6.1773040"><ele>179.8</ele></trkpt>
    <trkpt lat="49.1095730" lon="6.1773630"><ele>179.5</ele></trkpt>
    <trkpt lat="49.1095400" lon="6.1773130"><ele>179.8</ele></trkpt>
    <trkpt lat="49.1095290" lon="6.1772910"><ele>179.8</ele></trkpt>
    <trkpt lat="49.1094690" lon="6.1771660"><ele>179.8</ele></trkpt>
    <trkpt lat="49.1094370" lon="6.1771030"><ele>179.8</ele></trkpt>
    <trkpt lat="49.1093930" lon="6.1771540"><ele>179.8</ele></trkpt>
    <trkpt lat="49.1093080" lon="6.1769770"><ele>179.2</ele></trkpt>
  </trkseg></trk>
</gpx>