<?xml version="1.0" encoding="UTF-8"?>
<gpx version="1.1" creator="olifant"
     xmlns="http://www.topografix.com/GPX/1/1"
     xmlns:xsi="http://www.w3.org/2001/XMLSchema-instance"
     xsi:schemaLocation="http://www.topografix.com/GPX/1/1 http://www.topografix.com/GPX/1/1/gpx.xsd">
  <metadata><name>Les deux rives</name><desc>14.2 km. D+ 28 m. 42 % de chemins. La Moselle dans les deux sens : on descend par l'Esplanade et l'ile du Saulcy, on remonte par les bras morts de Longeville et les prairies Jean-Marie Pelt.</desc></metadata>
  <wpt lat="49.1092770" lon="6.1770130"><name>Gare de Metz, parvis</name><desc>Point de ralliement des boucles a pied : a moins d'un quart d'heure de marche pour tout le monde. Abrite, cafe ouvert tot, toilettes.</desc></wpt>
  <wpt lat="49.1159680" lon="6.1705190"><name>Jardin de l'Esplanade</name><desc>Terrasse au-dessus de la Moselle, vue sur le Mont Saint-Quentin.</desc></wpt>
  <wpt lat="49.1201090" lon="6.1612490"><name>Ile du Saulcy</name><desc>Ile universitaire, tres calme hors semestre. Cygnes sur les deux bras.</desc></wpt>
  <wpt lat="49.1179290" lon="6.1510520"><name>Le Grand Patural, Ban-Saint-Martin</name><desc>Prairie et promenade au bord de la Moselle, juste avant de quitter la ville.</desc></wpt>
  <wpt lat="49.1152450" lon="6.1361240"><name>Longeville-les-Metz</name><desc>Rive droite, entre les jardins et le bras de la Moselle.</desc></wpt>
  <wpt lat="49.1030600" lon="6.1316900"><name>Prairies Jean-Marie Pelt</name></wpt>
  <trk><name>Les deux rives</name><trkseg>
    <trkpt lat="49.1093080" lon="6.1769770"><ele>179.5</ele></trkpt>
    <trkpt lat="49.1093930" lon="6.1771540"><ele>179.8</ele></trkpt>
    <trkpt lat="49.1094370" lon="6.1771030"><ele>179.8</ele></trkpt>
    <trkpt lat="49.1094690" lon="6.1771660"><ele>179.8</ele></trkpt>
    <trkpt lat="49.1095290" lon="6.1772910"><ele>179.8</ele></trkpt>
    <trkpt lat="49.1095400" lon="6.1773130"><ele>179.8</ele></trkpt>
    <trkpt lat="49.1095730" lon="6.1773630"><ele>179.5</ele></trkpt>
    <trkpt lat="49.1096300" lon="6.1773040"><ele>179.8</ele></trkpt>
    <trkpt lat="49.1097880" lon="6.1771340"><ele>178.0</ele></trkpt>
    <trkpt lat="49.1098720" lon="6.1770370"><ele>176.0</ele></trkpt>
    <trkpt lat="49.1099000" lon="6.1770060"><ele>175.5</ele></trkpt>
    <trkpt lat="49.1099770" lon="6.1770100"><ele>174.2</ele></trkpt>
    <trkpt lat="49.1100150" lon="6.1769620"><ele>173.8</ele></trkpt>
    <trkpt lat="49.1101280" lon="6.1767800"><ele>174.0</ele></trkpt>
    <trkpt lat="49.1101660" lon="6.1767370"><ele>174.0</ele></trkpt>
    <trkpt lat="49.1102330" lon="6.1766610"><ele>174.0</ele></trkpt>
    <trkpt lat="49.1102540" lon="6.1766380"><ele>174.0</ele></trkpt>
    <trkpt lat="49.1104060" lon="6.1769440"><ele>174.0</ele></trkpt>
    <trkpt lat="49.1104880" lon="6.1769460"><ele>173.8</ele></trkpt>
    <trkpt lat="49.1105460" lon="6.1769430"><ele>173.8</ele></trkpt>
    <trkpt lat="49.1105880" lon="6.1769420"><ele>174.0</ele></trkpt>
    <trkpt lat="49.1107760" lon="6.1769420"><ele>174.0</ele></trkpt>
    <trkpt lat="49.1109300" lon="6.1769320"><ele>174.0</ele></trkpt>
    <trkpt lat="49.1110900" lon="6.1769010"><ele>174.0</ele></trkpt>
    <trkpt lat="49.1110950" lon="6.1768730"><ele>174.0</ele></trkpt>
    <trkpt lat="49.1112160" lon="6.1767280"><ele>174.0</ele></trkpt>
    <trkpt lat="49.1112620" lon="6.1766730"><ele>174.0</ele></trkpt>
    <trkpt lat="49.1112360" lon="6.1766220"><ele>174.0</ele></trkpt>
    <trkpt lat="49.1112620" lon="6.1765850"><ele>174.0</ele></trkpt>
    <trkpt lat="49.1112740" lon="6.1765680"><ele>174.0</ele></trkpt>
    <trkpt lat="49.1112590" lon="6.1765350"><ele>174.0</ele></trkpt>
    <trkpt lat="49.1113670" lon="6.1763860"><ele>174.0</ele></trkpt>
    <trkpt lat="49.1114120" lon="6.1763820"><ele>174.0</ele></trkpt>
    <trkpt lat="49.1114630" lon="6.1763780"><ele>174.0</ele></trkpt>
    <trkpt lat="49.1115080" lon="6.1763740"><ele>174.0</ele></trkpt>
    <trkpt lat="49.1115770" lon="6.1764020"><ele>174.0</ele></trkpt>
    <trkpt lat="49.1116130" lon="6.1763990"><ele>174.0</ele></trkpt>
    <trkpt lat="49.1116290" lon="6.1761850"><ele>174.0</ele></trkpt>
    <trkpt lat="49.1116900" lon="6.1761840"><ele>174.0</ele></trkpt>
    <trkpt lat="49.1117440" lon="6.1761830"><ele>174.0</ele></trkpt>
    <trkpt lat="49.1117450" lon="6.1760760"><ele>174.0</ele></trkpt>
    <trkpt lat="49.1117550" lon="6.1760360"><ele>174.0</ele></trkpt>
    <trkpt lat="49.1117520" lon="6.1759870"><ele>174.2</ele></trkpt>
    <trkpt lat="49.1118440" lon="6.1758160"><ele>174.2</ele></trkpt>
    <trkpt lat="49.1121200" lon="6.1754290"><ele>174.5</ele></trkpt>
    <trkpt lat="49.1121760" lon="6.1753510"><ele>174.8</ele></trkpt>
    <trkpt lat="49.1122440" lon="6.1752560"><ele>175.0</ele></trkpt>
    <trkpt lat="49.1122640" lon="6.1752280"><ele>175.0</ele></trkpt>
    <trkpt lat="49.1122860" lon="6.1751970"><ele>175.0</ele></trkpt>
    <trkpt lat="49.1123910" lon="6.1750360"><ele>175.0</ele></trkpt>
    <trkpt lat="49.1124260" lon="6.1749870"><ele>175.0</ele></trkpt>
    <trkpt lat="49.1124800" lon="6.1749130"><ele>175.0</ele></trkpt>
    <trkpt lat="49.1128640" lon="6.1743900"><ele>175.2</ele></trkpt>
    <trkpt lat="49.1130430" lon="6.1741470"><ele>176.0</ele></trkpt>
    <trkpt lat="49.1131750" lon="6.1738630"><ele>176.0</ele></trkpt>
    <trkpt lat="49.1132550" lon="6.1736650"><ele>176.0</ele></trkpt>
    <trkpt lat="49.1133710" lon="6.1734400"><ele>176.0</ele></trkpt>
    <trkpt lat="49.1134200" lon="6.1733580"><ele>176.0</ele></trkpt>
    <trkpt lat="49.1134420" lon="6.1733170"><ele>176.0</ele></trkpt>
    <trkpt lat="49.1134630" lon="6.1732810"><ele>176.0</ele></trkpt>
    <trkpt lat="49.1138540" lon="6.1725200"><ele>179.0</ele></trkpt>
    <trkpt lat="49.1138690" lon="6.1724910"><ele>179.0</ele></trkpt>
    <trkpt lat="49.1138870" lon="6.1724540"><ele>179.0</ele></trkpt>
    <trkpt lat="49.1139040" lon="6.1724230"><ele>179.0</ele></trkpt>
    <trkpt lat="49.1140160" lon="6.1725710"><ele>179.0</ele></trkpt>
    <trkpt lat="49.1140750" lon="6.1726370"><ele>179.0</ele></trkpt>
    <trkpt lat="49.1141140" lon="6.1725120"><ele>179.0</ele></trkpt>
    <trkpt lat="49.1141370" lon="6.1724550"><ele>179.0</ele></trkpt>
    <trkpt lat="49.1141700" lon="6.1723000"><ele>179.5</ele></trkpt>
    <trkpt lat="49.1143650" lon="6.1718690"><ele>181.2</ele></trkpt>
    <trkpt lat="49.1146240" lon="6.1712700"><ele>182.2</ele></trkpt>
    <trkpt lat="49.1147090" lon="6.1713420"><ele>182.0</ele></trkpt>
    <trkpt lat="49.1147550" lon="6.1713320"><ele>182.0</ele></trkpt>
    <trkpt lat="49.1148080" lon="6.1713210"><ele>182.0</ele></trkpt>
    <trkpt lat="49.1148830" lon="6.1713900"><ele>181.8</ele></trkpt>
    <trkpt lat="49.1149050" lon="6.1714130"><ele>181.8</ele></trkpt>
    <trkpt lat="49.1149660" lon="6.1712740"><ele>182.2</ele></trkpt>
    <trkpt lat="49.1151010" lon="6.1713990"><ele>182.0</ele></trkpt>
    <trkpt lat="49.1152560" lon="6.1710400"><ele>182.0</ele></trkpt>
    <trkpt lat="49.1153780" lon="6.1707310"><ele>182.0</ele></trkpt>
    <trkpt lat="49.1154460" lon="6.1708020"><ele>182.0</ele></trkpt>
    <trkpt lat="49.1157780" lon="6.1701110"><ele>181.8</ele></trkpt>
    <trkpt lat="49.1158950" lon="6.1702420"><ele>181.0</ele></trkpt>
    <trkpt lat="49.1159310" lon="6.1702820"><ele>181.0</ele></trkpt>
    <trkpt lat="49.1159120" lon="6.1703340"><ele>181.0</ele></trkpt>
    <trkpt lat="49.1159050" lon="6.1703910"><ele>181.0</ele></trkpt>
    <trkpt lat="49.1159090" lon="6.1704500"><ele>181.0</ele></trkpt>
    <trkpt lat="49.1159250" lon="6.1705030"><ele>181.0</ele></trkpt>
    <trkpt lat="49.1159500" lon="6.1705470"><ele>181.0</ele></trkpt>
    <trkpt lat="49.1159550" lon="6.1705520"><ele>181.0</ele></trkpt>
    <trkpt lat="49.1159870" lon="6.1705780"><ele>181.0</ele></trkpt>
    <trkpt lat="49.1160280" lon="6.1705890"><ele>181.0</ele></trkpt>
    <trkpt lat="49.1160690" lon="6.1705790"><ele>181.0</ele></trkpt>
    <trkpt lat="49.1161050" lon="6.1705480"><ele>181.0</ele></trkpt>
    <trkpt lat="49.1161330" lon="6.1705010"><ele>181.0</ele></trkpt>
    <trkpt lat="49.1161620" lon="6.1705340"><ele>181.0</ele></trkpt>
    <trkpt lat="49.1162500" lon="6.1706320"><ele>181.5</ele></trkpt>
    <trkpt lat="49.1164970" lon="6.1701230"><ele>181.5</ele></trkpt>
    <trkpt lat="49.1167630" lon="6.1695730"><ele>180.2</ele></trkpt>
    <trkpt lat="49.1167820" lon="6.1695940"><ele>180.0</ele></trkpt>
    <trkpt lat="49.1168160" lon="6.1695190"><ele>179.2</ele></trkpt>
    <trkpt lat="49.1168860" lon="6.1694000"><ele>177.8</ele></trkpt>
    <trkpt lat="49.1171220" lon="6.1689920"><ele>177.2</ele></trkpt>
    <trkpt lat="49.1171900" lon="6.1690250"><ele>177.8</ele></trkpt>
    <trkpt lat="49.1172320" lon="6.1690450"><ele>178.0</ele></trkpt>
    <trkpt lat="49.1172730" lon="6.1690670"><ele>178.0</ele></trkpt>
    <trkpt lat="49.1174580" lon="6.1691300"><ele>178.5</ele></trkpt>
    <trkpt lat="49.1176820" lon="6.1692370"><ele>177.5</ele></trkpt>
    <trkpt lat="49.1177110" lon="6.1692620"><ele>177.5</ele></trkpt>
    <trkpt lat="49.1178250" lon="6.1693850"><ele>177.2</ele></trkpt>
    <trkpt lat="49.1181230" lon="6.1697350"><ele>178.0</ele></trkpt>
    <trkpt lat="49.1181330" lon="6.1697150"><ele>177.5</ele></trkpt>
    <trkpt lat="49.1181570" lon="6.1696660"><ele>176.2</ele></trkpt>
    <trkpt lat="49.1181770" lon="6.1696170"><ele>174.8</ele></trkpt>
    <trkpt lat="49.1182230" lon="6.1696050"><ele>173.5</ele></trkpt>
    <trkpt lat="49.1182870" lon="6.1696190"><ele>172.5</ele></trkpt>
    <trkpt lat="49.1183320" lon="6.1696410"><ele>172.2</ele></trkpt>
    <trkpt lat="49.1187420" lon="6.1699730"><ele>170.8</ele></trkpt>
    <trkpt lat="49.1191200" lon="6.1705280"><ele>169.2</ele></trkpt>
    <trkpt lat="49.1191790" lon="6.1706080"><ele>169.2</ele></trkpt>
    <trkpt lat="49.1192490" lon="6.1706860"><ele>169.2</ele></trkpt>
    <trkpt lat="49.1192690" lon="6.1706990"><ele>169.0</ele></trkpt>
    <trkpt lat="49.1192920" lon="6.1707080"><ele>169.0</ele></trkpt>
    <trkpt lat="49.1193310" lon="6.1707070"><ele>169.0</ele></trkpt>
    <trkpt lat="49.1193740" lon="6.1706930"><ele>169.0</ele></trkpt>
    <trkpt lat="49.1194130" lon="6.1706420"><ele>169.0</ele></trkpt>
    <trkpt lat="49.1196950" lon="6.1701830"><ele>168.8</ele></trkpt>
    <trkpt lat="49.1197260" lon="6.1701110"><ele>168.8</ele></trkpt>
    <trkpt lat="49.1197580" lon="6.1699540"><ele>168.8</ele></trkpt>
    <trkpt lat="49.1197540" lon="6.1698830"><ele>168.5</ele></trkpt>
    <trkpt lat="49.1197480" lon="6.1696660"><ele>168.0</ele></trkpt>
    <trkpt lat="49.1197510" lon="6.1694680"><ele>168.0</ele></trkpt>
    <trkpt lat="49.1197730" lon="6.1691990"><ele>167.2</ele></trkpt>
    <trkpt lat="49.1199040" lon="6.1687090"><ele>167.2</ele></trkpt>
    <trkpt lat="49.1201480" lon="6.1682170"><ele>166.5</ele></trkpt>
    <trkpt lat="49.1202660" lon="6.1681300"><ele>166.5</ele></trkpt>
    <trkpt lat="49.1203080" lon="6.1681070"><ele>166.5</ele></trkpt>
    <trkpt lat="49.1203160" lon="6.1680840"><ele>166.5</ele></trkpt>
    <trkpt lat="49.1203120" lon="6.1680550"><ele>166.5</ele></trkpt>
    <trkpt lat="49.1203080" lon="6.1680210"><ele>166.5</ele></trkpt>
    <trkpt lat="49.1200240" lon="6.1675010"><ele>166.8</ele></trkpt>
    <trkpt lat="49.1199850" lon="6.1674380"><ele>167.0</ele></trkpt>
    <trkpt lat="49.1200110" lon="6.1673880"><ele>167.0</ele></trkpt>
    <trkpt lat="49.1199740" lon="6.1673200"><ele>167.5</ele></trkpt>
    <trkpt lat="49.1199490" lon="6.1672160"><ele>168.0</ele></trkpt>
    <trkpt lat="49.1199400" lon="6.1671220"><ele>168.0</ele></trkpt>
    <trkpt lat="49.1199400" lon="6.1670250"><ele>168.0</ele></trkpt>
    <trkpt lat="49.1199650" lon="6.1669530"><ele>168.0</ele></trkpt>
    <trkpt lat="49.1200160" lon="6.1668450"><ele>168.0</ele></trkpt>
    <trkpt lat="49.1198940" lon="6.1667070"><ele>168.0</ele></trkpt>
    <trkpt lat="49.1198260" lon="6.1666300"><ele>168.0</ele></trkpt>
    <trkpt lat="49.1198630" lon="6.1665620"><ele>168.0</ele></trkpt>
    <trkpt lat="49.1198980" lon="6.1664940"><ele>168.0</ele></trkpt>
    <trkpt lat="49.1199570" lon="6.1663850"><ele>168.0</ele></trkpt>
    <trkpt lat="49.1199800" lon="6.1663160"><ele>168.0</ele></trkpt>
    <trkpt lat="49.1199880" lon="6.1662610"><ele>168.0</ele></trkpt>
    <trkpt lat="49.1199910" lon="6.1661750"><ele>168.0</ele></trkpt>
    <trkpt lat="49.1199720" lon="6.1661250"><ele>168.0</ele></trkpt>
    <trkpt lat="49.1199260" lon="6.1660010"><ele>168.0</ele></trkpt>
    <trkpt lat="49.1199470" lon="6.1659350"><ele>168.0</ele></trkpt>
    <trkpt lat="49.1199840" lon="6.1659370"><ele>168.0</ele></trkpt>
    <trkpt lat="49.1200120" lon="6.1659190"><ele>168.0</ele></trkpt>
    <trkpt lat="49.1201160" lon="6.1657680"><ele>167.8</ele></trkpt>
    <trkpt lat="49.1201550" lon="6.1656830"><ele>167.8</ele></trkpt>
    <trkpt lat="49.1201850" lon="6.1655510"><ele>167.5</ele></trkpt>
    <trkpt lat="49.1202040" lon="6.1654300"><ele>167.5</ele></trkpt>
    <trkpt lat="49.1202330" lon="6.1650630"><ele>167.8</ele></trkpt>
    <trkpt lat="49.1202690" lon="6.1647530"><ele>167.8</ele></trkpt>
    <trkpt lat="49.1203080" lon="6.1644890"><ele>168.0</ele></trkpt>
    <trkpt lat="49.1203410" lon="6.1643110"><ele>167.5</ele></trkpt>
    <trkpt lat="49.1203630" lon="6.1642400"><ele>167.2</ele></trkpt>
    <trkpt lat="49.1203880" lon="6.1641210"><ele>167.2</ele></trkpt>
    <trkpt lat="49.1204150" lon="6.1636870"><ele>167.5</ele></trkpt>
    <trkpt lat="49.1203940" lon="6.1632550"><ele>167.0</ele></trkpt>
    <trkpt lat="49.1203880" lon="6.1631900"><ele>167.0</ele></trkpt>
    <trkpt lat="49.1203640" lon="6.1631110"><ele>167.0</ele></trkpt>
    <trkpt lat="49.1203720" lon="6.1630880"><ele>167.0</ele></trkpt>
    <trkpt lat="49.1203710" lon="6.1630360"><ele>167.0</ele></trkpt>
    <trkpt lat="49.1203660" lon="6.1628970"><ele>167.0</ele></trkpt>
    <trkpt lat="49.1203380" lon="6.1628100"><ele>167.0</ele></trkpt>
    <trkpt lat="49.1202790" lon="6.1623910"><ele>166.8</ele></trkpt>
    <trkpt lat="49.1202160" lon="6.1619570"><ele>167.0</ele></trkpt>
    <trkpt lat="49.1201620" lon="6.1615810"><ele>167.0</ele></trkpt>
    <trkpt lat="49.1201140" lon="6.1612450"><ele>167.0</ele></trkpt>
    <trkpt lat="49.1201090" lon="6.1612430"><ele>167.5</ele></trkpt>
    <trkpt lat="49.1197950" lon="6.1611120"><ele>167.5</ele></trkpt>
    <trkpt lat="49.1197000" lon="6.1609040"><ele>167.2</ele></trkpt>
    <trkpt lat="49.1196830" lon="6.1608030"><ele>167.2</ele></trkpt>
    <trkpt lat="49.1194620" lon="6.1608800"><ele>167.8</ele></trkpt>
    <trkpt lat="49.1194370" lon="6.1608890"><ele>168.0</ele></trkpt>
    <trkpt lat="49.1193830" lon="6.1608360"><ele>168.0</ele></trkpt>
    <trkpt lat="49.1193110" lon="6.1608110"><ele>168.5</ele></trkpt>
    <trkpt lat="49.1192360" lon="6.1607540"><ele>169.2</ele></trkpt>
    <trkpt lat="49.1191870" lon="6.1606800"><ele>170.0</ele></trkpt>
    <trkpt lat="49.1191400" lon="6.1606310"><ele>170.2</ele></trkpt>
    <trkpt lat="49.1190810" lon="6.1605930"><ele>170.2</ele></trkpt>
    <trkpt lat="49.1190320" lon="6.1605840"><ele>170.2</ele></trkpt>
    <trkpt lat="49.1188230" lon="6.1606150"><ele>168.5</ele></trkpt>
    <trkpt lat="49.1182470" lon="6.1607230"><ele>168.8</ele></trkpt>
    <trkpt lat="49.1181150" lon="6.1607770"><ele>169.8</ele></trkpt>
    <trkpt lat="49.1182340" lon="6.1608430"><ele>168.5</ele></trkpt>
    <trkpt lat="49.1183730" lon="6.1607530"><ele>167.5</ele></trkpt>
    <trkpt lat="49.1183120" lon="6.1604360"><ele>167.8</ele></trkpt>
    <trkpt lat="49.1182310" lon="6.1601360"><ele>167.8</ele></trkpt>
    <trkpt lat="49.1182070" lon="6.1600500"><ele>167.5</ele></trkpt>
    <trkpt lat="49.1181380" lon="6.1599080"><ele>167.8</ele></trkpt>
    <trkpt lat="49.1178830" lon="6.1593070"><ele>167.5</ele></trkpt>
    <trkpt lat="49.1178280" lon="6.1591480"><ele>168.2</ele></trkpt>
    <trkpt lat="49.1177680" lon="6.1589450"><ele>168.0</ele></trkpt>
    <trkpt lat="49.1176420" lon="6.1583190"><ele>167.2</ele></trkpt>
    <trkpt lat="49.1175980" lon="6.1579790"><ele>167.2</ele></trkpt>
    <trkpt lat="49.1176110" lon="6.1576990"><ele>167.0</ele></trkpt>
    <trkpt lat="49.1176590" lon="6.1572550"><ele>167.5</ele></trkpt>
    <trkpt lat="49.1177530" lon="6.1566650"><ele>166.8</ele></trkpt>
    <trkpt lat="49.1178020" lon="6.1562680"><ele>165.8</ele></trkpt>
    <trkpt lat="49.1177910" lon="6.1562090"><ele>166.0</ele></trkpt>
    <trkpt lat="49.1177690" lon="6.1561370"><ele>166.0</ele></trkpt>
    <trkpt lat="49.1177550" lon="6.1560450"><ele>166.0</ele></trkpt>
    <trkpt lat="49.1177760" lon="6.1557120"><ele>166.0</ele></trkpt>
    <trkpt lat="49.1177890" lon="6.1556250"><ele>166.0</ele></trkpt>
    <trkpt lat="49.1177960" lon="6.1553810"><ele>166.5</ele></trkpt>
    <trkpt lat="49.1177960" lon="6.1551300"><ele>166.8</ele></trkpt>
    <trkpt lat="49.1178060" lon="6.1550950"><ele>166.8</ele></trkpt>
    <trkpt lat="49.1177000" lon="6.1548610"><ele>167.0</ele></trkpt>
    <trkpt lat="49.1176760" lon="6.1547520"><ele>167.2</ele></trkpt>
    <trkpt lat="49.1176610" lon="6.1545830"><ele>167.2</ele></trkpt>
    <trkpt lat="49.1176580" lon="6.1544150"><ele>167.2</ele></trkpt>
    <trkpt lat="49.1176720" lon="6.1543170"><ele>167.2</ele></trkpt>
    <trkpt lat="49.1177120" lon="6.1541800"><ele>167.0</ele></trkpt>
    <trkpt lat="49.1177530" lon="6.1535600"><ele>167.0</ele></trkpt>
    <trkpt lat="49.1178190" lon="6.1529020"><ele>167.8</ele></trkpt>
    <trkpt lat="49.1178560" lon="6.1526330"><ele>167.5</ele></trkpt>
    <trkpt lat="49.1178930" lon="6.1522690"><ele>167.5</ele></trkpt>
    <trkpt lat="49.1179380" lon="6.1519000"><ele>167.2</ele></trkpt>
    <trkpt lat="49.1179630" lon="6.1516560"><ele>167.2</ele></trkpt>
    <trkpt lat="49.1179490" lon="6.1512970"><ele>167.2</ele></trkpt>
    <trkpt lat="49.1179340" lon="6.1511750"><ele>167.2</ele></trkpt>
    <trkpt lat="49.1179120" lon="6.1510580"><ele>167.5</ele></trkpt>
    <trkpt lat="49.1179060" lon="6.1510240"><ele>167.5</ele></trkpt>
    <trkpt lat="49.1178670" lon="6.1508730"><ele>167.5</ele></trkpt>
    <trkpt lat="49.1178580" lon="6.1507730"><ele>167.5</ele></trkpt>
    <trkpt lat="49.1178310" lon="6.1506800"><ele>167.2</ele></trkpt>
    <trkpt lat="49.1177820" lon="6.1505670"><ele>167.0</ele></trkpt>
    <trkpt lat="49.1176770" lon="6.1503840"><ele>167.2</ele></trkpt>
    <trkpt lat="49.1176640" lon="6.1503190"><ele>167.2</ele></trkpt>
    <trkpt lat="49.1176520" lon="6.1502590"><ele>167.2</ele></trkpt>
    <trkpt lat="49.1177250" lon="6.1500910"><ele>167.0</ele></trkpt>
    <trkpt lat="49.1177570" lon="6.1500440"><ele>167.0</ele></trkpt>
    <trkpt lat="49.1178880" lon="6.1499250"><ele>167.0</ele></trkpt>
    <trkpt lat="49.1179120" lon="6.1498900"><ele>167.0</ele></trkpt>
    <trkpt lat="49.1179350" lon="6.1498450"><ele>167.0</ele></trkpt>
    <trkpt lat="49.1180280" lon="6.1495810"><ele>167.0</ele></trkpt>
    <trkpt lat="49.1180780" lon="6.1495170"><ele>167.0</ele></trkpt>
    <trkpt lat="49.1180160" lon="6.1491490"><ele>167.0</ele></trkpt>
    <trkpt lat="49.1179940" lon="6.1490270"><ele>167.0</ele></trkpt>
    <trkpt lat="49.1179090" lon="6.1484560"><ele>167.0</ele></trkpt>
    <trkpt lat="49.1172930" lon="6.1487780"><ele>168.0</ele></trkpt>
    <trkpt lat="49.1172540" lon="6.1487030"><ele>168.5</ele></trkpt>
    <trkpt lat="49.1172340" lon="6.1486820"><ele>168.5</ele></trkpt>
    <trkpt lat="49.1171800" lon="6.1486250"><ele>169.0</ele></trkpt>
    <trkpt lat="49.1171590" lon="6.1486020"><ele>169.2</ele></trkpt>
    <trkpt lat="49.1171040" lon="6.1485420"><ele>169.5</ele></trkpt>
    <trkpt lat="49.1170450" lon="6.1484950"><ele>169.8</ele></trkpt>
    <trkpt lat="49.1169890" lon="6.1484550"><ele>169.8</ele></trkpt>
    <trkpt lat="49.1170370" lon="6.1483300"><ele>169.8</ele></trkpt>
    <trkpt lat="49.1170200" lon="6.1483140"><ele>169.8</ele></trkpt>
    <trkpt lat="49.1172900" lon="6.1475900"><ele>169.0</ele></trkpt>
    <trkpt lat="49.1184410" lon="6.1445040"><ele>169.5</ele></trkpt>
    <trkpt lat="49.1184640" lon="6.1445270"><ele>169.5</ele></trkpt>
    <trkpt lat="49.1186270" lon="6.1440720"><ele>169.5</ele></trkpt>
    <trkpt lat="49.1186560" lon="6.1440430"><ele>169.5</ele></trkpt>
    <trkpt lat="49.1187220" lon="6.1439190"><ele>169.5</ele></trkpt>
    <trkpt lat="49.1187730" lon="6.1438610"><ele>169.5</ele></trkpt>
    <trkpt lat="49.1187550" lon="6.1439520"><ele>169.5</ele></trkpt>
    <trkpt lat="49.1186940" lon="6.1441590"><ele>169.5</ele></trkpt>
    <trkpt lat="49.1187170" lon="6.1441320"><ele>169.5</ele></trkpt>
    <trkpt lat="49.1188060" lon="6.1442280"><ele>169.8</ele></trkpt>
    <trkpt lat="49.1187830" lon="6.1442740"><ele>170.2</ele></trkpt>
    <trkpt lat="49.1188130" lon="6.1443050"><ele>169.8</ele></trkpt>
    <trkpt lat="49.1188820" lon="6.1441520"><ele>168.2</ele></trkpt>
    <trkpt lat="49.1190760" lon="6.1437410"><ele>168.8</ele></trkpt>
    <trkpt lat="49.1190800" lon="6.1437350"><ele>168.8</ele></trkpt>
    <trkpt lat="49.1192510" lon="6.1439650"><ele>168.5</ele></trkpt>
    <trkpt lat="49.1192030" lon="6.1440420"><ele>169.2</ele></trkpt>
    <trkpt lat="49.1190280" lon="6.1438120"><ele>170.0</ele></trkpt>
    <trkpt lat="49.1189790" lon="6.1437470"><ele>169.8</ele></trkpt>
    <trkpt lat="49.1191670" lon="6.1433300"><ele>167.8</ele></trkpt>
    <trkpt lat="49.1190610" lon="6.1432020"><ele>167.5</ele></trkpt>
    <trkpt lat="49.1187760" lon="6.1429210"><ele>167.5</ele></trkpt>
    <trkpt lat="49.1187390" lon="6.1427930"><ele>167.8</ele></trkpt>
    <trkpt lat="49.1186850" lon="6.1426690"><ele>168.0</ele></trkpt>
    <trkpt lat="49.1186060" lon="6.1425810"><ele>167.8</ele></trkpt>
    <trkpt lat="49.1189290" lon="6.1419600"><ele>168.0</ele></trkpt>
    <trkpt lat="49.1189640" lon="6.1418620"><ele>168.0</ele></trkpt>
    <trkpt lat="49.1188020" lon="6.1418770"><ele>168.0</ele></trkpt>
    <trkpt lat="49.1187730" lon="6.1418550"><ele>168.0</ele></trkpt>
    <trkpt lat="49.1186590" lon="6.1417380"><ele>168.0</ele></trkpt>
    <trkpt lat="49.1186040" lon="6.1416820"><ele>167.8</ele></trkpt>
    <trkpt lat="49.1184690" lon="6.1419150"><ele>168.0</ele></trkpt>
    <trkpt lat="49.1183850" lon="6.1419980"><ele>168.0</ele></trkpt>
    <trkpt lat="49.1182700" lon="6.1420030"><ele>167.8</ele></trkpt>
    <trkpt lat="49.1182030" lon="6.1419740"><ele>167.5</ele></trkpt>
    <trkpt lat="49.1181480" lon="6.1418740"><ele>167.2</ele></trkpt>
    <trkpt lat="49.1181220" lon="6.1419090"><ele>167.0</ele></trkpt>
    <trkpt lat="49.1180930" lon="6.1419490"><ele>167.0</ele></trkpt>
    <trkpt lat="49.1178830" lon="6.1415480"><ele>167.8</ele></trkpt>
    <trkpt lat="49.1178120" lon="6.1413560"><ele>167.8</ele></trkpt>
    <trkpt lat="49.1177190" lon="6.1410570"><ele>168.8</ele></trkpt>
    <trkpt lat="49.1176680" lon="6.1409350"><ele>169.2</ele></trkpt>
    <trkpt lat="49.1174350" lon="6.1404880"><ele>169.8</ele></trkpt>
    <trkpt lat="49.1173820" lon="6.1403510"><ele>169.8</ele></trkpt>
    <trkpt lat="49.1173730" lon="6.1403240"><ele>169.8</ele></trkpt>
    <trkpt lat="49.1173610" lon="6.1402860"><ele>169.8</ele></trkpt>
    <trkpt lat="49.1173530" lon="6.1402330"><ele>170.0</ele></trkpt>
    <trkpt lat="49.1173360" lon="6.1401290"><ele>170.2</ele></trkpt>
    <trkpt lat="49.1173110" lon="6.1400340"><ele>170.0</ele></trkpt>
    <trkpt lat="49.1164430" lon="6.1382690"><ele>170.2</ele></trkpt>
    <trkpt lat="49.1164230" lon="6.1382260"><ele>170.2</ele></trkpt>
    <trkpt lat="49.1163900" lon="6.1381570"><ele>170.2</ele></trkpt>
    <trkpt lat="49.1158710" lon="6.1373880"><ele>170.8</ele></trkpt>
    <trkpt lat="49.1158020" lon="6.1372620"><ele>170.5</ele></trkpt>
    <trkpt lat="49.1157470" lon="6.1371290"><ele>170.2</ele></trkpt>
    <trkpt lat="49.1154230" lon="6.1360470"><ele>173.5</ele></trkpt>
    <trkpt lat="49.1153720" lon="6.1359560"><ele>174.0</ele></trkpt>
    <trkpt lat="49.1153090" lon="6.1358440"><ele>174.0</ele></trkpt>
    <trkpt lat="49.1152790" lon="6.1357930"><ele>174.5</ele></trkpt>
    <trkpt lat="49.1152530" lon="6.1357610"><ele>174.8</ele></trkpt>
    <trkpt lat="49.1152130" lon="6.1357090"><ele>175.0</ele></trkpt>
    <trkpt lat="49.1148450" lon="6.1351210"><ele>176.2</ele></trkpt>
    <trkpt lat="49.1145380" lon="6.1344160"><ele>178.8</ele></trkpt>
    <trkpt lat="49.1145220" lon="6.1343660"><ele>178.8</ele></trkpt>
    <trkpt lat="49.1144930" lon="6.1342810"><ele>179.0</ele></trkpt>
    <trkpt lat="49.1143080" lon="6.1335750"><ele>178.5</ele></trkpt>
    <trkpt lat="49.1139520" lon="6.1337430"><ele>175.0</ele></trkpt>
    <trkpt lat="49.1136540" lon="6.1339110"><ele>170.5</ele></trkpt>
    <trkpt lat="49.1136360" lon="6.1339320"><ele>170.2</ele></trkpt>
    <trkpt lat="49.1136060" lon="6.1339660"><ele>169.8</ele></trkpt>
    <trkpt lat="49.1135800" lon="6.1339520"><ele>169.8</ele></trkpt>
    <trkpt lat="49.1135790" lon="6.1339040"><ele>169.8</ele></trkpt>
    <trkpt lat="49.1135790" lon="6.1338780"><ele>169.8</ele></trkpt>
    <trkpt lat="49.1135060" lon="6.1329570"><ele>170.8</ele></trkpt>
    <trkpt lat="49.1134940" lon="6.1328350"><ele>171.0</ele></trkpt>
    <trkpt lat="49.1134700" lon="6.1326750"><ele>171.0</ele></trkpt>
    <trkpt lat="49.1133690" lon="6.1322150"><ele>170.5</ele></trkpt>
    <trkpt lat="49.1132560" lon="6.1317820"><ele>170.0</ele></trkpt>
    <trkpt lat="49.1131380" lon="6.1313920"><ele>170.2</ele></trkpt>
    <trkpt lat="49.1131290" lon="6.1313620"><ele>170.2</ele></trkpt>
    <trkpt lat="49.1131060" lon="6.1312960"><ele>170.2</ele></trkpt>
    <trkpt lat="49.1130930" lon="6.1312560"><ele>170.0</ele></trkpt>
    <trkpt lat="49.1130550" lon="6.1311540"><ele>169.8</ele></trkpt>
    <trkpt lat="49.1129230" lon="6.1308790"><ele>170.2</ele></trkpt>
    <trkpt lat="49.1125850" lon="6.1302330"><ele>170.2</ele></trkpt>
    <trkpt lat="49.1125360" lon="6.1301420"><ele>170.2</ele></trkpt>
    <trkpt lat="49.1124420" lon="6.1299230"><ele>169.8</ele></trkpt>
    <trkpt lat="49.1123350" lon="6.1296410"><ele>169.5</ele></trkpt>
    <trkpt lat="49.1122180" lon="6.1292670"><ele>168.8</ele></trkpt>
    <trkpt lat="49.1121860" lon="6.1291350"><ele>168.8</ele></trkpt>
    <trkpt lat="49.1121330" lon="6.1289000"><ele>168.5</ele></trkpt>
    <trkpt lat="49.1120050" lon="6.1281690"><ele>169.5</ele></trkpt>
    <trkpt lat="49.1119240" lon="6.1279800"><ele>168.8</ele></trkpt>
    <trkpt lat="49.1119420" lon="6.1277840"><ele>168.8</ele></trkpt>
    <trkpt lat="49.1119330" lon="6.1276540"><ele>168.8</ele></trkpt>
    <trkpt lat="49.1118940" lon="6.1273870"><ele>168.8</ele></trkpt>
    <trkpt lat="49.1118860" lon="6.1271520"><ele>168.8</ele></trkpt>
    <trkpt lat="49.1118940" lon="6.1269880"><ele>168.8</ele></trkpt>
    <trkpt lat="49.1119250" lon="6.1267810"><ele>169.0</ele></trkpt>
    <trkpt lat="49.1119990" lon="6.1262780"><ele>169.0</ele></trkpt>
    <trkpt lat="49.1120110" lon="6.1260980"><ele>169.0</ele></trkpt>
    <trkpt lat="49.1120120" lon="6.1259500"><ele>169.0</ele></trkpt>
    <trkpt lat="49.1120040" lon="6.1257800"><ele>169.2</ele></trkpt>
    <trkpt lat="49.1119650" lon="6.1254690"><ele>169.0</ele></trkpt>
    <trkpt lat="49.1118950" lon="6.1251840"><ele>169.2</ele></trkpt>
    <trkpt lat="49.1118370" lon="6.1249800"><ele>169.5</ele></trkpt>
    <trkpt lat="49.1116550" lon="6.1245090"><ele>169.0</ele></trkpt>
    <trkpt lat="49.1112640" lon="6.1234920"><ele>169.5</ele></trkpt>
    <trkpt lat="49.1110010" lon="6.1228230"><ele>169.0</ele></trkpt>
    <trkpt lat="49.1109630" lon="6.1226910"><ele>169.2</ele></trkpt>
    <trkpt lat="49.1109500" lon="6.1226060"><ele>169.5</ele></trkpt>
    <trkpt lat="49.1107930" lon="6.1226810"><ele>169.0</ele></trkpt>
    <trkpt lat="49.1107680" lon="6.1227040"><ele>169.0</ele></trkpt>
    <trkpt lat="49.1107360" lon="6.1226500"><ele>169.0</ele></trkpt>
    <trkpt lat="49.1107050" lon="6.1225510"><ele>169.2</ele></trkpt>
    <trkpt lat="49.1105880" lon="6.1220290"><ele>169.0</ele></trkpt>
    <trkpt lat="49.1105350" lon="6.1220400"><ele>169.0</ele></trkpt>
    <trkpt lat="49.1104980" lon="6.1220150"><ele>169.0</ele></trkpt>
    <trkpt lat="49.1104700" lon="6.1220660"><ele>169.0</ele></trkpt>
    <trkpt lat="49.1101930" lon="6.1222030"><ele>169.0</ele></trkpt>
    <trkpt lat="49.1101730" lon="6.1221180"><ele>169.0</ele></trkpt>
    <trkpt lat="49.1097600" lon="6.1218160"><ele>169.0</ele></trkpt>
    <trkpt lat="49.1097390" lon="6.1217440"><ele>168.8</ele></trkpt>
    <trkpt lat="49.1097300" lon="6.1217060"><ele>168.8</ele></trkpt>
    <trkpt lat="49.1095620" lon="6.1209820"><ele>169.0</ele></trkpt>
    <trkpt lat="49.1095270" lon="6.1208890"><ele>169.0</ele></trkpt>
    <trkpt lat="49.1094900" lon="6.1208410"><ele>169.0</ele></trkpt>
    <trkpt lat="49.1093790" lon="6.1207760"><ele>169.2</ele></trkpt>
    <trkpt lat="49.1093460" lon="6.1207550"><ele>169.5</ele></trkpt>
    <trkpt lat="49.1091940" lon="6.1206570"><ele>169.8</ele></trkpt>
    <trkpt lat="49.1091430" lon="6.1205850"><ele>169.8</ele></trkpt>
    <trkpt lat="49.1091070" lon="6.1205320"><ele>169.5</ele></trkpt>
    <trkpt lat="49.1090000" lon="6.1206690"><ele>169.0</ele></trkpt>
    <trkpt lat="49.1089710" lon="6.1207080"><ele>168.8</ele></trkpt>
    <trkpt lat="49.1087690" lon="6.1210670"><ele>169.0</ele></trkpt>
    <trkpt lat="49.1085990" lon="6.1212640"><ele>169.0</ele></trkpt>
    <trkpt lat="49.1085010" lon="6.1213910"><ele>168.8</ele></trkpt>
    <trkpt lat="49.1083930" lon="6.1214990"><ele>168.5</ele></trkpt>
    <trkpt lat="49.1081060" lon="6.1216680"><ele>168.0</ele></trkpt>
    <trkpt lat="49.1080470" lon="6.1216830"><ele>168.0</ele></trkpt>
    <trkpt lat="49.1079970" lon="6.1216650"><ele>168.0</ele></trkpt>
    <trkpt lat="49.1079360" lon="6.1216000"><ele>168.0</ele></trkpt>
    <trkpt lat="49.1078860" lon="6.1215060"><ele>168.0</ele></trkpt>
    <trkpt lat="49.1078500" lon="6.1214050"><ele>168.0</ele></trkpt>
    <trkpt lat="49.1077150" lon="6.1210370"><ele>168.0</ele></trkpt>
    <trkpt lat="49.1076710" lon="6.1208800"><ele>168.0</ele></trkpt>
    <trkpt lat="49.1074320" lon="6.1200460"><ele>168.0</ele></trkpt>
    <trkpt lat="49.1073990" lon="6.1199830"><ele>168.0</ele></trkpt>
    <trkpt lat="49.1073590" lon="6.1199370"><ele>168.0</ele></trkpt>
    <trkpt lat="49.1073240" lon="6.1199010"><ele>168.0</ele></trkpt>
    <trkpt lat="49.1072760" lon="6.1198790"><ele>168.0</ele></trkpt>
    <trkpt lat="49.1071840" lon="6.1198740"><ele>168.0</ele></trkpt>
    <trkpt lat="49.1055400" lon="6.1203270"><ele>168.8</ele></trkpt>
    <trkpt lat="49.1054820" lon="6.1203540"><ele>168.8</ele></trkpt>
    <trkpt lat="49.1054280" lon="6.1203940"><ele>168.8</ele></trkpt>
    <trkpt lat="49.1053950" lon="6.1203450"><ele>168.8</ele></trkpt>
    <trkpt lat="49.1053850" lon="6.1202490"><ele>168.8</ele></trkpt>
    <trkpt lat="49.1053690" lon="6.1201890"><ele>168.5</ele></trkpt>
    <trkpt lat="49.1053420" lon="6.1201390"><ele>168.5</ele></trkpt>
    <trkpt lat="49.1052660" lon="6.1200430"><ele>168.0</ele></trkpt>
    <trkpt lat="49.1052140" lon="6.1199440"><ele>167.5</ele></trkpt>
    <trkpt lat="49.1051770" lon="6.1198510"><ele>167.2</ele></trkpt>
    <trkpt lat="49.1051630" lon="6.1197900"><ele>167.0</ele></trkpt>
    <trkpt lat="49.1051610" lon="6.1197270"><ele>167.0</ele></trkpt>
    <trkpt lat="49.1051790" lon="6.1196320"><ele>167.2</ele></trkpt>
    <trkpt lat="49.1051720" lon="6.1195700"><ele>167.0</ele></trkpt>
    <trkpt lat="49.1051540" lon="6.1195220"><ele>167.0</ele></trkpt>
    <trkpt lat="49.1051340" lon="6.1193470"><ele>166.8</ele></trkpt>
    <trkpt lat="49.1050860" lon="6.1191600"><ele>167.0</ele></trkpt>
    <trkpt lat="49.1050590" lon="6.1191270"><ele>167.0</ele></trkpt>
    <trkpt lat="49.1049880" lon="6.1191270"><ele>166.8</ele></trkpt>
    <trkpt lat="49.1048930" lon="6.1191250"><ele>166.5</ele></trkpt>
    <trkpt lat="49.1048340" lon="6.1191500"><ele>166.2</ele></trkpt>
    <trkpt lat="49.1047970" lon="6.1191510"><ele>166.2</ele></trkpt>
    <trkpt lat="49.1047620" lon="6.1191330"><ele>166.0</ele></trkpt>
    <trkpt lat="49.1047280" lon="6.1190860"><ele>166.0</ele></trkpt>
    <trkpt lat="49.1047040" lon="6.1189960"><ele>166.0</ele></trkpt>
    <trkpt lat="49.1046930" lon="6.1187450"><ele>166.0</ele></trkpt>
    <trkpt lat="49.1047130" lon="6.1184880"><ele>166.2</ele></trkpt>
    <trkpt lat="49.1047050" lon="6.1184150"><ele>166.5</ele></trkpt>
    <trkpt lat="49.1046860" lon="6.1183520"><ele>166.8</ele></trkpt>
    <trkpt lat="49.1046810" lon="6.1182690"><ele>166.5</ele></trkpt>
    <trkpt lat="49.1046830" lon="6.1181710"><ele>166.2</ele></trkpt>
    <trkpt lat="49.1046730" lon="6.1181150"><ele>166.0</ele></trkpt>
    <trkpt lat="49.1046450" lon="6.1180630"><ele>166.0</ele></trkpt>
    <trkpt lat="49.1046340" lon="6.1180250"><ele>166.0</ele></trkpt>
    <trkpt lat="49.1046350" lon="6.1179780"><ele>166.0</ele></trkpt>
    <trkpt lat="49.1046560" lon="6.1179240"><ele>166.2</ele></trkpt>
    <trkpt lat="49.1046640" lon="6.1178710"><ele>166.5</ele></trkpt>
    <trkpt lat="49.1046380" lon="6.1176370"><ele>166.5</ele></trkpt>
    <trkpt lat="49.1046380" lon="6.1172110"><ele>166.5</ele></trkpt>
    <trkpt lat="49.1046270" lon="6.1171370"><ele>166.8</ele></trkpt>
    <trkpt lat="49.1046040" lon="6.1170590"><ele>166.8</ele></trkpt>
    <trkpt lat="49.1045990" lon="6.1170070"><ele>166.8</ele></trkpt>
    <trkpt lat="49.1046070" lon="6.1169550"><ele>166.8</ele></trkpt>
    <trkpt lat="49.1046320" lon="6.1168820"><ele>167.0</ele></trkpt>
    <trkpt lat="49.1046480" lon="6.1167980"><ele>167.0</ele></trkpt>
    <trkpt lat="49.1046450" lon="6.1167490"><ele>167.0</ele></trkpt>
    <trkpt lat="49.1046320" lon="6.1167220"><ele>167.0</ele></trkpt>
    <trkpt lat="49.1046120" lon="6.1167110"><ele>167.0</ele></trkpt>
    <trkpt lat="49.1045200" lon="6.1167040"><ele>167.0</ele></trkpt>
    <trkpt lat="49.1044860" lon="6.1166650"><ele>167.0</ele></trkpt>
    <trkpt lat="49.1044310" lon="6.1165770"><ele>166.8</ele></trkpt>
    <trkpt lat="49.1044000" lon="6.1164900"><ele>166.8</ele></trkpt>
    <trkpt lat="49.1043740" lon="6.1163900"><ele>166.5</ele></trkpt>
    <trkpt lat="49.1043310" lon="6.1161190"><ele>166.2</ele></trkpt>
    <trkpt lat="49.1042740" lon="6.1159060"><ele>166.8</ele></trkpt>
    <trkpt lat="49.1041840" lon="6.1156430"><ele>166.8</ele></trkpt>
    <trkpt lat="49.1040880" lon="6.1154690"><ele>166.8</ele></trkpt>
    <trkpt lat="49.1040390" lon="6.1153250"><ele>166.8</ele></trkpt>
    <trkpt lat="49.1039620" lon="6.1151820"><ele>167.0</ele></trkpt>
    <trkpt lat="49.1038870" lon="6.1150960"><ele>166.8</ele></trkpt>
    <trkpt lat="49.1038010" lon="6.1149020"><ele>167.0</ele></trkpt>
    <trkpt lat="49.1037310" lon="6.1148090"><ele>167.0</ele></trkpt>
    <trkpt lat="49.1036560" lon="6.1147660"><ele>167.0</ele></trkpt>
    <trkpt lat="49.1035720" lon="6.1147570"><ele>166.8</ele></trkpt>
    <trkpt lat="49.1035400" lon="6.1147380"><ele>166.8</ele></trkpt>
    <trkpt lat="49.1034660" lon="6.1146450"><ele>167.0</ele></trkpt>
    <trkpt lat="49.1032730" lon="6.1145540"><ele>167.5</ele></trkpt>
    <trkpt lat="49.1032200" lon="6.1145100"><ele>167.5</ele></trkpt>
    <trkpt lat="49.1031250" lon="6.1145010"><ele>167.5</ele></trkpt>
    <trkpt lat="49.1030200" lon="6.1145540"><ele>167.2</ele></trkpt>
    <trkpt lat="49.1028900" lon="6.1147030"><ele>167.0</ele></trkpt>
    <trkpt lat="49.1028260" lon="6.1148280"><ele>167.5</ele></trkpt>
    <trkpt lat="49.1028370" lon="6.1150760"><ele>167.5</ele></trkpt>
    <trkpt lat="49.1028290" lon="6.1152170"><ele>167.5</ele></trkpt>
    <trkpt lat="49.1027790" lon="6.1153250"><ele>168.0</ele></trkpt>
    <trkpt lat="49.1026830" lon="6.1154180"><ele>167.8</ele></trkpt>
    <trkpt lat="49.1025990" lon="6.1152540"><ele>167.2</ele></trkpt>
    <trkpt lat="49.1024240" lon="6.1149850"><ele>167.2</ele></trkpt>
    <trkpt lat="49.1022890" lon="6.1147550"><ele>167.0</ele></trkpt>
    <trkpt lat="49.1021860" lon="6.1145410"><ele>167.2</ele></trkpt>
    <trkpt lat="49.1020370" lon="6.1142580"><ele>167.0</ele></trkpt>
    <trkpt lat="49.1016280" lon="6.1136320"><ele>167.8</ele></trkpt>
    <trkpt lat="49.1013710" lon="6.1133360"><ele>166.8</ele></trkpt>
    <trkpt lat="49.1011810" lon="6.1130810"><ele>167.5</ele></trkpt>
    <trkpt lat="49.1011930" lon="6.1129520"><ele>167.8</ele></trkpt>
    <trkpt lat="49.1012250" lon="6.1128080"><ele>168.0</ele></trkpt>
    <trkpt lat="49.1013070" lon="6.1126320"><ele>168.2</ele></trkpt>
    <trkpt lat="49.1013600" lon="6.1125440"><ele>168.0</ele></trkpt>
    <trkpt lat="49.1019290" lon="6.1117580"><ele>173.0</ele></trkpt>
    <trkpt lat="49.1019480" lon="6.1118120"><ele>173.5</ele></trkpt>
    <trkpt lat="49.1015000" lon="6.1126680"><ele>171.2</ele></trkpt>
    <trkpt lat="49.1001480" lon="6.1152320"><ele>171.5</ele></trkpt>
    <trkpt lat="49.1000880" lon="6.1153360"><ele>172.8</ele></trkpt>
    <trkpt lat="49.1000690" lon="6.1153510"><ele>173.0</ele></trkpt>
    <trkpt lat="49.1000350" lon="6.1153530"><ele>173.2</ele></trkpt>
    <trkpt lat="49.0999920" lon="6.1153420"><ele>173.2</ele></trkpt>
    <trkpt lat="49.0999560" lon="6.1153220"><ele>173.0</ele></trkpt>
    <trkpt lat="49.0999300" lon="6.1152920"><ele>172.8</ele></trkpt>
    <trkpt lat="49.0998670" lon="6.1149430"><ele>171.0</ele></trkpt>
    <trkpt lat="49.0998630" lon="6.1148320"><ele>170.5</ele></trkpt>
    <trkpt lat="49.0998780" lon="6.1147450"><ele>170.0</ele></trkpt>
    <trkpt lat="49.0999130" lon="6.1146600"><ele>169.2</ele></trkpt>
    <trkpt lat="49.0999670" lon="6.1146080"><ele>168.8</ele></trkpt>
    <trkpt lat="49.1000230" lon="6.1145750"><ele>168.2</ele></trkpt>
    <trkpt lat="49.1000760" lon="6.1145790"><ele>168.2</ele></trkpt>
    <trkpt lat="49.1001040" lon="6.1146120"><ele>168.2</ele></trkpt>
    <trkpt lat="49.1001380" lon="6.1145340"><ele>168.0</ele></trkpt>
    <trkpt lat="49.1001660" lon="6.1144720"><ele>168.0</ele></trkpt>
    <trkpt lat="49.1006290" lon="6.1150300"><ele>167.8</ele></trkpt>
    <trkpt lat="49.1007310" lon="6.1151750"><ele>167.8</ele></trkpt>
    <trkpt lat="49.1007650" lon="6.1152340"><ele>167.8</ele></trkpt>
    <trkpt lat="49.1007830" lon="6.1153140"><ele>168.0</ele></trkpt>
    <trkpt lat="49.1008540" lon="6.1153430"><ele>168.0</ele></trkpt>
    <trkpt lat="49.1010700" lon="6.1156300"><ele>168.0</ele></trkpt>
    <trkpt lat="49.1012610" lon="6.1159510"><ele>167.0</ele></trkpt>
    <trkpt lat="49.1013230" lon="6.1161290"><ele>167.2</ele></trkpt>
    <trkpt lat="49.1013900" lon="6.1162360"><ele>167.2</ele></trkpt>
    <trkpt lat="49.1014690" lon="6.1163850"><ele>167.2</ele></trkpt>
    <trkpt lat="49.1015140" lon="6.1164450"><ele>167.0</ele></trkpt>
    <trkpt lat="49.1015680" lon="6.1165730"><ele>167.0</ele></trkpt>
    <trkpt lat="49.1016060" lon="6.1167270"><ele>167.2</ele></trkpt>
    <trkpt lat="49.1016540" lon="6.1169850"><ele>168.0</ele></trkpt>
    <trkpt lat="49.1017220" lon="6.1172090"><ele>167.8</ele></trkpt>
    <trkpt lat="49.1017730" lon="6.1173220"><ele>167.5</ele></trkpt>
    <trkpt lat="49.1017990" lon="6.1174030"><ele>167.5</ele></trkpt>
    <trkpt lat="49.1018670" lon="6.1176610"><ele>167.2</ele></trkpt>
    <trkpt lat="49.1019140" lon="6.1179120"><ele>167.5</ele></trkpt>
    <trkpt lat="49.1019740" lon="6.1181280"><ele>167.8</ele></trkpt>
    <trkpt lat="49.1020180" lon="6.1183560"><ele>167.2</ele></trkpt>
    <trkpt lat="49.1021130" lon="6.1186390"><ele>167.2</ele></trkpt>
    <trkpt lat="49.1022360" lon="6.1188630"><ele>166.8</ele></trkpt>
    <trkpt lat="49.1022850" lon="6.1189920"><ele>167.0</ele></trkpt>
    <trkpt lat="49.1023140" lon="6.1191410"><ele>167.2</ele></trkpt>
    <trkpt lat="49.1023220" lon="6.1193610"><ele>167.2</ele></trkpt>
    <trkpt lat="49.1023480" lon="6.1195310"><ele>167.0</ele></trkpt>
    <trkpt lat="49.1025510" lon="6.1200220"><ele>166.8</ele></trkpt>
    <trkpt lat="49.1025650" lon="6.1200870"><ele>166.8</ele></trkpt>
    <trkpt lat="49.1025710" lon="6.1201750"><ele>166.5</ele></trkpt>
    <trkpt lat="49.1025890" lon="6.1202650"><ele>166.5</ele></trkpt>
    <trkpt lat="49.1026950" lon="6.1205750"><ele>166.2</ele></trkpt>
    <trkpt lat="49.1027400" lon="6.1207910"><ele>166.8</ele></trkpt>
    <trkpt lat="49.1027900" lon="6.1209800"><ele>166.8</ele></trkpt>
    <trkpt lat="49.1028330" lon="6.1210780"><ele>166.8</ele></trkpt>
    <trkpt lat="49.1029680" lon="6.1212800"><ele>166.5</ele></trkpt>
    <trkpt lat="49.1030090" lon="6.1213520"><ele>166.8</ele></trkpt>
    <trkpt lat="49.1030350" lon="6.1214250"><ele>166.8</ele></trkpt>
    <trkpt lat="49.1030810" lon="6.1217040"><ele>166.8</ele></trkpt>
    <trkpt lat="49.1030900" lon="6.1218910"><ele>167.0</ele></trkpt>
    <trkpt lat="49.1031280" lon="6.1220330"><ele>166.8</ele></trkpt>
    <trkpt lat="49.1031350" lon="6.1221250"><ele>166.8</ele></trkpt>
    <trkpt lat="49.1031300" lon="6.1222410"><ele>166.5</ele></trkpt>
    <trkpt lat="49.1031350" lon="6.1223320"><ele>166.5</ele></trkpt>
    <trkpt lat="49.1031520" lon="6.1224040"><ele>166.5</ele></trkpt>
    <trkpt lat="49.1031850" lon="6.1224530"><ele>166.5</ele></trkpt>
    <trkpt lat="49.1032120" lon="6.1225440"><ele>166.2</ele></trkpt>
    <trkpt lat="49.1032310" lon="6.1226580"><ele>166.2</ele></trkpt>
    <trkpt lat="49.1032250" lon="6.1227830"><ele>166.2</ele></trkpt>
    <trkpt lat="49.1032330" lon="6.1228610"><ele>166.2</ele></trkpt>
    <trkpt lat="49.1032830" lon="6.1229950"><ele>166.0</ele></trkpt>
    <trkpt lat="49.1033480" lon="6.1233340"><ele>166.8</ele></trkpt>
    <trkpt lat="49.1034040" lon="6.1238580"><ele>166.0</ele></trkpt>
    <trkpt lat="49.1034240" lon="6.1239590"><ele>166.0</ele></trkpt>
    <trkpt lat="49.1034690" lon="6.1240590"><ele>166.0</ele></trkpt>
    <trkpt lat="49.1035030" lon="6.1242140"><ele>166.0</ele></trkpt>
    <trkpt lat="49.1035190" lon="6.1244130"><ele>166.2</ele></trkpt>
    <trkpt lat="49.1035580" lon="6.1253440"><ele>166.5</ele></trkpt>
    <trkpt lat="49.1035450" lon="6.1256170"><ele>167.0</ele></trkpt>
    <trkpt lat="49.1035610" lon="6.1259840"><ele>166.5</ele></trkpt>
    <trkpt lat="49.1035210" lon="6.1266010"><ele>166.5</ele></trkpt>
    <trkpt lat="49.1035180" lon="6.1268010"><ele>166.5</ele></trkpt>
    <trkpt lat="49.1034920" lon="6.1272020"><ele>166.8</ele></trkpt>
    <trkpt lat="49.1034110" lon="6.1279780"><ele>166.8</ele></trkpt>
    <trkpt lat="49.1033890" lon="6.1283740"><ele>166.8</ele></trkpt>
    <trkpt lat="49.1033670" lon="6.1288230"><ele>166.8</ele></trkpt>
    <trkpt lat="49.1033490" lon="6.1289400"><ele>166.8</ele></trkpt>
    <trkpt lat="49.1033440" lon="6.1290780"><ele>166.8</ele></trkpt>
    <trkpt lat="49.1033320" lon="6.1291100"><ele>167.0</ele></trkpt>
    <trkpt lat="49.1032730" lon="6.1290980"><ele>167.2</ele></trkpt>
    <trkpt lat="49.1032220" lon="6.1291030"><ele>167.5</ele></trkpt>
    <trkpt lat="49.1030260" lon="6.1291980"><ele>169.0</ele></trkpt>
    <trkpt lat="49.1028730" lon="6.1292550"><ele>169.0</ele></trkpt>
    <trkpt lat="49.1027980" lon="6.1292960"><ele>168.8</ele></trkpt>
    <trkpt lat="49.1028410" lon="6.1296440"><ele>169.0</ele></trkpt>
    <trkpt lat="49.1028550" lon="6.1298010"><ele>169.0</ele></trkpt>
    <trkpt lat="49.1028490" lon="6.1301150"><ele>168.5</ele></trkpt>
    <trkpt lat="49.1028190" lon="6.1303510"><ele>168.0</ele></trkpt>
    <trkpt lat="49.1027410" lon="6.1306390"><ele>168.0</ele></trkpt>
    <trkpt lat="49.1028060" lon="6.1307710"><ele>168.0</ele></trkpt>
    <trkpt lat="49.1029100" lon="6.1314450"><ele>168.0</ele></trkpt>
    <trkpt lat="49.1029080" lon="6.1316870"><ele>168.0</ele></trkpt>
    <trkpt lat="49.1029100" lon="6.1314450"><ele>168.0</ele></trkpt>
    <trkpt lat="49.1028060" lon="6.1307710"><ele>168.0</ele></trkpt>
    <trkpt lat="49.1027410" lon="6.1306390"><ele>168.0</ele></trkpt>
    <trkpt lat="49.1026790" lon="6.1307850"><ele>168.0</ele></trkpt>
    <trkpt lat="49.1021760" lon="6.1317430"><ele>170.5</ele></trkpt>
    <trkpt lat="49.1019060" lon="6.1322210"><ele>173.2</ele></trkpt>
    <trkpt lat="49.1016650" lon="6.1325560"><ele>173.8</ele></trkpt>
    <trkpt lat="49.1012810" lon="6.1330350"><ele>170.5</ele></trkpt>
    <trkpt lat="49.1011810" lon="6.1331530"><ele>172.2</ele></trkpt>
    <trkpt lat="49.1010830" lon="6.1332550"><ele>173.8</ele></trkpt>
    <trkpt lat="49.1009840" lon="6.1333310"><ele>173.0</ele></trkpt>
    <trkpt lat="49.1009450" lon="6.1333630"><ele>172.5</ele></trkpt>
    <trkpt lat="49.1007070" lon="6.1335630"><ele>171.5</ele></trkpt>
    <trkpt lat="49.1005630" lon="6.1336810"><ele>172.5</ele></trkpt>
    <trkpt lat="49.1005780" lon="6.1337300"><ele>172.2</ele></trkpt>
    <trkpt lat="49.1006000" lon="6.1337950"><ele>172.0</ele></trkpt>
    <trkpt lat="49.1006470" lon="6.1338410"><ele>171.8</ele></trkpt>
    <trkpt lat="49.1006990" lon="6.1338490"><ele>171.5</ele></trkpt>
    <trkpt lat="49.1007330" lon="6.1338670"><ele>171.2</ele></trkpt>
    <trkpt lat="49.1008170" lon="6.1339430"><ele>171.0</ele></trkpt>
    <trkpt lat="49.1008360" lon="6.1339430"><ele>170.8</ele></trkpt>
    <trkpt lat="49.1009970" lon="6.1344940"><ele>171.0</ele></trkpt>
    <trkpt lat="49.1010560" lon="6.1345870"><ele>172.2</ele></trkpt>
    <trkpt lat="49.1011160" lon="6.1346690"><ele>173.0</ele></trkpt>
    <trkpt lat="49.1011370" lon="6.1347140"><ele>173.8</ele></trkpt>
    <trkpt lat="49.1011720" lon="6.1348280"><ele>173.5</ele></trkpt>
    <trkpt lat="49.1011830" lon="6.1348840"><ele>173.5</ele></trkpt>
    <trkpt lat="49.1011910" lon="6.1349830"><ele>173.2</ele></trkpt>
    <trkpt lat="49.1011830" lon="6.1351170"><ele>171.8</ele></trkpt>
    <trkpt lat="49.1011880" lon="6.1352010"><ele>170.8</ele></trkpt>
    <trkpt lat="49.1013290" lon="6.1357450"><ele>169.8</ele></trkpt>
    <trkpt lat="49.1025710" lon="6.1403530"><ele>169.8</ele></trkpt>
    <trkpt lat="49.1025840" lon="6.1404030"><ele>169.5</ele></trkpt>
    <trkpt lat="49.1026610" lon="6.1406940"><ele>169.2</ele></trkpt>
    <trkpt lat="49.1033930" lon="6.1434150"><ele>169.5</ele></trkpt>
    <trkpt lat="49.1041850" lon="6.1463470"><ele>169.8</ele></trkpt>
    <trkpt lat="49.1048910" lon="6.1489770"><ele>169.0</ele></trkpt>
    <trkpt lat="49.1050130" lon="6.1494350"><ele>170.8</ele></trkpt>
    <trkpt lat="49.1050240" lon="6.1494650"><ele>170.8</ele></trkpt>
    <trkpt lat="49.1050880" lon="6.1495480"><ele>170.8</ele></trkpt>
    <trkpt lat="49.1051130" lon="6.1496500"><ele>170.5</ele></trkpt>
    <trkpt lat="49.1051000" lon="6.1497590"><ele>170.2</ele></trkpt>
    <trkpt lat="49.1050980" lon="6.1498100"><ele>170.0</ele></trkpt>
    <trkpt lat="49.1051330" lon="6.1499310"><ele>169.2</ele></trkpt>
    <trkpt lat="49.1056250" lon="6.1519490"><ele>169.0</ele></trkpt>
    <trkpt lat="49.1056760" lon="6.1522100"><ele>168.8</ele></trkpt>
    <trkpt lat="49.1056860" lon="6.1522310"><ele>168.8</ele></trkpt>
    <trkpt lat="49.1061030" lon="6.1539600"><ele>169.8</ele></trkpt>
    <trkpt lat="49.1063680" lon="6.1550550"><ele>169.8</ele></trkpt>
    <trkpt lat="49.1064530" lon="6.1554090"><ele>169.2</ele></trkpt>
    <trkpt lat="49.1064870" lon="6.1555960"><ele>168.5</ele></trkpt>
    <trkpt lat="49.1065400" lon="6.1560950"><ele>169.0</ele></trkpt>
    <trkpt lat="49.1065460" lon="6.1562700"><ele>169.0</ele></trkpt>
    <trkpt lat="49.1065310" lon="6.1574080"><ele>169.5</ele></trkpt>
    <trkpt lat="49.1065330" lon="6.1577180"><ele>169.5</ele></trkpt>
    <trkpt lat="49.1065550" lon="6.1581960"><ele>170.0</ele></trkpt>
    <trkpt lat="49.1066020" lon="6.1584840"><ele>170.0</ele></trkpt>
    <trkpt lat="49.1066840" lon="6.1587310"><ele>170.2</ele></trkpt>
    <trkpt lat="49.1067320" lon="6.1588490"><ele>170.5</ele></trkpt>
    <trkpt lat="49.1067850" lon="6.1589550"><ele>170.5</ele></trkpt>
    <trkpt lat="49.1068630" lon="6.1590830"><ele>170.8</ele></trkpt>
    <trkpt lat="49.1070990" lon="6.1593780"><ele>170.2</ele></trkpt>
    <trkpt lat="49.1073390" lon="6.1596360"><ele>170.2</ele></trkpt>
    <trkpt lat="49.1074090" lon="6.1597310"><ele>170.2</ele></trkpt>
    <trkpt lat="49.1075460" lon="6.1599470"><ele>170.5</ele></trkpt>
    <trkpt lat="49.1075910" lon="6.1600510"><ele>170.8</ele></trkpt>
    <trkpt lat="49.1078390" lon="6.1605230"><ele>171.2</ele></trkpt>
    <trkpt lat="49.1079760" lon="6.1607310"><ele>171.0</ele></trkpt>
    <trkpt lat="49.1083630" lon="6.1612210"><ele>171.0</ele></trkpt>
    <trkpt lat="49.1085880" lon="6.1614750"><ele>171.0</ele></trkpt>
    <trkpt lat="49.1085440" lon="6.1616010"><ele>173.0</ele></trkpt>
    <trkpt lat="49.1085530" lon="6.1616730"><ele>173.5</ele></trkpt>
    <trkpt lat="49.1086670" lon="6.1621180"><ele>175.5</ele></trkpt>
    <trkpt lat="49.1088380" lon="6.1623600"><ele>176.0</ele></trkpt>
    <trkpt lat="49.1088820" lon="6.1624090"><ele>176.2</ele></trkpt>
    <trkpt lat="49.1090680" lon="6.1626800"><ele>176.8</ele></trkpt>
    <trkpt lat="49.1096130" lon="6.1633810"><ele>177.2</ele></trkpt>
    <trkpt lat="49.1097190" lon="6.1634780"><ele>177.5</ele></trkpt>
    <trkpt lat="49.1098270" lon="6.1635170"><ele>177.2</ele></trkpt>
    <trkpt lat="49.1098140" lon="6.1636160"><ele>178.0</ele></trkpt>
    <trkpt lat="49.1097850" lon="6.1637000"><ele>178.2</ele></trkpt>
    <trkpt lat="49.1097460" lon="6.1637770"><ele>178.5</ele></trkpt>
    <trkpt lat="49.1097840" lon="6.1638790"><ele>178.8</ele></trkpt>
    <trkpt lat="49.1097970" lon="6.1639460"><ele>179.0</ele></trkpt>
    <trkpt lat="49.1097880" lon="6.1639930"><ele>179.0</ele></trkpt>
    <trkpt lat="49.1097490" lon="6.1640270"><ele>179.0</ele></trkpt>
    <trkpt lat="49.1096570" lon="6.1641720"><ele>179.0</ele></trkpt>
    <trkpt lat="49.1093770" lon="6.1646700"><ele>180.0</ele></trkpt>
    <trkpt lat="49.1093760" lon="6.1647100"><ele>180.0</ele></trkpt>
    <trkpt lat="49.1093430" lon="6.1647750"><ele>180.2</ele></trkpt>
    <trkpt lat="49.1094020" lon="6.1648630"><ele>180.5</ele></trkpt>
    <trkpt lat="49.1094600" lon="6.1649640"><ele>180.8</ele></trkpt>
    <trkpt lat="49.1096980" lon="6.1653670"><ele>181.0</ele></trkpt>
    <trkpt lat="49.1098330" lon="6.1656560"><ele>181.2</ele></trkpt>
    <trkpt lat="49.1098900" lon="6.1658060"><ele>181.8</ele></trkpt>
    <trkpt lat="49.1099160" lon="6.1658740"><ele>182.0</ele></trkpt>
    <trkpt lat="49.1099760" lon="6.1661050"><ele>182.0</ele></trkpt>
    <trkpt lat="49.1100290" lon="6.1663640"><ele>182.0</ele></trkpt>
    <trkpt lat="49.1100750" lon="6.1666150"><ele>182.0</ele></trkpt>
    <trkpt lat="49.1101080" lon="6.1668690"><ele>181.5</ele></trkpt>
    <trkpt lat="49.1101430" lon="6.1670840"><ele>182.0</ele></trkpt>
    <trkpt lat="49.1101650" lon="6.1672230"><ele>182.8</ele></trkpt>
    <trkpt lat="49.1102140" lon="6.1673810"><ele>182.8</ele></trkpt>
    <trkpt lat="49.1102660" lon="6.1673870"><ele>182.8</ele></trkpt>
    <trkpt lat="49.1102800" lon="6.1673890"><ele>183.0</ele></trkpt>
    <trkpt lat="49.1103210" lon="6.1675450"><ele>182.8</ele></trkpt>
    <trkpt lat="49.1103280" lon="6.1677980"><ele>182.0</ele></trkpt>
    <trkpt lat="49.1104380" lon="6.1693510"><ele>181.5</ele></trkpt>
    <trkpt lat="49.1105200" lon="6.1705060"><ele>180.0</ele></trkpt>
    <trkpt lat="49.1105660" lon="6.1706010"><ele>180.0</ele></trkpt>
    <trkpt lat="49.1105650" lon="6.1706670"><ele>179.8</ele></trkpt>
    <trkpt lat="49.1105640" lon="6.1707240"><ele>179.8</ele></trkpt>
    <trkpt lat="49.1105490" lon="6.1707830"><ele>180.0</ele></trkpt>
    <trkpt lat="49.1105350" lon="6.1708360"><ele>179.8</ele></trkpt>
    <trkpt lat="49.1105230" lon="6.1713030"><ele>179.0</ele></trkpt>
    <trkpt lat="49.1105100" lon="6.1718080"><ele>179.0</ele></trkpt>
    <trkpt lat="49.1105080" lon="6.1718680"><ele>179.0</ele></trkpt>
    <trkpt lat="49.1104920" lon="6.1719520"><ele>179.0</ele></trkpt>
    <trkpt lat="49.1104710" lon="6.1720450"><ele>179.0</ele></trkpt>
    <trkpt lat="49.1104130" lon="6.1723840"><ele>179.0</ele></trkpt>
    <trkpt lat="49.1103670" lon="6.1727810"><ele>178.0</ele></trkpt>
    <trkpt lat="49.1103700" lon="6.1730170"><ele>178.0</ele></trkpt>
    <trkpt lat="49.1103870" lon="6.1732230"><ele>177.2</ele></trkpt>
    <trkpt lat="49.1104280" lon="6.1737140"><ele>176.8</ele></trkpt>
    <trkpt lat="49.1104310" lon="6.1738500"><ele>176.5</ele></trkpt>
    <trkpt lat="49.1104400" lon="6.1739670"><ele>176.2</ele></trkpt>
    <trkpt lat="49.1104430" lon="6.1741070"><ele>176.0</ele></trkpt>
    <trkpt lat="49.1104380" lon="6.1742460"><ele>176.0</ele></trkpt>
    <trkpt lat="49.1104160" lon="6.1744300"><ele>176.0</ele></trkpt>
    <trkpt lat="49.1103850" lon="6.1745770"><ele>176.0</ele></trkpt>
    <trkpt lat="49.1103640" lon="6.1746420"><ele>176.0</ele></trkpt>
    <trkpt lat="49.1103310" lon="6.1747350"><ele>175.8</ele></trkpt>
    <trkpt lat="49.1103020" lon="6.1748830"><ele>175.2</ele></trkpt>
    <trkpt lat="49.1100190" lon="6.1759170"><ele>173.8</ele></trkpt>
    <trkpt lat="49.1096230" lon="6.1756730"><ele>174.0</ele></trkpt>
    <trkpt lat="49.1095300" lon="6.1757750"><ele>174.0</ele></trkpt>
    <trkpt lat="49.1094650" lon="6.1758470"><ele>174.0</ele></trkpt>
    <trkpt lat="49.1094330" lon="6.1758810"><ele>174.0</ele></trkpt>
    <trkpt lat="49.1093810" lon="6.1757750"><ele>174.0</ele></trkpt>
    <trkpt lat="49.1093590" lon="6.1758010"><ele>174.0</ele></trkpt>
    <trkpt lat="49.1092790" lon="6.1758920"><ele>174.0</ele></trkpt>
    <trkpt lat="49.1092560" lon="6.1758440"><ele>174.0</ele></trkpt>
    <trkpt lat="49.1091660" lon="6.1759730"><ele>174.5</ele></trkpt>
    <trkpt lat="49.1091720" lon="6.1760490"><ele>174.8</ele></trkpt>
    <trkpt lat="49.1091610" lon="6.1760650"><ele>174.8</ele></trkpt>
    <trkpt lat="49.1091370" lon="6.1760960"><ele>175.2</ele></trkpt>
    <trkpt lat="49.1090760" lon="6.1761690"><ele>177.0</ele></trkpt>
    <trkpt lat="49.1090190" lon="6.1762350"><ele>178.2</ele></trkpt>
    <trkpt lat="49.1090320" lon="6.1762620"><ele>178.5</ele></trkpt>
    <trkpt lat="49.1090450" lon="6.1762850"><ele>178.8</ele></trkpt>
    <trkpt lat="49.1091390" lon="6.1764790"><ele>180.0</ele></trkpt>
    <trkpt lat="49.1091670" lon="6.1765400"><ele>179.8</ele></trkpt>
    <trkpt lat="49.1091220" lon="6.1765920"><ele>179.2</ele></trkpt>
    <trkpt lat="49.1093080" lon="6.1769770"><ele>179.8</ele></trkpt>
  </trkseg></trk>
</gpx>