<?xml version="1.0" encoding="UTF-8"?>
<kml xmlns="http://www.opengis.net/kml/2.2"><Document>
  <name>Les deux rives</name><description>14.2 km. D+ 28 m. 42 % de chemins. La Moselle dans les deux sens : on descend par l'Esplanade et l'ile du Saulcy, on remonte par les bras morts de Longeville et les prairies Jean-Marie Pelt.</description>
  <Style id="depart"><IconStyle><scale>1.2</scale><Icon><href>http://maps.google.com/mapfiles/kml/paddle/grn-circle.png</href></Icon></IconStyle></Style>
  <Style id="etape"><IconStyle><Icon><href>http://maps.google.com/mapfiles/kml/paddle/wht-blank.png</href></Icon></IconStyle></Style>
    <Placemark><name>Depart : Gare de Metz, parvis</name><description>Point de ralliement des boucles a pied : a moins d'un quart d'heure de marche pour tout le monde. Abrite, cafe ouvert tot, toilettes.</description><styleUrl>#depart</styleUrl><Point><coordinates>6.1770130,49.1092770,0</coordinates></Point></Placemark>
    <Placemark><name>1. Jardin de l'Esplanade</name><description>Terrasse au-dessus de la Moselle, vue sur le Mont Saint-Quentin.</description><styleUrl>#etape</styleUrl><Point><coordinates>6.1705190,49.1159680,0</coordinates></Point></Placemark>
    <Placemark><name>2. Ile du Saulcy</name><description>Ile universitaire, tres calme hors semestre. Cygnes sur les deux bras.</description><styleUrl>#etape</styleUrl><Point><coordinates>6.1612490,49.1201090,0</coordinates></Point></Placemark>
    <Placemark><name>3. Le Grand Patural, Ban-Saint-Martin</name><description>Prairie et promenade au bord de la Moselle, juste avant de quitter la ville.</description><styleUrl>#etape</styleUrl><Point><coordinates>6.1510520,49.1179290,0</coordinates></Point></Placemark>
    <Placemark><name>4. Longeville-les-Metz</name><description>Rive droite, entre les jardins et le bras de la Moselle.</description><styleUrl>#etape</styleUrl><Point><coordinates>6.1361240,49.1152450,0</coordinates></Point></Placemark>
    <Placemark><name>5. Prairies Jean-Marie Pelt</name><description></description><styleUrl>#etape</styleUrl><Point><coordinates>6.1316900,49.1030600,0</coordinates></Point></Placemark>
    <Style id="t1"><LineStyle><color>ff316E7C</color><width>4</width></LineStyle></Style>
    <Placemark><name>Les deux rives</name><description>14.2 km. D+ 28 m. 42 % de chemins. La Moselle dans les deux sens : on descend par l'Esplanade et l'ile du Saulcy, on remonte par les bras morts de Longeville et les prairies Jean-Marie Pelt.</description><styleUrl>#t1</styleUrl><LineString><tessellate>1</tessellate><coordinates>6.1769770,49.1093080,180 6.1771540,49.1093930,180 6.1771030,49.1094370,180 6.1771660,49.1094690,180 6.1772910,49.1095290,180 6.1773130,49.1095400,180 6.1773630,49.1095730,180 6.1773040,49.1096300,180 6.1771340,49.1097880,178 6.1770370,49.1098720,176 6.1770060,49.1099000,176 6.1770100,49.1099770,174 6.1769620,49.1100150,174 6.1767800,49.1101280,174 6.1767370,49.1101660,174 6.1766610,49.1102330,174 6.1766380,49.1102540,174 6.1769440,49.1104060,174 6.1769460,49.1104880,174 6.1769430,49.1105460,174 6.1769420,49.1105880,174 6.1769420,49.1107760,174 6.1769320,49.1109300,174 6.1769010,49.1110900,174 6.1768730,49.1110950,174 6.1767280,49.1112160,174 6.1766730,49.1112620,174 6.1766220,49.1112360,174 6.1765850,49.1112620,174 6.1765680,49.1112740,174 6.1765350,49.1112590,174 6.1763860,49.1113670,174 6.1763820,49.1114120,174 6.1763780,49.1114630,174 6.1763740,49.1115080,174 6.1764020,49.1115770,174 6.1763990,49.1116130,174 6.1761850,49.1116290,174 6.1761840,49.1116900,174 6.1761830,49.1117440,174 6.1760760,49.1117450,174 6.1760360,49.1117550,174 6.1759870,49.1117520,174 6.1758160,49.1118440,174 6.1754290,49.1121200,174 6.1753510,49.1121760,175 6.1752560,49.1122440,175 6.1752280,49.1122640,175 6.1751970,49.1122860,175 6.1750360,49.1123910,175 6.1749870,49.1124260,175 6.1749130,49.1124800,175 6.1743900,49.1128640,175 6.1741470,49.1130430,176 6.1738630,49.1131750,176 6.1736650,49.1132550,176 6.1734400,49.1133710,176 6.1733580,49.1134200,176 6.1733170,49.1134420,176 6.1732810,49.1134630,176 6.1725200,49.1138540,179 6.1724910,49.1138690,179 6.1724540,49.1138870,179 6.1724230,49.1139040,179 6.1725710,49.1140160,179 6.1726370,49.1140750,179 6.1725120,49.1141140,179 6.1724550,49.1141370,179 6.1723000,49.1141700,180 6.1718690,49.1143650,181 6.1712700,49.1146240,182 6.1713420,49.1147090,182 6.1713320,49.1147550,182 6.1713210,49.1148080,182 6.1713900,49.1148830,182 6.1714130,49.1149050,182 6.1712740,49.1149660,182 6.1713990,49.1151010,182 6.1710400,49.1152560,182 6.1707310,49.1153780,182 6.1708020,49.1154460,182 6.1701110,49.1157780,182 6.1702420,49.1158950,181 6.1702820,49.1159310,181 6.1703340,49.1159120,181 6.1703910,49.1159050,181 6.1704500,49.1159090,181 6.1705030,49.1159250,181 6.1705470,49.1159500,181 6.1705520,49.1159550,181 6.1705780,49.1159870,181 6.1705890,49.1160280,181 6.1705790,49.1160690,181 6.1705480,49.1161050,181 6.1705010,49.1161330,181 6.1705340,49.1161620,181 6.1706320,49.1162500,182 6.1701230,49.1164970,182 6.1695730,49.1167630,180 6.1695940,49.1167820,180 6.1695190,49.1168160,179 6.1694000,49.1168860,178 6.1689920,49.1171220,177 6.1690250,49.1171900,178 6.1690450,49.1172320,178 6.1690670,49.1172730,178 6.1691300,49.1174580,178 6.1692370,49.1176820,178 6.1692620,49.1177110,178 6.1693850,49.1178250,177 6.1697350,49.1181230,178 6.1697150,49.1181330,178 6.1696660,49.1181570,176 6.1696170,49.1181770,175 6.1696050,49.1182230,174 6.1696190,49.1182870,172 6.1696410,49.1183320,172 6.1699730,49.1187420,171 6.1705280,49.1191200,169 6.1706080,49.1191790,169 6.1706860,49.1192490,169 6.1706990,49.1192690,169 6.1707080,49.1192920,169 6.1707070,49.1193310,169 6.1706930,49.1193740,169 6.1706420,49.1194130,169 6.1701830,49.1196950,169 6.1701110,49.1197260,169 6.1699540,49.1197580,169 6.1698830,49.1197540,168 6.1696660,49.1197480,168 6.1694680,49.1197510,168 6.1691990,49.1197730,167 6.1687090,49.1199040,167 6.1682170,49.1201480,166 6.1681300,49.1202660,166 6.1681070,49.1203080,166 6.1680840,49.1203160,166 6.1680550,49.1203120,166 6.1680210,49.1203080,166 6.1675010,49.1200240,167 6.1674380,49.1199850,167 6.1673880,49.1200110,167 6.1673200,49.1199740,168 6.1672160,49.1199490,168 6.1671220,49.1199400,168 6.1670250,49.1199400,168 6.1669530,49.1199650,168 6.1668450,49.1200160,168 6.1667070,49.1198940,168 6.1666300,49.1198260,168 6.1665620,49.1198630,168 6.1664940,49.1198980,168 6.1663850,49.1199570,168 6.1663160,49.1199800,168 6.1662610,49.1199880,168 6.1661750,49.1199910,168 6.1661250,49.1199720,168 6.1660010,49.1199260,168 6.1659350,49.1199470,168 6.1659370,49.1199840,168 6.1659190,49.1200120,168 6.1657680,49.1201160,168 6.1656830,49.1201550,168 6.1655510,49.1201850,168 6.1654300,49.1202040,168 6.1650630,49.1202330,168 6.1647530,49.1202690,168 6.1644890,49.1203080,168 6.1643110,49.1203410,168 6.1642400,49.1203630,167 6.1641210,49.1203880,167 6.1636870,49.1204150,168 6.1632550,49.1203940,167 6.1631900,49.1203880,167 6.1631110,49.1203640,167 6.1630880,49.1203720,167 6.1630360,49.1203710,167 6.1628970,49.1203660,167 6.1628100,49.1203380,167 6.1623910,49.1202790,167 6.1619570,49.1202160,167 6.1615810,49.1201620,167 6.1612450,49.1201140,167 6.1612430,49.1201090,168 6.1611120,49.1197950,168 6.1609040,49.1197000,167 6.1608030,49.1196830,167 6.1608800,49.1194620,168 6.1608890,49.1194370,168 6.1608360,49.1193830,168 6.1608110,49.1193110,168 6.1607540,49.1192360,169 6.1606800,49.1191870,170 6.1606310,49.1191400,170 6.1605930,49.1190810,170 6.1605840,49.1190320,170 6.1606150,49.1188230,168 6.1607230,49.1182470,169 6.1607770,49.1181150,170 6.1608430,49.1182340,168 6.1607530,49.1183730,168 6.1604360,49.1183120,168 6.1601360,49.1182310,168 6.1600500,49.1182070,168 6.1599080,49.1181380,168 6.1593070,49.1178830,168 6.1591480,49.1178280,168 6.1589450,49.1177680,168 6.1583190,49.1176420,167 6.1579790,49.1175980,167 6.1576990,49.1176110,167 6.1572550,49.1176590,168 6.1566650,49.1177530,167 6.1562680,49.1178020,166 6.1562090,49.1177910,166 6.1561370,49.1177690,166 6.1560450,49.1177550,166 6.1557120,49.1177760,166 6.1556250,49.1177890,166 6.1553810,49.1177960,166 6.1551300,49.1177960,167 6.1550950,49.1178060,167 6.1548610,49.1177000,167 6.1547520,49.1176760,167 6.1545830,49.1176610,167 6.1544150,49.1176580,167 6.1543170,49.1176720,167 6.1541800,49.1177120,167 6.1535600,49.1177530,167 6.1529020,49.1178190,168 6.1526330,49.1178560,168 6.1522690,49.1178930,168 6.1519000,49.1179380,167 6.1516560,49.1179630,167 6.1512970,49.1179490,167 6.1511750,49.1179340,167 6.1510580,49.1179120,168 6.1510240,49.1179060,168 6.1508730,49.1178670,168 6.1507730,49.1178580,168 6.1506800,49.1178310,167 6.1505670,49.1177820,167 6.1503840,49.1176770,167 6.1503190,49.1176640,167 6.1502590,49.1176520,167 6.1500910,49.1177250,167 6.1500440,49.1177570,167 6.1499250,49.1178880,167 6.1498900,49.1179120,167 6.1498450,49.1179350,167 6.1495810,49.1180280,167 6.1495170,49.1180780,167 6.1491490,49.1180160,167 6.1490270,49.1179940,167 6.1484560,49.1179090,167 6.1487780,49.1172930,168 6.1487030,49.1172540,168 6.1486820,49.1172340,168 6.1486250,49.1171800,169 6.1486020,49.1171590,169 6.1485420,49.1171040,170 6.1484950,49.1170450,170 6.1484550,49.1169890,170 6.1483300,49.1170370,170 6.1483140,49.1170200,170 6.1475900,49.1172900,169 6.1445040,49.1184410,170 6.1445270,49.1184640,170 6.1440720,49.1186270,170 6.1440430,49.1186560,170 6.1439190,49.1187220,170 6.1438610,49.1187730,170 6.1439520,49.1187550,170 6.1441590,49.1186940,170 6.1441320,49.1187170,170 6.1442280,49.1188060,170 6.1442740,49.1187830,170 6.1443050,49.1188130,170 6.1441520,49.1188820,168 6.1437410,49.1190760,169 6.1437350,49.1190800,169 6.1439650,49.1192510,168 6.1440420,49.1192030,169 6.1438120,49.1190280,170 6.1437470,49.1189790,170 6.1433300,49.1191670,168 6.1432020,49.1190610,168 6.1429210,49.1187760,168 6.1427930,49.1187390,168 6.1426690,49.1186850,168 6.1425810,49.1186060,168 6.1419600,49.1189290,168 6.1418620,49.1189640,168 6.1418770,49.1188020,168 6.1418550,49.1187730,168 6.1417380,49.1186590,168 6.1416820,49.1186040,168 6.1419150,49.1184690,168 6.1419980,49.1183850,168 6.1420030,49.1182700,168 6.1419740,49.1182030,168 6.1418740,49.1181480,167 6.1419090,49.1181220,167 6.1419490,49.1180930,167 6.1415480,49.1178830,168 6.1413560,49.1178120,168 6.1410570,49.1177190,169 6.1409350,49.1176680,169 6.1404880,49.1174350,170 6.1403510,49.1173820,170 6.1403240,49.1173730,170 6.1402860,49.1173610,170 6.1402330,49.1173530,170 6.1401290,49.1173360,170 6.1400340,49.1173110,170 6.1382690,49.1164430,170 6.1382260,49.1164230,170 6.1381570,49.1163900,170 6.1373880,49.1158710,171 6.1372620,49.1158020,170 6.1371290,49.1157470,170 6.1360470,49.1154230,174 6.1359560,49.1153720,174 6.1358440,49.1153090,174 6.1357930,49.1152790,174 6.1357610,49.1152530,175 6.1357090,49.1152130,175 6.1351210,49.1148450,176 6.1344160,49.1145380,179 6.1343660,49.1145220,179 6.1342810,49.1144930,179 6.1335750,49.1143080,178 6.1337430,49.1139520,175 6.1339110,49.1136540,170 6.1339320,49.1136360,170 6.1339660,49.1136060,170 6.1339520,49.1135800,170 6.1339040,49.1135790,170 6.1338780,49.1135790,170 6.1329570,49.1135060,171 6.1328350,49.1134940,171 6.1326750,49.1134700,171 6.1322150,49.1133690,170 6.1317820,49.1132560,170 6.1313920,49.1131380,170 6.1313620,49.1131290,170 6.1312960,49.1131060,170 6.1312560,49.1130930,170 6.1311540,49.1130550,170 6.1308790,49.1129230,170 6.1302330,49.1125850,170 6.1301420,49.1125360,170 6.1299230,49.1124420,170 6.1296410,49.1123350,170 6.1292670,49.1122180,169 6.1291350,49.1121860,169 6.1289000,49.1121330,168 6.1281690,49.1120050,170 6.1279800,49.1119240,169 6.1277840,49.1119420,169 6.1276540,49.1119330,169 6.1273870,49.1118940,169 6.1271520,49.1118860,169 6.1269880,49.1118940,169 6.1267810,49.1119250,169 6.1262780,49.1119990,169 6.1260980,49.1120110,169 6.1259500,49.1120120,169 6.1257800,49.1120040,169 6.1254690,49.1119650,169 6.1251840,49.1118950,169 6.1249800,49.1118370,170 6.1245090,49.1116550,169 6.1234920,49.1112640,170 6.1228230,49.1110010,169 6.1226910,49.1109630,169 6.1226060,49.1109500,170 6.1226810,49.1107930,169 6.1227040,49.1107680,169 6.1226500,49.1107360,169 6.1225510,49.1107050,169 6.1220290,49.1105880,169 6.1220400,49.1105350,169 6.1220150,49.1104980,169 6.1220660,49.1104700,169 6.1222030,49.1101930,169 6.1221180,49.1101730,169 6.1218160,49.1097600,169 6.1217440,49.1097390,169 6.1217060,49.1097300,169 6.1209820,49.1095620,169 6.1208890,49.1095270,169 6.1208410,49.1094900,169 6.1207760,49.1093790,169 6.1207550,49.1093460,170 6.1206570,49.1091940,170 6.1205850,49.1091430,170 6.1205320,49.1091070,170 6.1206690,49.1090000,169 6.1207080,49.1089710,169 6.1210670,49.1087690,169 6.1212640,49.1085990,169 6.1213910,49.1085010,169 6.1214990,49.1083930,168 6.1216680,49.1081060,168 6.1216830,49.1080470,168 6.1216650,49.1079970,168 6.1216000,49.1079360,168 6.1215060,49.1078860,168 6.1214050,49.1078500,168 6.1210370,49.1077150,168 6.1208800,49.1076710,168 6.1200460,49.1074320,168 6.1199830,49.1073990,168 6.1199370,49.1073590,168 6.1199010,49.1073240,168 6.1198790,49.1072760,168 6.1198740,49.1071840,168 6.1203270,49.1055400,169 6.1203540,49.1054820,169 6.1203940,49.1054280,169 6.1203450,49.1053950,169 6.1202490,49.1053850,169 6.1201890,49.1053690,168 6.1201390,49.1053420,168 6.1200430,49.1052660,168 6.1199440,49.1052140,168 6.1198510,49.1051770,167 6.1197900,49.1051630,167 6.1197270,49.1051610,167 6.1196320,49.1051790,167 6.1195700,49.1051720,167 6.1195220,49.1051540,167 6.1193470,49.1051340,167 6.1191600,49.1050860,167 6.1191270,49.1050590,167 6.1191270,49.1049880,167 6.1191250,49.1048930,166 6.1191500,49.1048340,166 6.1191510,49.1047970,166 6.1191330,49.1047620,166 6.1190860,49.1047280,166 6.1189960,49.1047040,166 6.1187450,49.1046930,166 6.1184880,49.1047130,166 6.1184150,49.1047050,166 6.1183520,49.1046860,167 6.1182690,49.1046810,166 6.1181710,49.1046830,166 6.1181150,49.1046730,166 6.1180630,49.1046450,166 6.1180250,49.1046340,166 6.1179780,49.1046350,166 6.1179240,49.1046560,166 6.1178710,49.1046640,166 6.1176370,49.1046380,166 6.1172110,49.1046380,166 6.1171370,49.1046270,167 6.1170590,49.1046040,167 6.1170070,49.1045990,167 6.1169550,49.1046070,167 6.1168820,49.1046320,167 6.1167980,49.1046480,167 6.1167490,49.1046450,167 6.1167220,49.1046320,167 6.1167110,49.1046120,167 6.1167040,49.1045200,167 6.1166650,49.1044860,167 6.1165770,49.1044310,167 6.1164900,49.1044000,167 6.1163900,49.1043740,166 6.1161190,49.1043310,166 6.1159060,49.1042740,167 6.1156430,49.1041840,167 6.1154690,49.1040880,167 6.1153250,49.1040390,167 6.1151820,49.1039620,167 6.1150960,49.1038870,167 6.1149020,49.1038010,167 6.1148090,49.1037310,167 6.1147660,49.1036560,167 6.1147570,49.1035720,167 6.1147380,49.1035400,167 6.1146450,49.1034660,167 6.1145540,49.1032730,168 6.1145100,49.1032200,168 6.1145010,49.1031250,168 6.1145540,49.1030200,167 6.1147030,49.1028900,167 6.1148280,49.1028260,168 6.1150760,49.1028370,168 6.1152170,49.1028290,168 6.1153250,49.1027790,168 6.1154180,49.1026830,168 6.1152540,49.1025990,167 6.1149850,49.1024240,167 6.1147550,49.1022890,167 6.1145410,49.1021860,167 6.1142580,49.1020370,167 6.1136320,49.1016280,168 6.1133360,49.1013710,167 6.1130810,49.1011810,168 6.1129520,49.1011930,168 6.1128080,49.1012250,168 6.1126320,49.1013070,168 6.1125440,49.1013600,168 6.1117580,49.1019290,173 6.1118120,49.1019480,174 6.1126680,49.1015000,171 6.1152320,49.1001480,172 6.1153360,49.1000880,173 6.1153510,49.1000690,173 6.1153530,49.1000350,173 6.1153420,49.0999920,173 6.1153220,49.0999560,173 6.1152920,49.0999300,173 6.1149430,49.0998670,171 6.1148320,49.0998630,170 6.1147450,49.0998780,170 6.1146600,49.0999130,169 6.1146080,49.0999670,169 6.1145750,49.1000230,168 6.1145790,49.1000760,168 6.1146120,49.1001040,168 6.1145340,49.1001380,168 6.1144720,49.1001660,168 6.1150300,49.1006290,168 6.1151750,49.1007310,168 6.1152340,49.1007650,168 6.1153140,49.1007830,168 6.1153430,49.1008540,168 6.1156300,49.1010700,168 6.1159510,49.1012610,167 6.1161290,49.1013230,167 6.1162360,49.1013900,167 6.1163850,49.1014690,167 6.1164450,49.1015140,167 6.1165730,49.1015680,167 6.1167270,49.1016060,167 6.1169850,49.1016540,168 6.1172090,49.1017220,168 6.1173220,49.1017730,168 6.1174030,49.1017990,168 6.1176610,49.1018670,167 6.1179120,49.1019140,168 6.1181280,49.1019740,168 6.1183560,49.1020180,167 6.1186390,49.1021130,167 6.1188630,49.1022360,167 6.1189920,49.1022850,167 6.1191410,49.1023140,167 6.1193610,49.1023220,167 6.1195310,49.1023480,167 6.1200220,49.1025510,167 6.1200870,49.1025650,167 6.1201750,49.1025710,166 6.1202650,49.1025890,166 6.1205750,49.1026950,166 6.1207910,49.1027400,167 6.1209800,49.1027900,167 6.1210780,49.1028330,167 6.1212800,49.1029680,166 6.1213520,49.1030090,167 6.1214250,49.1030350,167 6.1217040,49.1030810,167 6.1218910,49.1030900,167 6.1220330,49.1031280,167 6.1221250,49.1031350,167 6.1222410,49.1031300,166 6.1223320,49.1031350,166 6.1224040,49.1031520,166 6.1224530,49.1031850,166 6.1225440,49.1032120,166 6.1226580,49.1032310,166 6.1227830,49.1032250,166 6.1228610,49.1032330,166 6.1229950,49.1032830,166 6.1233340,49.1033480,167 6.1238580,49.1034040,166 6.1239590,49.1034240,166 6.1240590,49.1034690,166 6.1242140,49.1035030,166 6.1244130,49.1035190,166 6.1253440,49.1035580,166 6.1256170,49.1035450,167 6.1259840,49.1035610,166 6.1266010,49.1035210,166 6.1268010,49.1035180,166 6.1272020,49.1034920,167 6.1279780,49.1034110,167 6.1283740,49.1033890,167 6.1288230,49.1033670,167 6.1289400,49.1033490,167 6.1290780,49.1033440,167 6.1291100,49.1033320,167 6.1290980,49.1032730,167 6.1291030,49.1032220,168 6.1291980,49.1030260,169 6.1292550,49.1028730,169 6.1292960,49.1027980,169 6.1296440,49.1028410,169 6.1298010,49.1028550,169 6.1301150,49.1028490,168 6.1303510,49.1028190,168 6.1306390,49.1027410,168 6.1307710,49.1028060,168 6.1314450,49.1029100,168 6.1316870,49.1029080,168 6.1314450,49.1029100,168 6.1307710,49.1028060,168 6.1306390,49.1027410,168 6.1307850,49.1026790,168 6.1317430,49.1021760,170 6.1322210,49.1019060,173 6.1325560,49.1016650,174 6.1330350,49.1012810,170 6.1331530,49.1011810,172 6.1332550,49.1010830,174 6.1333310,49.1009840,173 6.1333630,49.1009450,172 6.1335630,49.1007070,172 6.1336810,49.1005630,172 6.1337300,49.1005780,172 6.1337950,49.1006000,172 6.1338410,49.1006470,172 6.1338490,49.1006990,172 6.1338670,49.1007330,171 6.1339430,49.1008170,171 6.1339430,49.1008360,171 6.1344940,49.1009970,171 6.1345870,49.1010560,172 6.1346690,49.1011160,173 6.1347140,49.1011370,174 6.1348280,49.1011720,174 6.1348840,49.1011830,174 6.1349830,49.1011910,173 6.1351170,49.1011830,172 6.1352010,49.1011880,171 6.1357450,49.1013290,170 6.1403530,49.1025710,170 6.1404030,49.1025840,170 6.1406940,49.1026610,169 6.1434150,49.1033930,170 6.1463470,49.1041850,170 6.1489770,49.1048910,169 6.1494350,49.1050130,171 6.1494650,49.1050240,171 6.1495480,49.1050880,171 6.1496500,49.1051130,170 6.1497590,49.1051000,170 6.1498100,49.1050980,170 6.1499310,49.1051330,169 6.1519490,49.1056250,169 6.1522100,49.1056760,169 6.1522310,49.1056860,169 6.1539600,49.1061030,170 6.1550550,49.1063680,170 6.1554090,49.1064530,169 6.1555960,49.1064870,168 6.1560950,49.1065400,169 6.1562700,49.1065460,169 6.1574080,49.1065310,170 6.1577180,49.1065330,170 6.1581960,49.1065550,170 6.1584840,49.1066020,170 6.1587310,49.1066840,170 6.1588490,49.1067320,170 6.1589550,49.1067850,170 6.1590830,49.1068630,171 6.1593780,49.1070990,170 6.1596360,49.1073390,170 6.1597310,49.1074090,170 6.1599470,49.1075460,170 6.1600510,49.1075910,171 6.1605230,49.1078390,171 6.1607310,49.1079760,171 6.1612210,49.1083630,171 6.1614750,49.1085880,171 6.1616010,49.1085440,173 6.1616730,49.1085530,174 6.1621180,49.1086670,176 6.1623600,49.1088380,176 6.1624090,49.1088820,176 6.1626800,49.1090680,177 6.1633810,49.1096130,177 6.1634780,49.1097190,178 6.1635170,49.1098270,177 6.1636160,49.1098140,178 6.1637000,49.1097850,178 6.1637770,49.1097460,178 6.1638790,49.1097840,179 6.1639460,49.1097970,179 6.1639930,49.1097880,179 6.1640270,49.1097490,179 6.1641720,49.1096570,179 6.1646700,49.1093770,180 6.1647100,49.1093760,180 6.1647750,49.1093430,180 6.1648630,49.1094020,180 6.1649640,49.1094600,181 6.1653670,49.1096980,181 6.1656560,49.1098330,181 6.1658060,49.1098900,182 6.1658740,49.1099160,182 6.1661050,49.1099760,182 6.1663640,49.1100290,182 6.1666150,49.1100750,182 6.1668690,49.1101080,182 6.1670840,49.1101430,182 6.1672230,49.1101650,183 6.1673810,49.1102140,183 6.1673870,49.1102660,183 6.1673890,49.1102800,183 6.1675450,49.1103210,183 6.1677980,49.1103280,182 6.1693510,49.1104380,182 6.1705060,49.1105200,180 6.1706010,49.1105660,180 6.1706670,49.1105650,180 6.1707240,49.1105640,180 6.1707830,49.1105490,180 6.1708360,49.1105350,180 6.1713030,49.1105230,179 6.1718080,49.1105100,179 6.1718680,49.1105080,179 6.1719520,49.1104920,179 6.1720450,49.1104710,179 6.1723840,49.1104130,179 6.1727810,49.1103670,178 6.1730170,49.1103700,178 6.1732230,49.1103870,177 6.1737140,49.1104280,177 6.1738500,49.1104310,176 6.1739670,49.1104400,176 6.1741070,49.1104430,176 6.1742460,49.1104380,176 6.1744300,49.1104160,176 6.1745770,49.1103850,176 6.1746420,49.1103640,176 6.1747350,49.1103310,176 6.1748830,49.1103020,175 6.1759170,49.1100190,174 6.1756730,49.1096230,174 6.1757750,49.1095300,174 6.1758470,49.1094650,174 6.1758810,49.1094330,174 6.1757750,49.1093810,174 6.1758010,49.1093590,174 6.1758920,49.1092790,174 6.1758440,49.1092560,174 6.1759730,49.1091660,174 6.1760490,49.1091720,175 6.1760650,49.1091610,175 6.1760960,49.1091370,175 6.1761690,49.1090760,177 6.1762350,49.1090190,178 6.1762620,49.1090320,178 6.1762850,49.1090450,179 6.1764790,49.1091390,180 6.1765400,49.1091670,180 6.1765920,49.1091220,179 6.1769770,49.1093080,180</coordinates></LineString></Placemark>
</Document></kml>