<?xml version="1.0" encoding="UTF-8"?>
<kml xmlns="http://www.opengis.net/kml/2.2"><Document>
  <name>Grange-aux-Bois et les lacs du Technopole</name><description>14.1 km. D+ 117 m. 33 % de chemins. Par Plantieres et le fort de Queuleu, puis la ceinture verte jusqu'a Grange-aux-Bois, la Roseraie et le lac Ariane ; retour par le Technopole et le lac Symphonie. Le premier kilometre se fait a l'aller et au retour.</description>
  <Style id="depart"><IconStyle><scale>1.2</scale><Icon><href>http://maps.google.com/mapfiles/kml/paddle/grn-circle.png</href></Icon></IconStyle></Style>
  <Style id="etape"><IconStyle><Icon><href>http://maps.google.com/mapfiles/kml/paddle/wht-blank.png</href></Icon></IconStyle></Style>
    <Placemark><name>Depart : Centre Pompidou-Metz, parvis</name><description>Point de rendez-vous, sur le parvis des Droits de l'Homme, a deux pas de la gare.</description><styleUrl>#depart</styleUrl><Point><coordinates>6.1811000,49.1084000,0</coordinates></Point></Placemark>
    <Placemark><name>1. Square Pierre Simon, Plantieres</name><description></description><styleUrl>#etape</styleUrl><Point><coordinates>6.1968500,49.1035600,0</coordinates></Point></Placemark>
    <Placemark><name>2. Fort de Queuleu</name><description>Fort du XIXe siecle, memorial de la Resistance. Le bois autour est ouvert et sillonne de chemins.</description><styleUrl>#etape</styleUrl><Point><coordinates>6.1954340,49.0984520,0</coordinates></Point></Placemark>
    <Placemark><name>3. Parc du Vallon</name><description></description><styleUrl>#etape</styleUrl><Point><coordinates>6.2169300,49.0959600,0</coordinates></Point></Placemark>
    <Placemark><name>4. Lac Ariane</name><description></description><styleUrl>#etape</styleUrl><Point><coordinates>6.2357300,49.0955500,0</coordinates></Point></Placemark>
    <Placemark><name>5. Parc de la Roseraie, Grange-aux-Bois</name><description></description><styleUrl>#etape</styleUrl><Point><coordinates>6.2429100,49.0957900,0</coordinates></Point></Placemark>
    <Placemark><name>6. Lac Symphonie</name><description></description><styleUrl>#etape</styleUrl><Point><coordinates>6.2171100,49.1035200,0</coordinates></Point></Placemark>
    <Placemark><name>7. Technopole, square Simon-Louis Freres</name><description>Allees plantees du Technopole, autour du plan d'eau Symphonie.</description><styleUrl>#etape</styleUrl><Point><coordinates>6.2021930,49.1114980,0</coordinates></Point></Placemark>
    <Style id="t1"><LineStyle><color>ff2F6690</color><width>4</width></LineStyle></Style>
    <Placemark><name>Grange-aux-Bois et les lacs du Technopole</name><description>14.1 km. D+ 117 m. 33 % de chemins. Par Plantieres et le fort de Queuleu, puis la ceinture verte jusqu'a Grange-aux-Bois, la Roseraie et le lac Ariane ; retour par le Technopole et le lac Symphonie. Le premier kilometre se fait a l'aller et au retour.</description><styleUrl>#t1</styleUrl><LineString><tessellate>1</tessellate><coordinates>6.1810500,49.1084250,171 6.1808640,49.1082740,172 6.1809960,49.1080510,171 6.1811220,49.1078390,171 6.1809290,49.1077440,171 6.1809750,49.1077000,171 6.1810350,49.1076610,171 6.1811230,49.1076290,171 6.1811800,49.1076210,171 6.1812390,49.1076120,171 6.1825490,49.1076960,171 6.1829870,49.1077260,173 6.1829890,49.1077060,172 6.1829990,49.1076110,172 6.1830050,49.1075710,172 6.1830140,49.1075180,171 6.1831850,49.1075310,170 6.1832290,49.1075150,170 6.1832440,49.1074910,170 6.1833290,49.1074970,170 6.1834120,49.1075020,170 6.1836170,49.1075120,170 6.1836340,49.1074180,170 6.1838590,49.1074340,170 6.1839010,49.1074370,170 6.1842170,49.1074590,170 6.1845450,49.1074790,170 6.1848300,49.1074990,170 6.1849290,49.1075060,170 6.1852320,49.1075280,169 6.1860800,49.1075910,168 6.1861100,49.1074060,168 6.1861190,49.1073520,168 6.1861450,49.1073240,168 6.1863250,49.1062780,167 6.1863420,49.1062490,167 6.1863460,49.1062100,168 6.1864140,49.1062100,168 6.1866520,49.1061880,168 6.1870000,49.1061450,168 6.1873180,49.1061070,168 6.1873730,49.1061000,168 6.1874010,49.1060970,168 6.1874490,49.1060910,169 6.1874620,49.1061530,169 6.1874760,49.1061990,169 6.1875290,49.1061880,169 6.1875610,49.1061820,169 6.1876220,49.1061690,169 6.1885300,49.1059850,174 6.1885700,49.1059770,174 6.1889190,49.1059060,177 6.1890500,49.1058590,178 6.1892320,49.1058170,180 6.1893830,49.1058150,180 6.1895080,49.1057930,182 6.1896140,49.1057750,183 6.1897140,49.1057670,184 6.1900440,49.1057920,186 6.1902460,49.1057980,189 6.1904640,49.1057780,190 6.1904600,49.1056630,190 6.1904760,49.1055680,190 6.1905100,49.1054700,191 6.1906650,49.1051200,194 6.1907370,49.1049610,195 6.1907830,49.1047690,196 6.1907770,49.1046660,197 6.1907660,49.1044820,198 6.1907630,49.1044380,198 6.1907340,49.1043250,198 6.1908370,49.1043150,199 6.1912300,49.1043670,200 6.1914690,49.1044010,200 6.1924280,49.1045440,202 6.1929700,49.1046500,203 6.1934710,49.1047790,203 6.1935290,49.1047930,204 6.1935810,49.1048010,204 6.1936530,49.1047150,204 6.1937600,49.1046050,204 6.1941760,49.1042250,206 6.1943210,49.1039860,206 6.1946960,49.1033840,205 6.1947700,49.1032900,205 6.1948040,49.1032980,205 6.1948500,49.1033080,205 6.1951690,49.1033950,206 6.1954280,49.1034630,206 6.1956040,49.1034910,207 6.1957040,49.1035090,207 6.1958170,49.1035390,207 6.1961220,49.1036220,208 6.1962320,49.1036500,208 6.1962030,49.1037030,208 6.1963090,49.1037350,209 6.1964710,49.1037480,209 6.1965570,49.1037460,209 6.1965630,49.1037230,209 6.1966000,49.1036930,208 6.1966770,49.1036610,208 6.1968490,49.1036060,208 6.1968490,49.1036060,208 6.1966770,49.1036610,208 6.1966000,49.1036930,208 6.1965630,49.1037230,209 6.1965570,49.1037460,209 6.1964710,49.1037480,209 6.1963090,49.1037350,209 6.1962030,49.1037030,208 6.1962320,49.1036500,208 6.1961220,49.1036220,208 6.1958170,49.1035390,207 6.1957040,49.1035090,207 6.1956040,49.1034910,207 6.1954280,49.1034630,206 6.1951690,49.1033950,206 6.1948500,49.1033080,205 6.1948040,49.1032980,205 6.1947700,49.1032900,205 6.1947750,49.1032810,205 6.1948100,49.1032140,204 6.1948730,49.1030910,204 6.1949030,49.1030340,204 6.1949460,49.1029540,203 6.1949510,49.1028770,202 6.1949590,49.1027700,202 6.1949350,49.1024550,196 6.1949170,49.1023750,195 6.1949200,49.1023070,194 6.1949670,49.1015950,187 6.1950020,49.1015290,187 6.1950240,49.1014970,187 6.1950360,49.1014610,187 6.1951280,49.1012030,188 6.1951920,49.1010200,188 6.1952470,49.1008670,189 6.1953010,49.1007130,188 6.1956290,49.0999950,184 6.1956500,49.0999440,184 6.1949480,49.0997610,182 6.1948710,49.0997390,182 6.1948830,49.0997200,182 6.1948950,49.0997020,182 6.1950910,49.0994120,184 6.1951330,49.0992900,184 6.1951660,49.0991600,186 6.1951690,49.0990510,185 6.1951460,49.0989750,185 6.1951090,49.0989250,185 6.1950220,49.0988870,184 6.1950980,49.0987100,183 6.1952140,49.0985050,182 6.1952350,49.0984270,180 6.1952510,49.0983730,180 6.1952980,49.0982860,180 6.1953810,49.0982770,180 6.1958160,49.0982330,181 6.1958270,49.0982620,181 6.1958380,49.0982920,181 6.1959470,49.0985960,184 6.1959950,49.0988360,188 6.1959920,49.0990310,190 6.1960580,49.0990300,190 6.1966150,49.0990110,192 6.1966690,49.0990200,192 6.1967140,49.0990420,192 6.1967390,49.0990800,193 6.1968010,49.0991310,193 6.1968650,49.0991670,194 6.1973930,49.0991490,197 6.1979260,49.0990860,200 6.1985560,49.0990540,203 6.1988540,49.0990060,204 6.1990340,49.0989830,205 6.1991630,49.0989710,205 6.1996010,49.0989520,207 6.2001170,49.0988810,209 6.2002730,49.0988660,210 6.2003930,49.0988530,210 6.2007240,49.0988010,212 6.2009620,49.0986940,212 6.2014070,49.0985620,213 6.2014130,49.0984690,213 6.2015680,49.0984770,213 6.2016360,49.0986410,214 6.2016460,49.0987490,214 6.2018350,49.0987610,214 6.2019430,49.0987820,214 6.2024970,49.0989690,215 6.2025410,49.0989870,215 6.2025820,49.0990110,215 6.2026200,49.0990000,215 6.2026630,49.0989610,215 6.2027100,49.0988950,215 6.2027210,49.0987920,215 6.2028420,49.0988070,215 6.2029180,49.0987000,216 6.2030370,49.0985630,216 6.2031340,49.0984690,216 6.2031790,49.0984410,216 6.2032460,49.0983990,216 6.2033070,49.0984570,216 6.2041180,49.0992100,218 6.2041970,49.0991810,219 6.2042170,49.0991800,219 6.2042590,49.0991940,219 6.2043510,49.0992470,219 6.2046520,49.0994330,219 6.2047530,49.0994870,219 6.2054480,49.0998130,218 6.2055520,49.0998470,218 6.2057470,49.0999360,217 6.2058500,49.0999720,217 6.2057950,49.1000160,217 6.2058680,49.1000490,217 6.2058930,49.1000220,217 6.2062540,49.1001920,216 6.2063190,49.1002430,216 6.2063270,49.1002650,216 6.2063170,49.1002840,216 6.2062730,49.1003240,216 6.2063510,49.1003630,216 6.2064880,49.1004300,215 6.2065210,49.1004030,215 6.2065560,49.1003540,215 6.2067720,49.1003850,214 6.2069150,49.1004400,214 6.2070230,49.1004980,213 6.2081470,49.1010410,208 6.2081820,49.1010780,208 6.2083040,49.1010110,208 6.2087050,49.1008340,208 6.2088380,49.1007630,208 6.2096250,49.1002220,208 6.2104320,49.0997340,210 6.2107050,49.0995570,210 6.2108530,49.0995170,210 6.2118860,49.0990120,208 6.2119610,49.0989760,208 6.2120830,49.0989630,208 6.2121170,49.0989440,207 6.2121310,49.0988820,207 6.2126820,49.0986120,206 6.2131460,49.0984070,206 6.2138940,49.0980890,205 6.2148920,49.0976110,204 6.2151470,49.0975000,203 6.2169220,49.0968620,202 6.2172780,49.0967250,202 6.2173810,49.0966860,202 6.2166450,49.0960320,202 6.2167480,49.0958990,206 6.2176190,49.0947780,206 6.2187070,49.0950130,207 6.2191420,49.0944400,208 6.2191620,49.0944090,208 6.2191850,49.0943790,208 6.2194590,49.0940160,208 6.2195290,49.0939230,209 6.2202000,49.0930470,211 6.2203510,49.0928560,211 6.2210020,49.0919940,212 6.2210810,49.0920060,212 6.2215570,49.0920830,214 6.2217100,49.0921070,214 6.2220410,49.0921600,214 6.2227090,49.0922720,216 6.2229080,49.0923450,217 6.2229840,49.0923800,218 6.2230230,49.0924250,218 6.2230110,49.0925370,218 6.2230350,49.0926040,217 6.2230710,49.0926530,218 6.2230590,49.0926710,217 6.2232090,49.0927200,218 6.2233100,49.0927760,218 6.2234240,49.0927810,218 6.2235530,49.0927700,218 6.2236760,49.0927390,218 6.2237390,49.0927790,218 6.2239210,49.0928660,217 6.2243580,49.0931030,216 6.2244830,49.0931590,216 6.2247690,49.0932520,215 6.2250810,49.0933030,216 6.2253340,49.0933210,215 6.2254120,49.0933280,216 6.2282840,49.0935310,216 6.2287410,49.0935650,217 6.2288110,49.0935720,217 6.2288650,49.0935930,217 6.2289330,49.0936480,216 6.2289480,49.0936760,216 6.2289640,49.0937740,216 6.2290710,49.0937660,216 6.2291910,49.0937570,215 6.2292730,49.0937510,215 6.2293590,49.0937450,216 6.2293850,49.0937430,216 6.2295280,49.0936420,216 6.2296770,49.0936510,216 6.2298500,49.0936720,216 6.2303810,49.0936980,215 6.2304470,49.0937020,215 6.2305600,49.0936770,215 6.2320570,49.0937770,217 6.2324960,49.0938250,214 6.2325260,49.0938280,214 6.2325350,49.0937770,214 6.2325450,49.0937330,214 6.2337350,49.0938120,214 6.2338740,49.0938050,214 6.2339520,49.0937850,214 6.2340610,49.0937150,214 6.2341180,49.0937080,213 6.2342330,49.0937090,214 6.2343050,49.0937130,214 6.2343460,49.0937710,214 6.2344290,49.0938220,214 6.2344850,49.0938420,214 6.2344660,49.0938820,214 6.2344490,49.0939180,214 6.2344600,49.0939580,214 6.2344820,49.0940260,213 6.2345070,49.0940540,213 6.2345540,49.0941010,213 6.2346310,49.0941570,212 6.2347300,49.0941290,212 6.2348700,49.0941130,212 6.2350250,49.0941040,212 6.2351660,49.0941160,212 6.2355690,49.0941980,212 6.2356570,49.0942260,212 6.2357510,49.0942960,212 6.2358440,49.0943800,212 6.2358930,49.0944690,212 6.2359230,49.0945720,212 6.2359720,49.0948200,211 6.2360030,49.0948920,211 6.2360450,49.0949550,212 6.2361160,49.0950130,212 6.2362790,49.0950990,212 6.2363790,49.0951520,212 6.2364950,49.0952290,212 6.2366220,49.0953220,212 6.2366900,49.0953900,212 6.2367550,49.0954890,212 6.2368460,49.0955880,212 6.2369670,49.0956670,211 6.2372670,49.0957960,212 6.2374580,49.0958600,212 6.2375900,49.0959150,212 6.2377180,49.0959790,212 6.2377880,49.0960240,212 6.2378200,49.0960650,212 6.2378280,49.0960960,212 6.2383970,49.0961380,212 6.2384310,49.0961410,212 6.2385620,49.0961700,212 6.2386080,49.0961730,212 6.2387480,49.0961830,212 6.2387540,49.0961520,212 6.2389860,49.0961660,212 6.2397800,49.0962250,214 6.2401020,49.0962670,214 6.2404260,49.0963380,216 6.2405730,49.0963810,216 6.2406870,49.0962540,216 6.2408750,49.0960920,217 6.2411260,49.0959260,218 6.2415390,49.0956950,218 6.2415770,49.0956790,218 6.2417640,49.0956250,218 6.2418910,49.0956100,219 6.2421200,49.0955840,219 6.2423580,49.0956040,219 6.2425370,49.0956390,220 6.2425960,49.0956570,220 6.2426280,49.0956850,220 6.2428870,49.0958090,220 6.2426280,49.0956850,220 6.2425960,49.0956570,220 6.2425370,49.0956390,220 6.2423580,49.0956040,219 6.2421200,49.0955840,219 6.2418910,49.0956100,219 6.2417640,49.0956250,218 6.2415770,49.0956790,218 6.2415700,49.0957920,218 6.2416320,49.0962200,218 6.2414820,49.0964090,217 6.2412410,49.0966100,217 6.2411640,49.0966560,217 6.2411400,49.0966760,217 6.2410420,49.0967580,217 6.2404670,49.0972400,216 6.2400930,49.0975530,217 6.2398420,49.0977630,217 6.2398110,49.0977890,217 6.2397790,49.0978160,217 6.2397460,49.0978430,217 6.2396490,49.0979310,217 6.2393890,49.0981490,217 6.2386280,49.0987630,214 6.2385730,49.0988200,214 6.2385580,49.0988450,214 6.2384720,49.0988150,214 6.2378030,49.0985850,213 6.2377640,49.0986280,213 6.2376980,49.0986160,213 6.2375880,49.0988200,214 6.2373940,49.0991790,214 6.2372550,49.0994420,215 6.2372380,49.0994730,215 6.2370700,49.0997950,215 6.2370350,49.0998530,215 6.2368610,49.1001890,215 6.2368070,49.1001860,214 6.2365920,49.1003040,214 6.2365360,49.1003240,214 6.2365180,49.1003370,214 6.2364590,49.1003510,214 6.2365130,49.1004260,214 6.2365560,49.1005070,214 6.2366000,49.1007590,215 6.2366370,49.1008550,215 6.2366840,49.1010170,216 6.2367390,49.1011580,216 6.2367440,49.1012350,216 6.2367620,49.1013210,217 6.2367710,49.1014480,218 6.2367940,49.1016030,218 6.2367820,49.1017410,219 6.2367910,49.1018600,220 6.2368330,49.1019690,220 6.2368990,49.1020790,221 6.2369560,49.1021940,222 6.2370070,49.1023630,224 6.2370120,49.1024570,224 6.2369910,49.1025130,225 6.2368670,49.1027000,227 6.2368250,49.1031050,231 6.2363970,49.1031120,225 6.2358590,49.1031190,225 6.2355340,49.1031270,230 6.2353450,49.1031180,230 6.2351130,49.1030930,229 6.2350030,49.1030880,228 6.2347400,49.1031050,227 6.2336830,49.1031530,224 6.2327460,49.1032340,221 6.2322700,49.1032370,220 6.2319330,49.1032050,220 6.2316360,49.1030940,219 6.2314340,49.1029470,218 6.2312110,49.1027200,218 6.2308710,49.1025170,217 6.2302460,49.1022580,215 6.2296810,49.1020980,214 6.2287720,49.1018960,215 6.2282440,49.1015220,214 6.2274430,49.1019820,214 6.2274520,49.1019890,214 6.2273870,49.1020270,214 6.2263680,49.1012970,212 6.2258650,49.1009400,211 6.2257120,49.1008510,211 6.2255430,49.1007830,211 6.2253070,49.1007200,211 6.2250760,49.1006920,210 6.2249300,49.1006850,210 6.2244460,49.1006860,210 6.2244410,49.1007850,210 6.2244220,49.1007840,210 6.2243600,49.1007820,210 6.2242260,49.1007770,210 6.2241780,49.1007760,210 6.2241660,49.1007750,210 6.2240760,49.1007730,210 6.2240790,49.1006840,210 6.2235280,49.1006640,209 6.2227100,49.1006160,207 6.2224870,49.1006170,207 6.2220760,49.1006230,206 6.2218540,49.1006350,206 6.2217530,49.1006890,206 6.2216680,49.1007120,205 6.2214510,49.1007510,205 6.2212790,49.1007460,204 6.2211950,49.1007440,204 6.2201130,49.1007240,202 6.2194580,49.1007080,201 6.2188000,49.1006890,198 6.2186430,49.1006830,198 6.2186070,49.1007050,198 6.2180010,49.1010720,196 6.2179450,49.1011170,196 6.2179200,49.1011130,196 6.2177980,49.1010940,196 6.2176530,49.1010800,196 6.2175860,49.1010730,196 6.2174590,49.1010590,196 6.2173670,49.1010610,197 6.2172730,49.1010930,197 6.2171030,49.1012520,197 6.2170210,49.1013550,197 6.2170320,49.1014000,197 6.2170440,49.1015350,196 6.2170220,49.1018050,195 6.2170230,49.1019180,194 6.2170440,49.1020620,194 6.2170760,49.1021840,193 6.2169780,49.1025390,192 6.2168900,49.1026930,192 6.2168550,49.1029460,192 6.2168120,49.1030500,192 6.2167540,49.1031480,192 6.2166190,49.1032630,193 6.2165890,49.1032920,194 6.2165470,49.1033340,194 6.2164570,49.1033940,194 6.2162070,49.1035410,196 6.2160620,49.1036380,197 6.2159090,49.1037480,197 6.2158240,49.1038200,197 6.2157610,49.1039210,197 6.2154810,49.1042340,196 6.2152830,49.1045140,196 6.2152660,49.1045670,196 6.2152390,49.1045790,196 6.2151540,49.1046670,196 6.2150520,49.1047390,196 6.2149500,49.1048000,196 6.2149410,49.1048050,196 6.2148840,49.1048340,196 6.2147310,49.1049130,196 6.2147020,49.1049280,196 6.2146810,49.1049480,196 6.2146480,49.1049780,196 6.2146160,49.1050070,196 6.2145980,49.1050260,196 6.2146350,49.1050790,196 6.2146380,49.1051140,196 6.2145730,49.1052060,197 6.2144930,49.1053050,197 6.2144390,49.1053450,196 6.2142400,49.1055930,196 6.2141950,49.1056790,196 6.2139900,49.1059400,196 6.2134900,49.1065500,196 6.2134630,49.1065700,196 6.2133890,49.1065560,197 6.2132640,49.1065190,197 6.2131710,49.1064810,197 6.2124300,49.1063830,198 6.2120910,49.1063180,199 6.2118580,49.1062220,199 6.2114380,49.1060220,200 6.2113430,49.1059870,200 6.2112480,49.1059560,200 6.2110930,49.1059220,200 6.2107430,49.1058220,201 6.2104480,49.1056780,201 6.2102440,49.1056070,201 6.2101320,49.1055490,202 6.2099290,49.1054700,203 6.2098950,49.1055030,203 6.2098290,49.1055750,203 6.2097920,49.1056160,202 6.2097000,49.1055980,202 6.2095780,49.1055920,202 6.2094810,49.1056190,202 6.2093520,49.1056840,202 6.2091420,49.1057750,202 6.2086150,49.1060270,202 6.2080310,49.1064240,202 6.2079580,49.1065420,202 6.2079580,49.1065850,202 6.2079010,49.1065870,202 6.2078520,49.1065870,202 6.2078040,49.1066020,202 6.2077880,49.1066260,202 6.2077730,49.1066700,202 6.2077580,49.1067180,202 6.2077170,49.1067280,202 6.2076620,49.1067520,202 6.2062150,49.1078310,203 6.2060340,49.1079710,203 6.2058770,49.1081060,203 6.2056070,49.1083450,204 6.2056310,49.1083650,203 6.2056430,49.1083950,203 6.2056530,49.1084230,203 6.2057820,49.1084760,202 6.2057290,49.1085220,202 6.2056560,49.1085900,202 6.2056090,49.1086290,202 6.2054390,49.1086210,202 6.2052620,49.1087480,203 6.2051080,49.1088680,202 6.2048010,49.1090840,202 6.2042960,49.1094360,199 6.2038470,49.1097390,198 6.2031900,49.1101860,197 6.2030950,49.1102400,197 6.2027700,49.1104340,197 6.2025520,49.1105880,197 6.2023510,49.1107400,196 6.2022580,49.1108100,197 6.2022100,49.1108680,197 6.2021630,49.1109250,196 6.2022610,49.1111400,195 6.2022800,49.1112060,194 6.2022550,49.1112600,194 6.2022050,49.1113070,194 6.2022400,49.1113470,194 6.2022600,49.1114060,194 6.2022630,49.1114450,194 6.2022410,49.1115050,193 6.2022630,49.1114450,194 6.2022600,49.1114060,194 6.2022400,49.1113470,194 6.2022050,49.1113070,194 6.2022550,49.1112600,194 6.2022800,49.1112060,194 6.2022610,49.1111400,195 6.2021630,49.1109250,196 6.2022100,49.1108680,197 6.2021460,49.1108450,197 6.2020070,49.1108570,197 6.2019020,49.1108650,197 6.2018420,49.1108460,197 6.2017820,49.1108270,197 6.2017190,49.1108070,197 6.2016870,49.1107970,197 6.2015010,49.1107380,198 6.2013010,49.1106750,198 6.2005460,49.1104390,200 6.2004850,49.1104230,200 6.2002060,49.1103460,201 6.1998650,49.1102300,202 6.1996090,49.1101320,202 6.1995100,49.1100890,202 6.1994310,49.1100550,203 6.1992250,49.1099650,203 6.1969120,49.1089580,207 6.1967850,49.1088900,207 6.1966690,49.1088370,207 6.1962500,49.1086800,206 6.1961970,49.1086600,206 6.1959880,49.1085820,206 6.1951030,49.1082510,204 6.1949970,49.1082120,204 6.1949140,49.1081780,204 6.1943160,49.1079200,203 6.1941300,49.1078580,202 6.1940690,49.1078410,202 6.1940000,49.1078310,201 6.1938920,49.1078120,200 6.1937950,49.1077860,198 6.1935600,49.1076910,198 6.1935400,49.1076810,198 6.1935060,49.1076630,199 6.1932020,49.1074820,202 6.1925860,49.1071150,199 6.1925360,49.1070850,199 6.1924730,49.1070480,199 6.1922910,49.1069400,198 6.1922660,49.1069270,198 6.1920200,49.1068040,198 6.1918820,49.1067560,198 6.1917450,49.1067190,198 6.1916690,49.1066980,197 6.1915940,49.1067700,197 6.1913920,49.1069250,196 6.1912780,49.1068710,196 6.1911080,49.1068030,196 6.1909670,49.1067890,196 6.1907100,49.1068020,194 6.1906170,49.1068070,194 6.1905040,49.1060450,190 6.1904890,49.1059420,190 6.1904710,49.1058250,190 6.1904640,49.1057780,190 6.1902460,49.1057980,189 6.1900440,49.1057920,186 6.1897140,49.1057670,184 6.1896140,49.1057750,183 6.1895080,49.1057930,182 6.1893830,49.1058150,180 6.1892320,49.1058170,180 6.1890500,49.1058590,178 6.1889190,49.1059060,177 6.1885700,49.1059770,174 6.1885300,49.1059850,174 6.1876220,49.1061690,169 6.1875610,49.1061820,169 6.1875290,49.1061880,169 6.1874760,49.1061990,169 6.1874620,49.1061530,169 6.1874490,49.1060910,169 6.1874010,49.1060970,168 6.1873730,49.1061000,168 6.1873180,49.1061070,168 6.1870000,49.1061450,168 6.1866520,49.1061880,168 6.1864140,49.1062100,168 6.1863460,49.1062100,168 6.1863420,49.1062490,167 6.1863250,49.1062780,167 6.1861450,49.1073240,168 6.1861190,49.1073520,168 6.1861100,49.1074060,168 6.1860800,49.1075910,168 6.1852320,49.1075280,169 6.1849290,49.1075060,170 6.1848300,49.1074990,170 6.1845450,49.1074790,170 6.1842170,49.1074590,170 6.1839010,49.1074370,170 6.1838590,49.1074340,170 6.1836340,49.1074180,170 6.1836170,49.1075120,170 6.1834120,49.1075020,170 6.1833290,49.1074970,170 6.1832440,49.1074910,170 6.1832290,49.1075150,170 6.1831850,49.1075310,170 6.1830140,49.1075180,171 6.1830050,49.1075710,172 6.1829990,49.1076110,172 6.1829890,49.1077060,172 6.1829870,49.1077260,173 6.1825490,49.1076960,171 6.1812390,49.1076120,171 6.1811800,49.1076210,171 6.1811230,49.1076290,171 6.1810350,49.1076610,171 6.1809750,49.1077000,171 6.1809290,49.1077440,171 6.1811220,49.1078390,171 6.1809960,49.1080510,171 6.1808640,49.1082740,172 6.1810500,49.1084250,171</coordinates></LineString></Placemark>
</Document></kml>