<?xml version="1.0" encoding="UTF-8"?>
<kml xmlns="http://www.opengis.net/kml/2.2"><Document>
  <name>Le tour des jardins du centre</name><description>4.4 km. D+ 25 m. 16 % de chemins. Un chapelet de jardins et de places : les Cinq Sens au bord de la Seille, Saint-Thiebault, la tour Camoufle, la Porte Serpenoise, l'Esplanade, l'ile et les Tanneurs. Beaucoup de pave, peu de voitures.</description>
  <Style id="depart"><IconStyle><scale>1.2</scale><Icon><href>http://maps.google.com/mapfiles/kml/paddle/grn-circle.png</href></Icon></IconStyle></Style>
  <Style id="etape"><IconStyle><Icon><href>http://maps.google.com/mapfiles/kml/paddle/wht-blank.png</href></Icon></IconStyle></Style>
    <Placemark><name>Depart : Rue des Parmentiers, Metz</name><description>Depart des deux boucles vers Borny, dans la Nouvelle Ville. A dix minutes a pied de la gare, dont il partage les commodites.</description><styleUrl>#depart</styleUrl><Point><coordinates>6.1768700,49.1153870,0</coordinates></Point></Placemark>
    <Placemark><name>1. Jardin des Cinq Sens</name><description>Jardin au bord de la Seille, au pied d'Outre-Seille.</description><styleUrl>#etape</styleUrl><Point><coordinates>6.1808580,49.1125690,0</coordinates></Point></Placemark>
    <Placemark><name>2. Place Saint-Thiebault</name><description>Place plantee entre la Nouvelle Ville et la vieille ville.</description><styleUrl>#etape</styleUrl><Point><coordinates>6.1777970,49.1124790,0</coordinates></Point></Placemark>
    <Placemark><name>3. Tour Camoufle</name><description>Tour d'artillerie du XVe siecle, restee seule dans son square.</description><styleUrl>#etape</styleUrl><Point><coordinates>6.1735780,49.1120470,0</coordinates></Point></Placemark>
    <Placemark><name>4. Porte Serpenoise</name><description>Porte de l'enceinte et entree du quartier imperial.</description><styleUrl>#etape</styleUrl><Point><coordinates>6.1710240,49.1125700,0</coordinates></Point></Placemark>
    <Placemark><name>5. Jardin de l'Esplanade</name><description>Terrasse au-dessus de la Moselle, vue sur le Mont Saint-Quentin.</description><styleUrl>#etape</styleUrl><Point><coordinates>6.1705190,49.1159680,0</coordinates></Point></Placemark>
    <Placemark><name>6. Temple Neuf et le Moyen Pont</name><description>Pointe de l'ile du Petit-Saulcy, entre les deux bras de la Moselle ; la vue sur la cathedrale et le plan d'eau.</description><styleUrl>#etape</styleUrl><Point><coordinates>6.1703820,49.1197430,0</coordinates></Point></Placemark>
    <Placemark><name>7. Jardin des Tanneurs</name><description>Jardin en terrasses sur le flanc de la colline Sainte-Croix.</description><styleUrl>#etape</styleUrl><Point><coordinates>6.1811210,49.1197080,0</coordinates></Point></Placemark>
    <Style id="t1"><LineStyle><color>ffB5651D</color><width>4</width></LineStyle></Style>
    <Placemark><name>Le tour des jardins du centre</name><description>4.4 km. D+ 25 m. 16 % de chemins. Un chapelet de jardins et de places : les Cinq Sens au bord de la Seille, Saint-Thiebault, la tour Camoufle, la Porte Serpenoise, l'Esplanade, l'ile et les Tanneurs. Beaucoup de pave, peu de voitures.</description><styleUrl>#t1</styleUrl><LineString><tessellate>1</tessellate><coordinates>6.1768670,49.1153870,174 6.1766270,49.1151930,174 6.1763740,49.1150400,174 6.1761790,49.1149300,174 6.1761630,49.1149200,174 6.1759210,49.1147900,174 6.1763650,49.1146430,174 6.1766400,49.1145180,174 6.1770090,49.1143590,174 6.1771560,49.1143000,173 6.1773110,49.1142490,172 6.1780590,49.1140180,171 6.1780930,49.1140020,171 6.1781230,49.1139770,171 6.1781770,49.1139240,171 6.1782120,49.1138680,171 6.1782300,49.1138140,171 6.1782480,49.1136600,171 6.1782470,49.1135520,171 6.1783930,49.1135600,171 6.1789930,49.1136090,170 6.1793320,49.1136390,170 6.1794180,49.1136460,170 6.1794280,49.1136070,170 6.1795760,49.1129310,170 6.1795880,49.1128750,170 6.1796210,49.1128890,170 6.1796520,49.1128910,170 6.1797120,49.1128980,170 6.1797320,49.1128560,170 6.1797370,49.1128460,170 6.1802370,49.1128010,171 6.1802470,49.1127800,171 6.1803200,49.1126310,171 6.1804140,49.1124470,171 6.1804620,49.1124580,171 6.1806160,49.1124910,171 6.1807260,49.1125150,171 6.1808440,49.1125400,171 6.1808700,49.1125450,171 6.1808440,49.1125400,171 6.1807260,49.1125150,171 6.1806160,49.1124910,171 6.1804620,49.1124580,171 6.1804140,49.1124470,171 6.1803200,49.1126310,171 6.1802470,49.1127800,171 6.1802370,49.1128010,171 6.1797370,49.1128460,170 6.1797320,49.1128560,170 6.1797120,49.1128980,170 6.1796520,49.1128910,170 6.1796210,49.1128890,170 6.1795880,49.1128750,170 6.1795410,49.1128650,170 6.1794990,49.1128570,170 6.1786070,49.1126580,171 6.1785480,49.1126550,171 6.1785130,49.1126550,171 6.1784890,49.1126550,171 6.1784660,49.1126560,171 6.1784460,49.1126560,171 6.1781040,49.1126630,172 6.1778090,49.1126710,172 6.1775780,49.1126780,172 6.1774530,49.1126810,172 6.1774310,49.1122940,172 6.1772580,49.1122980,172 6.1771920,49.1123000,172 6.1771020,49.1123020,172 6.1770720,49.1122290,173 6.1769520,49.1122330,173 6.1755780,49.1122740,174 6.1753690,49.1122810,174 6.1753090,49.1122820,175 6.1751970,49.1122860,175 6.1750260,49.1122900,175 6.1747190,49.1122970,175 6.1739750,49.1123150,176 6.1739720,49.1122850,176 6.1737930,49.1122910,176 6.1737760,49.1122310,176 6.1737030,49.1121700,176 6.1736710,49.1121590,176 6.1736740,49.1121520,176 6.1737350,49.1120680,176 6.1737300,49.1120430,176 6.1736170,49.1120600,176 6.1735910,49.1120670,176 6.1735460,49.1120800,176 6.1735310,49.1120850,176 6.1734810,49.1120320,176 6.1733320,49.1120540,176 6.1733200,49.1120370,176 6.1731800,49.1118340,177 6.1731100,49.1118360,178 6.1730530,49.1118370,178 6.1729940,49.1118390,178 6.1729500,49.1118320,178 6.1727660,49.1118380,178 6.1724620,49.1118440,178 6.1721800,49.1118590,178 6.1720630,49.1118670,178 6.1720060,49.1118690,179 6.1719490,49.1118710,179 6.1718930,49.1118750,179 6.1718640,49.1118860,179 6.1718470,49.1119410,179 6.1715740,49.1124670,179 6.1714820,49.1127150,179 6.1714510,49.1126410,179 6.1713900,49.1126080,179 6.1713390,49.1126000,179 6.1712580,49.1126150,179 6.1712220,49.1126210,179 6.1710280,49.1126610,180 6.1709540,49.1126780,180 6.1708420,49.1125650,180 6.1709400,49.1125100,180 6.1708420,49.1125650,180 6.1709540,49.1126780,180 6.1709230,49.1126850,180 6.1705260,49.1128590,182 6.1698040,49.1131750,184 6.1698650,49.1132330,184 6.1699260,49.1132880,184 6.1700250,49.1133830,184 6.1699210,49.1134290,184 6.1698290,49.1134710,184 6.1699850,49.1136280,184 6.1700850,49.1137230,184 6.1701490,49.1137830,184 6.1702220,49.1138720,184 6.1702640,49.1139140,184 6.1704740,49.1141240,183 6.1704820,49.1141330,183 6.1704760,49.1141350,183 6.1711700,49.1148170,183 6.1705820,49.1150760,184 6.1704660,49.1151270,184 6.1705130,49.1151720,184 6.1707310,49.1153780,182 6.1708020,49.1154460,182 6.1701110,49.1157780,182 6.1702420,49.1158950,181 6.1702820,49.1159310,181 6.1703340,49.1159120,181 6.1703910,49.1159050,181 6.1704500,49.1159090,181 6.1705030,49.1159250,181 6.1705470,49.1159500,181 6.1705520,49.1159550,181 6.1705780,49.1159870,181 6.1705890,49.1160280,181 6.1705790,49.1160690,181 6.1705480,49.1161050,181 6.1705010,49.1161330,181 6.1705340,49.1161620,181 6.1706320,49.1162500,182 6.1701230,49.1164970,182 6.1695730,49.1167630,180 6.1695940,49.1167820,180 6.1695190,49.1168160,179 6.1694000,49.1168860,178 6.1689920,49.1171220,177 6.1690250,49.1171900,178 6.1690450,49.1172320,178 6.1690670,49.1172730,178 6.1691300,49.1174580,178 6.1692370,49.1176820,178 6.1692620,49.1177110,178 6.1693850,49.1178250,177 6.1697350,49.1181230,178 6.1697690,49.1181440,178 6.1698220,49.1181260,178 6.1698650,49.1181600,177 6.1699080,49.1181960,177 6.1699300,49.1182140,176 6.1698790,49.1182410,176 6.1698680,49.1182570,176 6.1698700,49.1182840,176 6.1701700,49.1186500,174 6.1710840,49.1192770,171 6.1711350,49.1193190,171 6.1710740,49.1193520,171 6.1710220,49.1193900,170 6.1709920,49.1193840,170 6.1709210,49.1194160,168 6.1703950,49.1197510,169 6.1709210,49.1194160,168 6.1709920,49.1193840,170 6.1710220,49.1193900,170 6.1710740,49.1193520,171 6.1711350,49.1193190,171 6.1714050,49.1195320,169 6.1714690,49.1195690,169 6.1715220,49.1195940,169 6.1716300,49.1195680,170 6.1718770,49.1195100,172 6.1719990,49.1194610,173 6.1725390,49.1193330,175 6.1729180,49.1192400,177 6.1733120,49.1191420,177 6.1735250,49.1190890,178 6.1739480,49.1188890,179 6.1740430,49.1188490,180 6.1745370,49.1186870,181 6.1749220,49.1190360,179 6.1752560,49.1193260,179 6.1753130,49.1193750,179 6.1753220,49.1193830,179 6.1753270,49.1193870,179 6.1756690,49.1192030,180 6.1756990,49.1191870,179 6.1757930,49.1192620,179 6.1758400,49.1192410,179 6.1761840,49.1190890,180 6.1770120,49.1187220,180 6.1772290,49.1186240,179 6.1776690,49.1184260,178 6.1778530,49.1183460,176 6.1782050,49.1181960,175 6.1782290,49.1181860,175 6.1783700,49.1181330,174 6.1783920,49.1181250,174 6.1786790,49.1180060,172 6.1789700,49.1182550,175 6.1790430,49.1182940,175 6.1791780,49.1183470,176 6.1796690,49.1187190,179 6.1801890,49.1190470,182 6.1802250,49.1190840,182 6.1802320,49.1190910,183 6.1802650,49.1191110,183 6.1808770,49.1194930,184 6.1809510,49.1195530,184 6.1809840,49.1195870,184 6.1810270,49.1196650,184 6.1810460,49.1197180,185 6.1810270,49.1196650,184 6.1809840,49.1195870,184 6.1809510,49.1195530,184 6.1808770,49.1194930,184 6.1802650,49.1191110,183 6.1802320,49.1190910,183 6.1802250,49.1190840,182 6.1802800,49.1190490,180 6.1801660,49.1189750,179 6.1799970,49.1188430,179 6.1797530,49.1186860,177 6.1795320,49.1185250,176 6.1792720,49.1183150,174 6.1791940,49.1182250,174 6.1791880,49.1181960,173 6.1792020,49.1181300,172 6.1790380,49.1179930,171 6.1789490,49.1178980,171 6.1789720,49.1178900,171 6.1789290,49.1178450,171 6.1788930,49.1178150,171 6.1789600,49.1176310,171 6.1789720,49.1175980,171 6.1789760,49.1175840,171 6.1790180,49.1174570,171 6.1789830,49.1172960,170 6.1789550,49.1171380,170 6.1788700,49.1167480,170 6.1788320,49.1167490,170 6.1787960,49.1167550,170 6.1785530,49.1167900,172 6.1782950,49.1168450,173 6.1780910,49.1168970,173 6.1779150,49.1166880,174 6.1776850,49.1164140,174 6.1776540,49.1163770,174 6.1776130,49.1163200,174 6.1775060,49.1161750,174 6.1774070,49.1160140,174 6.1772820,49.1158090,174 6.1770330,49.1155220,175 6.1768670,49.1153870,174</coordinates></LineString></Placemark>
</Document></kml>