<?xml version="1.0" encoding="UTF-8"?>
<gpx version="1.1" creator="olifant"
     xmlns="http://www.topografix.com/GPX/1/1"
     xmlns:xsi="http://www.w3.org/2001/XMLSchema-instance"
     xsi:schemaLocation="http://www.topografix.com/GPX/1/1 http://www.topografix.com/GPX/1/1/gpx.xsd">
  <metadata><name>Le tour des jardins du centre</name><desc>4.4 km. D+ 25 m. 16 % de chemins. Un chapelet de jardins et de places : les Cinq Sens au bord de la Seille, Saint-Thiebault, la tour Camoufle, la Porte Serpenoise, l'Esplanade, l'ile et les Tanneurs. Beaucoup de pave, peu de voitures.</desc></metadata>
  <wpt lat="49.1153870" lon="6.1768700"><name>Rue des Parmentiers, Metz</name><desc>Depart des deux boucles vers Borny, dans la Nouvelle Ville. A dix minutes a pied de la gare, dont il partage les commodites.</desc></wpt>
  <wpt lat="49.1125690" lon="6.1808580"><name>Jardin des Cinq Sens</name><desc>Jardin au bord de la Seille, au pied d'Outre-Seille.</desc></wpt>
  <wpt lat="49.1124790" lon="6.1777970"><name>Place Saint-Thiebault</name><desc>Place plantee entre la Nouvelle Ville et la vieille ville.</desc></wpt>
  <wpt lat="49.1120470" lon="6.1735780"><name>Tour Camoufle</name><desc>Tour d'artillerie du XVe siecle, restee seule dans son square.</desc></wpt>
  <wpt lat="49.1125700" lon="6.1710240"><name>Porte Serpenoise</name><desc>Porte de l'enceinte et entree du quartier imperial.</desc></wpt>
  <wpt lat="49.1159680" lon="6.1705190"><name>Jardin de l'Esplanade</name><desc>Terrasse au-dessus de la Moselle, vue sur le Mont Saint-Quentin.</desc></wpt>
  <wpt lat="49.1197430" lon="6.1703820"><name>Temple Neuf et le Moyen Pont</name><desc>Pointe de l'ile du Petit-Saulcy, entre les deux bras de la Moselle ; la vue sur la cathedrale et le plan d'eau.</desc></wpt>
  <wpt lat="49.1197080" lon="6.1811210"><name>Jardin des Tanneurs</name><desc>Jardin en terrasses sur le flanc de la colline Sainte-Croix.</desc></wpt>
  <trk><name>Le tour des jardins du centre</name><trkseg>
    <trkpt lat="49.1153870" lon="6.1768670"><ele>174.5</ele></trkpt>
    <trkpt lat="49.1151930" lon="6.1766270"><ele>174.0</ele></trkpt>
    <trkpt lat="49.1150400" lon="6.1763740"><ele>174.0</ele></trkpt>
    <trkpt lat="49.1149300" lon="6.1761790"><ele>174.0</ele></trkpt>
    <trkpt lat="49.1149200" lon="6.1761630"><ele>174.0</ele></trkpt>
    <trkpt lat="49.1147900" lon="6.1759210"><ele>174.0</ele></trkpt>
    <trkpt lat="49.1146430" lon="6.1763650"><ele>174.2</ele></trkpt>
    <trkpt lat="49.1145180" lon="6.1766400"><ele>174.0</ele></trkpt>
    <trkpt lat="49.1143590" lon="6.1770090"><ele>173.8</ele></trkpt>
    <trkpt lat="49.1143000" lon="6.1771560"><ele>173.0</ele></trkpt>
    <trkpt lat="49.1142490" lon="6.1773110"><ele>172.2</ele></trkpt>
    <trkpt lat="49.1140180" lon="6.1780590"><ele>171.0</ele></trkpt>
    <trkpt lat="49.1140020" lon="6.1780930"><ele>171.0</ele></trkpt>
    <trkpt lat="49.1139770" lon="6.1781230"><ele>171.0</ele></trkpt>
    <trkpt lat="49.1139240" lon="6.1781770"><ele>171.0</ele></trkpt>
    <trkpt lat="49.1138680" lon="6.1782120"><ele>171.0</ele></trkpt>
    <trkpt lat="49.1138140" lon="6.1782300"><ele>171.0</ele></trkpt>
    <trkpt lat="49.1136600" lon="6.1782480"><ele>171.0</ele></trkpt>
    <trkpt lat="49.1135520" lon="6.1782470"><ele>171.0</ele></trkpt>
    <trkpt lat="49.1135600" lon="6.1783930"><ele>171.0</ele></trkpt>
    <trkpt lat="49.1136090" lon="6.1789930"><ele>170.0</ele></trkpt>
    <trkpt lat="49.1136390" lon="6.1793320"><ele>169.8</ele></trkpt>
    <trkpt lat="49.1136460" lon="6.1794180"><ele>169.8</ele></trkpt>
    <trkpt lat="49.1136070" lon="6.1794280"><ele>170.0</ele></trkpt>
    <trkpt lat="49.1129310" lon="6.1795760"><ele>170.2</ele></trkpt>
    <trkpt lat="49.1128750" lon="6.1795880"><ele>170.2</ele></trkpt>
    <trkpt lat="49.1128890" lon="6.1796210"><ele>170.2</ele></trkpt>
    <trkpt lat="49.1128910" lon="6.1796520"><ele>170.2</ele></trkpt>
    <trkpt lat="49.1128980" lon="6.1797120"><ele>170.2</ele></trkpt>
    <trkpt lat="49.1128560" lon="6.1797320"><ele>170.2</ele></trkpt>
    <trkpt lat="49.1128460" lon="6.1797370"><ele>170.0</ele></trkpt>
    <trkpt lat="49.1128010" lon="6.1802370"><ele>170.8</ele></trkpt>
    <trkpt lat="49.1127800" lon="6.1802470"><ele>170.8</ele></trkpt>
    <trkpt lat="49.1126310" lon="6.1803200"><ele>170.8</ele></trkpt>
    <trkpt lat="49.1124470" lon="6.1804140"><ele>171.0</ele></trkpt>
    <trkpt lat="49.1124580" lon="6.1804620"><ele>171.0</ele></trkpt>
    <trkpt lat="49.1124910" lon="6.1806160"><ele>171.0</ele></trkpt>
    <trkpt lat="49.1125150" lon="6.1807260"><ele>170.8</ele></trkpt>
    <trkpt lat="49.1125400" lon="6.1808440"><ele>170.8</ele></trkpt>
    <trkpt lat="49.1125450" lon="6.1808700"><ele>170.8</ele></trkpt>
    <trkpt lat="49.1125400" lon="6.1808440"><ele>170.8</ele></trkpt>
    <trkpt lat="49.1125150" lon="6.1807260"><ele>170.8</ele></trkpt>
    <trkpt lat="49.1124910" lon="6.1806160"><ele>171.0</ele></trkpt>
    <trkpt lat="49.1124580" lon="6.1804620"><ele>171.0</ele></trkpt>
    <trkpt lat="49.1124470" lon="6.1804140"><ele>171.0</ele></trkpt>
    <trkpt lat="49.1126310" lon="6.1803200"><ele>170.8</ele></trkpt>
    <trkpt lat="49.1127800" lon="6.1802470"><ele>170.8</ele></trkpt>
    <trkpt lat="49.1128010" lon="6.1802370"><ele>170.8</ele></trkpt>
    <trkpt lat="49.1128460" lon="6.1797370"><ele>170.0</ele></trkpt>
    <trkpt lat="49.1128560" lon="6.1797320"><ele>170.2</ele></trkpt>
    <trkpt lat="49.1128980" lon="6.1797120"><ele>170.2</ele></trkpt>
    <trkpt lat="49.1128910" lon="6.1796520"><ele>170.2</ele></trkpt>
    <trkpt lat="49.1128890" lon="6.1796210"><ele>170.2</ele></trkpt>
    <trkpt lat="49.1128750" lon="6.1795880"><ele>170.2</ele></trkpt>
    <trkpt lat="49.1128650" lon="6.1795410"><ele>170.5</ele></trkpt>
    <trkpt lat="49.1128570" lon="6.1794990"><ele>170.5</ele></trkpt>
    <trkpt lat="49.1126580" lon="6.1786070"><ele>171.0</ele></trkpt>
    <trkpt lat="49.1126550" lon="6.1785480"><ele>171.0</ele></trkpt>
    <trkpt lat="49.1126550" lon="6.1785130"><ele>171.0</ele></trkpt>
    <trkpt lat="49.1126550" lon="6.1784890"><ele>171.0</ele></trkpt>
    <trkpt lat="49.1126560" lon="6.1784660"><ele>171.0</ele></trkpt>
    <trkpt lat="49.1126560" lon="6.1784460"><ele>171.2</ele></trkpt>
    <trkpt lat="49.1126630" lon="6.1781040"><ele>171.8</ele></trkpt>
    <trkpt lat="49.1126710" lon="6.1778090"><ele>172.0</ele></trkpt>
    <trkpt lat="49.1126780" lon="6.1775780"><ele>172.0</ele></trkpt>
    <trkpt lat="49.1126810" lon="6.1774530"><ele>171.8</ele></trkpt>
    <trkpt lat="49.1122940" lon="6.1774310"><ele>172.5</ele></trkpt>
    <trkpt lat="49.1122980" lon="6.1772580"><ele>172.2</ele></trkpt>
    <trkpt lat="49.1123000" lon="6.1771920"><ele>172.5</ele></trkpt>
    <trkpt lat="49.1123020" lon="6.1771020"><ele>172.5</ele></trkpt>
    <trkpt lat="49.1122290" lon="6.1770720"><ele>172.8</ele></trkpt>
    <trkpt lat="49.1122330" lon="6.1769520"><ele>172.8</ele></trkpt>
    <trkpt lat="49.1122740" lon="6.1755780"><ele>174.0</ele></trkpt>
    <trkpt lat="49.1122810" lon="6.1753690"><ele>174.5</ele></trkpt>
    <trkpt lat="49.1122820" lon="6.1753090"><ele>174.8</ele></trkpt>
    <trkpt lat="49.1122860" lon="6.1751970"><ele>175.0</ele></trkpt>
    <trkpt lat="49.1122900" lon="6.1750260"><ele>175.0</ele></trkpt>
    <trkpt lat="49.1122970" lon="6.1747190"><ele>175.0</ele></trkpt>
    <trkpt lat="49.1123150" lon="6.1739750"><ele>176.0</ele></trkpt>
    <trkpt lat="49.1122850" lon="6.1739720"><ele>176.0</ele></trkpt>
    <trkpt lat="49.1122910" lon="6.1737930"><ele>176.5</ele></trkpt>
    <trkpt lat="49.1122310" lon="6.1737760"><ele>176.2</ele></trkpt>
    <trkpt lat="49.1121700" lon="6.1737030"><ele>176.2</ele></trkpt>
    <trkpt lat="49.1121590" lon="6.1736710"><ele>176.2</ele></trkpt>
    <trkpt lat="49.1121520" lon="6.1736740"><ele>176.2</ele></trkpt>
    <trkpt lat="49.1120680" lon="6.1737350"><ele>176.0</ele></trkpt>
    <trkpt lat="49.1120430" lon="6.1737300"><ele>176.0</ele></trkpt>
    <trkpt lat="49.1120600" lon="6.1736170"><ele>175.8</ele></trkpt>
    <trkpt lat="49.1120670" lon="6.1735910"><ele>176.0</ele></trkpt>
    <trkpt lat="49.1120800" lon="6.1735460"><ele>176.0</ele></trkpt>
    <trkpt lat="49.1120850" lon="6.1735310"><ele>176.0</ele></trkpt>
    <trkpt lat="49.1120320" lon="6.1734810"><ele>175.8</ele></trkpt>
    <trkpt lat="49.1120540" lon="6.1733320"><ele>176.2</ele></trkpt>
    <trkpt lat="49.1120370" lon="6.1733200"><ele>176.2</ele></trkpt>
    <trkpt lat="49.1118340" lon="6.1731800"><ele>177.2</ele></trkpt>
    <trkpt lat="49.1118360" lon="6.1731100"><ele>177.5</ele></trkpt>
    <trkpt lat="49.1118370" lon="6.1730530"><ele>178.0</ele></trkpt>
    <trkpt lat="49.1118390" lon="6.1729940"><ele>178.0</ele></trkpt>
    <trkpt lat="49.1118320" lon="6.1729500"><ele>178.0</ele></trkpt>
    <trkpt lat="49.1118380" lon="6.1727660"><ele>178.0</ele></trkpt>
    <trkpt lat="49.1118440" lon="6.1724620"><ele>178.0</ele></trkpt>
    <trkpt lat="49.1118590" lon="6.1721800"><ele>178.0</ele></trkpt>
    <trkpt lat="49.1118670" lon="6.1720630"><ele>178.5</ele></trkpt>
    <trkpt lat="49.1118690" lon="6.1720060"><ele>178.8</ele></trkpt>
    <trkpt lat="49.1118710" lon="6.1719490"><ele>178.8</ele></trkpt>
    <trkpt lat="49.1118750" lon="6.1718930"><ele>179.0</ele></trkpt>
    <trkpt lat="49.1118860" lon="6.1718640"><ele>179.0</ele></trkpt>
    <trkpt lat="49.1119410" lon="6.1718470"><ele>179.0</ele></trkpt>
    <trkpt lat="49.1124670" lon="6.1715740"><ele>179.0</ele></trkpt>
    <trkpt lat="49.1127150" lon="6.1714820"><ele>179.0</ele></trkpt>
    <trkpt lat="49.1126410" lon="6.1714510"><ele>179.0</ele></trkpt>
    <trkpt lat="49.1126080" lon="6.1713900"><ele>179.0</ele></trkpt>
    <trkpt lat="49.1126000" lon="6.1713390"><ele>179.0</ele></trkpt>
    <trkpt lat="49.1126150" lon="6.1712580"><ele>179.0</ele></trkpt>
    <trkpt lat="49.1126210" lon="6.1712220"><ele>179.2</ele></trkpt>
    <trkpt lat="49.1126610" lon="6.1710280"><ele>179.5</ele></trkpt>
    <trkpt lat="49.1126780" lon="6.1709540"><ele>179.8</ele></trkpt>
    <trkpt lat="49.1125650" lon="6.1708420"><ele>179.8</ele></trkpt>
    <trkpt lat="49.1125100" lon="6.1709400"><ele>179.5</ele></trkpt>
    <trkpt lat="49.1125650" lon="6.1708420"><ele>179.8</ele></trkpt>
    <trkpt lat="49.1126780" lon="6.1709540"><ele>179.8</ele></trkpt>
    <trkpt lat="49.1126850" lon="6.1709230"><ele>179.8</ele></trkpt>
    <trkpt lat="49.1128590" lon="6.1705260"><ele>182.0</ele></trkpt>
    <trkpt lat="49.1131750" lon="6.1698040"><ele>183.8</ele></trkpt>
    <trkpt lat="49.1132330" lon="6.1698650"><ele>183.8</ele></trkpt>
    <trkpt lat="49.1132880" lon="6.1699260"><ele>183.8</ele></trkpt>
    <trkpt lat="49.1133830" lon="6.1700250"><ele>183.8</ele></trkpt>
    <trkpt lat="49.1134290" lon="6.1699210"><ele>184.0</ele></trkpt>
    <trkpt lat="49.1134710" lon="6.1698290"><ele>184.2</ele></trkpt>
    <trkpt lat="49.1136280" lon="6.1699850"><ele>184.0</ele></trkpt>
    <trkpt lat="49.1137230" lon="6.1700850"><ele>183.8</ele></trkpt>
    <trkpt lat="49.1137830" lon="6.1701490"><ele>183.8</ele></trkpt>
    <trkpt lat="49.1138720" lon="6.1702220"><ele>183.8</ele></trkpt>
    <trkpt lat="49.1139140" lon="6.1702640"><ele>183.8</ele></trkpt>
    <trkpt lat="49.1141240" lon="6.1704740"><ele>183.0</ele></trkpt>
    <trkpt lat="49.1141330" lon="6.1704820"><ele>183.0</ele></trkpt>
    <trkpt lat="49.1141350" lon="6.1704760"><ele>183.0</ele></trkpt>
    <trkpt lat="49.1148170" lon="6.1711700"><ele>182.8</ele></trkpt>
    <trkpt lat="49.1150760" lon="6.1705820"><ele>183.5</ele></trkpt>
    <trkpt lat="49.1151270" lon="6.1704660"><ele>184.5</ele></trkpt>
    <trkpt lat="49.1151720" lon="6.1705130"><ele>183.8</ele></trkpt>
    <trkpt lat="49.1153780" lon="6.1707310"><ele>182.0</ele></trkpt>
    <trkpt lat="49.1154460" lon="6.1708020"><ele>182.0</ele></trkpt>
    <trkpt lat="49.1157780" lon="6.1701110"><ele>181.8</ele></trkpt>
    <trkpt lat="49.1158950" lon="6.1702420"><ele>181.0</ele></trkpt>
    <trkpt lat="49.1159310" lon="6.1702820"><ele>181.0</ele></trkpt>
    <trkpt lat="49.1159120" lon="6.1703340"><ele>181.0</ele></trkpt>
    <trkpt lat="49.1159050" lon="6.1703910"><ele>181.0</ele></trkpt>
    <trkpt lat="49.1159090" lon="6.1704500"><ele>181.0</ele></trkpt>
    <trkpt lat="49.1159250" lon="6.1705030"><ele>181.0</ele></trkpt>
    <trkpt lat="49.1159500" lon="6.1705470"><ele>181.0</ele></trkpt>
    <trkpt lat="49.1159550" lon="6.1705520"><ele>181.0</ele></trkpt>
    <trkpt lat="49.1159870" lon="6.1705780"><ele>181.0</ele></trkpt>
    <trkpt lat="49.1160280" lon="6.1705890"><ele>181.0</ele></trkpt>
    <trkpt lat="49.1160690" lon="6.1705790"><ele>181.0</ele></trkpt>
    <trkpt lat="49.1161050" lon="6.1705480"><ele>181.0</ele></trkpt>
    <trkpt lat="49.1161330" lon="6.1705010"><ele>181.0</ele></trkpt>
    <trkpt lat="49.1161620" lon="6.1705340"><ele>181.0</ele></trkpt>
    <trkpt lat="49.1162500" lon="6.1706320"><ele>181.5</ele></trkpt>
    <trkpt lat="49.1164970" lon="6.1701230"><ele>181.5</ele></trkpt>
    <trkpt lat="49.1167630" lon="6.1695730"><ele>180.2</ele></trkpt>
    <trkpt lat="49.1167820" lon="6.1695940"><ele>180.0</ele></trkpt>
    <trkpt lat="49.1168160" lon="6.1695190"><ele>179.2</ele></trkpt>
    <trkpt lat="49.1168860" lon="6.1694000"><ele>177.8</ele></trkpt>
    <trkpt lat="49.1171220" lon="6.1689920"><ele>177.2</ele></trkpt>
    <trkpt lat="49.1171900" lon="6.1690250"><ele>177.8</ele></trkpt>
    <trkpt lat="49.1172320" lon="6.1690450"><ele>178.0</ele></trkpt>
    <trkpt lat="49.1172730" lon="6.1690670"><ele>178.0</ele></trkpt>
    <trkpt lat="49.1174580" lon="6.1691300"><ele>178.5</ele></trkpt>
    <trkpt lat="49.1176820" lon="6.1692370"><ele>177.5</ele></trkpt>
    <trkpt lat="49.1177110" lon="6.1692620"><ele>177.5</ele></trkpt>
    <trkpt lat="49.1178250" lon="6.1693850"><ele>177.2</ele></trkpt>
    <trkpt lat="49.1181230" lon="6.1697350"><ele>178.0</ele></trkpt>
    <trkpt lat="49.1181440" lon="6.1697690"><ele>177.5</ele></trkpt>
    <trkpt lat="49.1181260" lon="6.1698220"><ele>177.8</ele></trkpt>
    <trkpt lat="49.1181600" lon="6.1698650"><ele>177.2</ele></trkpt>
    <trkpt lat="49.1181960" lon="6.1699080"><ele>176.8</ele></trkpt>
    <trkpt lat="49.1182140" lon="6.1699300"><ele>176.5</ele></trkpt>
    <trkpt lat="49.1182410" lon="6.1698790"><ele>176.2</ele></trkpt>
    <trkpt lat="49.1182570" lon="6.1698680"><ele>176.0</ele></trkpt>
    <trkpt lat="49.1182840" lon="6.1698700"><ele>175.5</ele></trkpt>
    <trkpt lat="49.1186500" lon="6.1701700"><ele>174.5</ele></trkpt>
    <trkpt lat="49.1192770" lon="6.1710840"><ele>171.2</ele></trkpt>
    <trkpt lat="49.1193190" lon="6.1711350"><ele>171.2</ele></trkpt>
    <trkpt lat="49.1193520" lon="6.1710740"><ele>170.8</ele></trkpt>
    <trkpt lat="49.1193900" lon="6.1710220"><ele>169.8</ele></trkpt>
    <trkpt lat="49.1193840" lon="6.1709920"><ele>169.5</ele></trkpt>
    <trkpt lat="49.1194160" lon="6.1709210"><ele>168.0</ele></trkpt>
    <trkpt lat="49.1197510" lon="6.1703950"><ele>169.0</ele></trkpt>
    <trkpt lat="49.1194160" lon="6.1709210"><ele>168.0</ele></trkpt>
    <trkpt lat="49.1193840" lon="6.1709920"><ele>169.5</ele></trkpt>
    <trkpt lat="49.1193900" lon="6.1710220"><ele>169.8</ele></trkpt>
    <trkpt lat="49.1193520" lon="6.1710740"><ele>170.8</ele></trkpt>
    <trkpt lat="49.1193190" lon="6.1711350"><ele>171.2</ele></trkpt>
    <trkpt lat="49.1195320" lon="6.1714050"><ele>168.8</ele></trkpt>
    <trkpt lat="49.1195690" lon="6.1714690"><ele>169.0</ele></trkpt>
    <trkpt lat="49.1195940" lon="6.1715220"><ele>169.2</ele></trkpt>
    <trkpt lat="49.1195680" lon="6.1716300"><ele>170.5</ele></trkpt>
    <trkpt lat="49.1195100" lon="6.1718770"><ele>172.2</ele></trkpt>
    <trkpt lat="49.1194610" lon="6.1719990"><ele>173.0</ele></trkpt>
    <trkpt lat="49.1193330" lon="6.1725390"><ele>175.2</ele></trkpt>
    <trkpt lat="49.1192400" lon="6.1729180"><ele>177.0</ele></trkpt>
    <trkpt lat="49.1191420" lon="6.1733120"><ele>177.2</ele></trkpt>
    <trkpt lat="49.1190890" lon="6.1735250"><ele>178.2</ele></trkpt>
    <trkpt lat="49.1188890" lon="6.1739480"><ele>179.0</ele></trkpt>
    <trkpt lat="49.1188490" lon="6.1740430"><ele>179.8</ele></trkpt>
    <trkpt lat="49.1186870" lon="6.1745370"><ele>180.8</ele></trkpt>
    <trkpt lat="49.1190360" lon="6.1749220"><ele>179.2</ele></trkpt>
    <trkpt lat="49.1193260" lon="6.1752560"><ele>179.2</ele></trkpt>
    <trkpt lat="49.1193750" lon="6.1753130"><ele>179.2</ele></trkpt>
    <trkpt lat="49.1193830" lon="6.1753220"><ele>179.0</ele></trkpt>
    <trkpt lat="49.1193870" lon="6.1753270"><ele>179.0</ele></trkpt>
    <trkpt lat="49.1192030" lon="6.1756690"><ele>179.5</ele></trkpt>
    <trkpt lat="49.1191870" lon="6.1756990"><ele>179.2</ele></trkpt>
    <trkpt lat="49.1192620" lon="6.1757930"><ele>179.0</ele></trkpt>
    <trkpt lat="49.1192410" lon="6.1758400"><ele>179.0</ele></trkpt>
    <trkpt lat="49.1190890" lon="6.1761840"><ele>180.5</ele></trkpt>
    <trkpt lat="49.1187220" lon="6.1770120"><ele>180.2</ele></trkpt>
    <trkpt lat="49.1186240" lon="6.1772290"><ele>179.0</ele></trkpt>
    <trkpt lat="49.1184260" lon="6.1776690"><ele>177.8</ele></trkpt>
    <trkpt lat="49.1183460" lon="6.1778530"><ele>176.5</ele></trkpt>
    <trkpt lat="49.1181960" lon="6.1782050"><ele>174.8</ele></trkpt>
    <trkpt lat="49.1181860" lon="6.1782290"><ele>174.8</ele></trkpt>
    <trkpt lat="49.1181330" lon="6.1783700"><ele>174.0</ele></trkpt>
    <trkpt lat="49.1181250" lon="6.1783920"><ele>173.8</ele></trkpt>
    <trkpt lat="49.1180060" lon="6.1786790"><ele>171.8</ele></trkpt>
    <trkpt lat="49.1182550" lon="6.1789700"><ele>174.8</ele></trkpt>
    <trkpt lat="49.1182940" lon="6.1790430"><ele>175.2</ele></trkpt>
    <trkpt lat="49.1183470" lon="6.1791780"><ele>176.0</ele></trkpt>
    <trkpt lat="49.1187190" lon="6.1796690"><ele>179.2</ele></trkpt>
    <trkpt lat="49.1190470" lon="6.1801890"><ele>181.5</ele></trkpt>
    <trkpt lat="49.1190840" lon="6.1802250"><ele>182.5</ele></trkpt>
    <trkpt lat="49.1190910" lon="6.1802320"><ele>182.8</ele></trkpt>
    <trkpt lat="49.1191110" lon="6.1802650"><ele>183.2</ele></trkpt>
    <trkpt lat="49.1194930" lon="6.1808770"><ele>184.5</ele></trkpt>
    <trkpt lat="49.1195530" lon="6.1809510"><ele>183.8</ele></trkpt>
    <trkpt lat="49.1195870" lon="6.1809840"><ele>183.8</ele></trkpt>
    <trkpt lat="49.1196650" lon="6.1810270"><ele>184.2</ele></trkpt>
    <trkpt lat="49.1197180" lon="6.1810460"><ele>184.8</ele></trkpt>
    <trkpt lat="49.1196650" lon="6.1810270"><ele>184.2</ele></trkpt>
    <trkpt lat="49.1195870" lon="6.1809840"><ele>183.8</ele></trkpt>
    <trkpt lat="49.1195530" lon="6.1809510"><ele>183.8</ele></trkpt>
    <trkpt lat="49.1194930" lon="6.1808770"><ele>184.5</ele></trkpt>
    <trkpt lat="49.1191110" lon="6.1802650"><ele>183.2</ele></trkpt>
    <trkpt lat="49.1190910" lon="6.1802320"><ele>182.8</ele></trkpt>
    <trkpt lat="49.1190840" lon="6.1802250"><ele>182.5</ele></trkpt>
    <trkpt lat="49.1190490" lon="6.1802800"><ele>180.2</ele></trkpt>
    <trkpt lat="49.1189750" lon="6.1801660"><ele>179.2</ele></trkpt>
    <trkpt lat="49.1188430" lon="6.1799970"><ele>179.0</ele></trkpt>
    <trkpt lat="49.1186860" lon="6.1797530"><ele>177.0</ele></trkpt>
    <trkpt lat="49.1185250" lon="6.1795320"><ele>176.0</ele></trkpt>
    <trkpt lat="49.1183150" lon="6.1792720"><ele>173.8</ele></trkpt>
    <trkpt lat="49.1182250" lon="6.1791940"><ele>173.5</ele></trkpt>
    <trkpt lat="49.1181960" lon="6.1791880"><ele>173.2</ele></trkpt>
    <trkpt lat="49.1181300" lon="6.1792020"><ele>172.0</ele></trkpt>
    <trkpt lat="49.1179930" lon="6.1790380"><ele>171.0</ele></trkpt>
    <trkpt lat="49.1178980" lon="6.1789490"><ele>171.0</ele></trkpt>
    <trkpt lat="49.1178900" lon="6.1789720"><ele>171.0</ele></trkpt>
    <trkpt lat="49.1178450" lon="6.1789290"><ele>171.0</ele></trkpt>
    <trkpt lat="49.1178150" lon="6.1788930"><ele>171.0</ele></trkpt>
    <trkpt lat="49.1176310" lon="6.1789600"><ele>171.0</ele></trkpt>
    <trkpt lat="49.1175980" lon="6.1789720"><ele>171.0</ele></trkpt>
    <trkpt lat="49.1175840" lon="6.1789760"><ele>171.0</ele></trkpt>
    <trkpt lat="49.1174570" lon="6.1790180"><ele>170.8</ele></trkpt>
    <trkpt lat="49.1172960" lon="6.1789830"><ele>170.5</ele></trkpt>
    <trkpt lat="49.1171380" lon="6.1789550"><ele>170.2</ele></trkpt>
    <trkpt lat="49.1167480" lon="6.1788700"><ele>170.0</ele></trkpt>
    <trkpt lat="49.1167490" lon="6.1788320"><ele>170.2</ele></trkpt>
    <trkpt lat="49.1167550" lon="6.1787960"><ele>170.5</ele></trkpt>
    <trkpt lat="49.1167900" lon="6.1785530"><ele>172.2</ele></trkpt>
    <trkpt lat="49.1168450" lon="6.1782950"><ele>173.2</ele></trkpt>
    <trkpt lat="49.1168970" lon="6.1780910"><ele>173.0</ele></trkpt>
    <trkpt lat="49.1166880" lon="6.1779150"><ele>173.5</ele></trkpt>
    <trkpt lat="49.1164140" lon="6.1776850"><ele>173.8</ele></trkpt>
    <trkpt lat="49.1163770" lon="6.1776540"><ele>174.0</ele></trkpt>
    <trkpt lat="49.1163200" lon="6.1776130"><ele>174.0</ele></trkpt>
    <trkpt lat="49.1161750" lon="6.1775060"><ele>174.0</ele></trkpt>
    <trkpt lat="49.1160140" lon="6.1774070"><ele>174.0</ele></trkpt>
    <trkpt lat="49.1158090" lon="6.1772820"><ele>174.0</ele></trkpt>
    <trkpt lat="49.1155220" lon="6.1770330"><ele>175.0</ele></trkpt>
    <trkpt lat="49.1153870" lon="6.1768670"><ele>174.0</ele></trkpt>
  </trkseg></trk>
</gpx>