<?xml version="1.0" encoding="UTF-8"?>
<kml xmlns="http://www.opengis.net/kml/2.2"><Document>
  <name>L'aqueduc et la vallee de Gorze</name><description>20.1 km. D+ 297 m. 64 % de chemins. Depart : Ars-sur-Moselle, pres de la gare (20 min de Metz). Les arches romaines de Jouy, puis le vallon boise qui remonte jusqu'a l'abbaye de Gorze en suivant le trace de l'aqueduc.</description>
  <Style id="depart"><IconStyle><scale>1.2</scale><Icon><href>
    http://maps.google.com/mapfiles/kml/paddle/grn-circle.png</href></IconStyle></Style>
  <Style id="etape"><IconStyle><Icon><href>
    http://maps.google.com/mapfiles/kml/paddle/wht-blank.png</href></Icon></IconStyle></Style>
    <Placemark><name>Depart : Ars-sur-Moselle</name><description>Depart en voiture. Se garer pres de la gare ou du centre.</description><styleUrl>#depart</styleUrl><Point><coordinates>6.0763110,49.0769680,0</coordinates></Point></Placemark>
    <Placemark><name>1. Aqueduc romain de Jouy-aux-Arches</name><description>Sept arches encore debout d'un aqueduc du IIe siecle qui amenait l'eau de Gorze a Metz. La suite de l'ouvrage se devine tout le long du vallon.</description><styleUrl>#etape</styleUrl><Point><coordinates>6.0802500,49.0652930,0</coordinates></Point></Placemark>
    <Placemark><name>2. Gorze</name><description>Village au fond de la vallee, ancienne abbaye benedictine et palais abbatial. Boulangerie et cafe sur la place.</description><styleUrl>#etape</styleUrl><Point><coordinates>5.9988240,49.0516250,0</coordinates></Point></Placemark>
    <Placemark><name>3. Abbaye de Gorze</name><description>Le palais abbatial et son jardin en terrasses.</description><styleUrl>#etape</styleUrl><Point><coordinates>5.9970580,49.0554390,0</coordinates></Point></Placemark>
    <Style id="t1"><LineStyle><color>ff7A4A6B</color><width>4</width></LineStyle></Style>
    <Placemark><name>L'aqueduc et la vallee de Gorze</name><description>20.1 km. D+ 297 m. 64 % de chemins. Depart : Ars-sur-Moselle, pres de la gare (20 min de Metz). Les arches romaines de Jouy, puis le vallon boise qui remonte jusqu'a l'abbaye de Gorze en suivant le trace de l'aqueduc.</description><styleUrl>#t1</styleUrl><LineString><tessellate>1</tessellate><coordinates>6.0761790,49.0768840,173 6.0761810,49.0768830,173 6.0764640,49.0766920,173 6.0765670,49.0766210,173 6.0766840,49.0765460,173 6.0766160,49.0765050,173 6.0763580,49.0763730,173 6.0762660,49.0763570,174 6.0760020,49.0761200,175 6.0757630,49.0759690,174 6.0759000,49.0758780,174 6.0757230,49.0757580,174 6.0758260,49.0756970,174 6.0755830,49.0755190,175 6.0756910,49.0754990,174 6.0757940,49.0754460,174 6.0758680,49.0754100,174 6.0759380,49.0753710,174 6.0758790,49.0753050,174 6.0758660,49.0752710,174 6.0758590,49.0751710,174 6.0759300,49.0751560,173 6.0760050,49.0751490,173 6.0760400,49.0751390,173 6.0761110,49.0751000,173 6.0763680,49.0749530,172 6.0770350,49.0745420,172 6.0770880,49.0745190,172 6.0771830,49.0744700,173 6.0773370,49.0743710,173 6.0772330,49.0742860,173 6.0770680,49.0741630,174 6.0769680,49.0740980,175 6.0769280,49.0740710,175 6.0770870,49.0739710,174 6.0772840,49.0738140,174 6.0774180,49.0736850,174 6.0775150,49.0735640,174 6.0777350,49.0736410,174 6.0777530,49.0736310,174 6.0778230,49.0735420,174 6.0778720,49.0733200,176 6.0779050,49.0732470,176 6.0779480,49.0731770,176 6.0780010,49.0731290,175 6.0780740,49.0730850,175 6.0782000,49.0730350,174 6.0782690,49.0729950,174 6.0783130,49.0729360,175 6.0783300,49.0728720,175 6.0783340,49.0727960,176 6.0783140,49.0727280,176 6.0782770,49.0724950,177 6.0782870,49.0722730,177 6.0785300,49.0720130,173 6.0789950,49.0715560,172 6.0791220,49.0714390,176 6.0792310,49.0713530,177 6.0793620,49.0712630,176 6.0793930,49.0712440,176 6.0796550,49.0710800,174 6.0818450,49.0698190,173 6.0818750,49.0698000,173 6.0818170,49.0697600,174 6.0816740,49.0696560,173 6.0815560,49.0695650,172 6.0814290,49.0694700,172 6.0811790,49.0692250,172 6.0806640,49.0689090,174 6.0806440,49.0688780,174 6.0806330,49.0688380,174 6.0806490,49.0687940,174 6.0806740,49.0687600,173 6.0809530,49.0686110,174 6.0810350,49.0685240,174 6.0809880,49.0684590,173 6.0805370,49.0682330,170 6.0803380,49.0681270,170 6.0797200,49.0676720,170 6.0794790,49.0674650,171 6.0790370,49.0662740,170 6.0788640,49.0658820,171 6.0790800,49.0658400,172 6.0791360,49.0658270,172 6.0795690,49.0655180,175 6.0796770,49.0654750,176 6.0800790,49.0653750,177 6.0801110,49.0653670,177 6.0802340,49.0655860,176 6.0802980,49.0655750,177 6.0803380,49.0655580,177 6.0803650,49.0655130,178 6.0803410,49.0653450,178 6.0803450,49.0653200,178 6.0803150,49.0652690,178 6.0802450,49.0652040,178 6.0802200,49.0651990,178 6.0801610,49.0652080,178 6.0802070,49.0653010,178 6.0801610,49.0652080,178 6.0802200,49.0651990,178 6.0802450,49.0652040,178 6.0803150,49.0652690,178 6.0803450,49.0653200,178 6.0803410,49.0653450,178 6.0803650,49.0655130,178 6.0803380,49.0655580,177 6.0802980,49.0655750,177 6.0802340,49.0655860,176 6.0801110,49.0653670,177 6.0800790,49.0653750,177 6.0796770,49.0654750,176 6.0795690,49.0655180,175 6.0791360,49.0658270,172 6.0790800,49.0658400,172 6.0788640,49.0658820,171 6.0790370,49.0662740,170 6.0794790,49.0674650,171 6.0797200,49.0676720,170 6.0803380,49.0681270,170 6.0805370,49.0682330,170 6.0809880,49.0684590,173 6.0810350,49.0685240,174 6.0809530,49.0686110,174 6.0806740,49.0687600,173 6.0806490,49.0687940,174 6.0806330,49.0688380,174 6.0806440,49.0688780,174 6.0806640,49.0689090,174 6.0811790,49.0692250,172 6.0814290,49.0694700,172 6.0815560,49.0695650,172 6.0816740,49.0696560,173 6.0818170,49.0697600,174 6.0818750,49.0698000,173 6.0818450,49.0698190,173 6.0796550,49.0710800,174 6.0793930,49.0712440,176 6.0793620,49.0712630,176 6.0792310,49.0713530,177 6.0791220,49.0714390,176 6.0789950,49.0715560,172 6.0785300,49.0720130,173 6.0782870,49.0722730,177 6.0782770,49.0724950,177 6.0783140,49.0727280,176 6.0783340,49.0727960,176 6.0783300,49.0728720,175 6.0783130,49.0729360,175 6.0782690,49.0729950,174 6.0782000,49.0730350,174 6.0780740,49.0730850,175 6.0780010,49.0731290,175 6.0779480,49.0731770,176 6.0779050,49.0732470,176 6.0778720,49.0733200,176 6.0778230,49.0735420,174 6.0777530,49.0736310,174 6.0777350,49.0736410,174 6.0775150,49.0735640,174 6.0774180,49.0736850,174 6.0772840,49.0738140,174 6.0770870,49.0739710,175 6.0769280,49.0740710,175 6.0769680,49.0740980,175 6.0770680,49.0741630,174 6.0772330,49.0742860,173 6.0773370,49.0743710,173 6.0771830,49.0744700,173 6.0770880,49.0745190,172 6.0770350,49.0745420,172 6.0763680,49.0749530,172 6.0761110,49.0751000,173 6.0760400,49.0751390,173 6.0760050,49.0751490,173 6.0759300,49.0751560,173 6.0758590,49.0751710,174 6.0758660,49.0752710,174 6.0758790,49.0753050,174 6.0759380,49.0753710,174 6.0758680,49.0754100,174 6.0757940,49.0754460,174 6.0756910,49.0754990,174 6.0755830,49.0755190,175 6.0758260,49.0756970,174 6.0757230,49.0757580,174 6.0759000,49.0758780,174 6.0757630,49.0759690,174 6.0755310,49.0761250,175 6.0752300,49.0763110,175 6.0751540,49.0763540,176 6.0750410,49.0764240,176 6.0747890,49.0765750,176 6.0745260,49.0767400,176 6.0744320,49.0768000,176 6.0742020,49.0769370,177 6.0737500,49.0772130,177 6.0734860,49.0773640,177 6.0734640,49.0773750,177 6.0731630,49.0775180,178 6.0729420,49.0776320,178 6.0728370,49.0776870,178 6.0725990,49.0778640,179 6.0724680,49.0779770,179 6.0723670,49.0780650,179 6.0719910,49.0783760,180 6.0718950,49.0784670,180 6.0715710,49.0782740,181 6.0712020,49.0780790,184 6.0709360,49.0779890,186 6.0708850,49.0779710,186 6.0708110,49.0780480,186 6.0707180,49.0781460,186 6.0706420,49.0781180,186 6.0705470,49.0780900,187 6.0701350,49.0780410,191 6.0699530,49.0780360,192 6.0697850,49.0780620,193 6.0697100,49.0780630,193 6.0696500,49.0780490,194 6.0695770,49.0780190,195 6.0692830,49.0778190,198 6.0690770,49.0776750,200 6.0686900,49.0778030,201 6.0682420,49.0779400,204 6.0681870,49.0779620,204 6.0681520,49.0779960,204 6.0681300,49.0780360,204 6.0681040,49.0781760,204 6.0680570,49.0782730,203 6.0680060,49.0783320,203 6.0679430,49.0783540,203 6.0670350,49.0785150,203 6.0668420,49.0785350,204 6.0666460,49.0785370,205 6.0664520,49.0785220,206 6.0663050,49.0784960,206 6.0660830,49.0784390,208 6.0659150,49.0783730,208 6.0658020,49.0783130,208 6.0657620,49.0782920,208 6.0656290,49.0781980,208 6.0655420,49.0781310,208 6.0654330,49.0780800,208 6.0653090,49.0780470,207 6.0651760,49.0780340,207 6.0650420,49.0780430,207 6.0649160,49.0780730,206 6.0648040,49.0781210,205 6.0641700,49.0784480,199 6.0641100,49.0784940,198 6.0640660,49.0785490,198 6.0640660,49.0785970,197 6.0638480,49.0786600,196 6.0636030,49.0786860,198 6.0632450,49.0787060,199 6.0617090,49.0788070,206 6.0607460,49.0789380,210 6.0599730,49.0790960,213 6.0598180,49.0791130,214 6.0596860,49.0791090,214 6.0595660,49.0790920,215 6.0590150,49.0789710,217 6.0583220,49.0788320,220 6.0580290,49.0788120,220 6.0577560,49.0788230,220 6.0565550,49.0789330,224 6.0564340,49.0789340,225 6.0563180,49.0789210,226 6.0562320,49.0788820,226 6.0561690,49.0788120,228 6.0560470,49.0786470,230 6.0559900,49.0785400,233 6.0557570,49.0781950,244 6.0554470,49.0783310,244 6.0551460,49.0784230,244 6.0548460,49.0784930,245 6.0546630,49.0785140,246 6.0544920,49.0785210,246 6.0542660,49.0785000,248 6.0539440,49.0784580,250 6.0537300,49.0784580,250 6.0535260,49.0784370,252 6.0531680,49.0784660,252 6.0526360,49.0785690,251 6.0520650,49.0786620,251 6.0513660,49.0787660,252 6.0509850,49.0787890,254 6.0506380,49.0788250,254 6.0503140,49.0788370,258 6.0499970,49.0788610,262 6.0495990,49.0789000,267 6.0493420,49.0789640,268 6.0481720,49.0793290,267 6.0478510,49.0794490,268 6.0475070,49.0795960,266 6.0472890,49.0796270,264 6.0470960,49.0795980,264 6.0468540,49.0794980,265 6.0466040,49.0793520,266 6.0463420,49.0791350,270 6.0462520,49.0790410,271 6.0461340,49.0789360,272 6.0460480,49.0788090,272 6.0460050,49.0786970,272 6.0459190,49.0783170,274 6.0457480,49.0779940,278 6.0454580,49.0777340,278 6.0452970,49.0776420,278 6.0451150,49.0775580,278 6.0450820,49.0775370,278 6.0447820,49.0774180,278 6.0446680,49.0773550,280 6.0445440,49.0772860,281 6.0439610,49.0770170,282 6.0435910,49.0767150,286 6.0430760,49.0762720,290 6.0428480,49.0763750,289 6.0427910,49.0762540,290 6.0423840,49.0758670,294 6.0414180,49.0751920,300 6.0390360,49.0733580,304 6.0385750,49.0734930,302 6.0347040,49.0720480,298 6.0345370,49.0722470,298 6.0338040,49.0721590,296 6.0337050,49.0720610,296 6.0332290,49.0719390,295 6.0328880,49.0717720,294 6.0325870,49.0716700,292 6.0317990,49.0713510,290 6.0311430,49.0710680,288 6.0307170,49.0710000,287 6.0302300,49.0708130,286 6.0297810,49.0704700,284 6.0282870,49.0693930,276 6.0278250,49.0689830,272 6.0275730,49.0687890,270 6.0271400,49.0685540,269 6.0269130,49.0684620,268 6.0267310,49.0684150,268 6.0262690,49.0682660,266 6.0257260,49.0680420,266 6.0252860,49.0678400,266 6.0246240,49.0675070,262 6.0240640,49.0672050,263 6.0235330,49.0669670,262 6.0230640,49.0666770,263 6.0222110,49.0661280,264 6.0211070,49.0658650,264 6.0196590,49.0657010,265 6.0192500,49.0656690,264 6.0180320,49.0657060,261 6.0172540,49.0654920,262 6.0165460,49.0651030,262 6.0161070,49.0647130,264 6.0157390,49.0643050,266 6.0153000,49.0638600,266 6.0147760,49.0634790,266 6.0136580,49.0629970,262 6.0129220,49.0626170,256 6.0124830,49.0622920,252 6.0123270,49.0617260,245 6.0122280,49.0614110,238 6.0119730,49.0612440,234 6.0118170,49.0609930,227 6.0117980,49.0608720,223 6.0109250,49.0605140,208 6.0108230,49.0603980,206 6.0107780,49.0603250,204 6.0107410,49.0602780,203 6.0104670,49.0599950,202 6.0103850,49.0598160,202 6.0103690,49.0596900,202 6.0103280,49.0596060,202 6.0101090,49.0593940,204 6.0099920,49.0592430,204 6.0099340,49.0591490,204 6.0098900,49.0590460,205 6.0097880,49.0583330,204 6.0097640,49.0579720,204 6.0097260,49.0576770,205 6.0096850,49.0575170,205 6.0094890,49.0570330,210 6.0094120,49.0567680,212 6.0094000,49.0565770,214 6.0094250,49.0560900,216 6.0094210,49.0558190,216 6.0093930,49.0556340,215 6.0092960,49.0552040,214 6.0092740,49.0550210,214 6.0092550,49.0545890,215 6.0092330,49.0545100,215 6.0091930,49.0544560,216 6.0090880,49.0543550,217 6.0089480,49.0542490,218 6.0088020,49.0541630,218 6.0085540,49.0540450,220 6.0083150,49.0539880,220 6.0082520,49.0539430,220 6.0082290,49.0539000,220 6.0080360,49.0538920,220 6.0067870,49.0536560,222 6.0065020,49.0536040,220 6.0065260,49.0534990,220 6.0065690,49.0530890,215 6.0065500,49.0530350,214 6.0065660,49.0528720,211 6.0066820,49.0525230,201 6.0061990,49.0524780,202 6.0061770,49.0524440,202 6.0061720,49.0524000,201 6.0061450,49.0523490,200 6.0060730,49.0523180,200 6.0059170,49.0523020,200 6.0057700,49.0522980,200 6.0055950,49.0523050,201 6.0053220,49.0523390,202 6.0051420,49.0523510,202 6.0049760,49.0523410,202 6.0048740,49.0523250,202 6.0048020,49.0522940,201 6.0047160,49.0523190,202 6.0045850,49.0523440,202 6.0045420,49.0522160,200 6.0044560,49.0522120,200 6.0042820,49.0521820,200 6.0042310,49.0521590,200 6.0041100,49.0520680,200 6.0039820,49.0520140,199 6.0039270,49.0519990,199 6.0035870,49.0519850,200 6.0031660,49.0520320,200 6.0026200,49.0520910,201 6.0023500,49.0521100,201 6.0020010,49.0521600,202 6.0018690,49.0521850,202 6.0015040,49.0522970,202 6.0014600,49.0522250,202 6.0013790,49.0521240,202 6.0011730,49.0519370,203 6.0010920,49.0518590,203 6.0005910,49.0513740,209 6.0002950,49.0514650,210 6.0002540,49.0514770,210 5.9998500,49.0516530,210 5.9996730,49.0517430,210 5.9987280,49.0522960,211 5.9987160,49.0523020,211 5.9982700,49.0520270,216 5.9985570,49.0518300,216 5.9980230,49.0515450,224 5.9980030,49.0515090,224 5.9982140,49.0515190,223 5.9984330,49.0515080,222 5.9986660,49.0514350,221 5.9984330,49.0515080,222 5.9982140,49.0515190,223 5.9980030,49.0515090,224 5.9980230,49.0515450,224 5.9985570,49.0518300,216 5.9982700,49.0520270,216 5.9987160,49.0523020,211 5.9986200,49.0523580,211 5.9984610,49.0524500,211 5.9981780,49.0526400,211 5.9980340,49.0527350,212 5.9979410,49.0528100,212 5.9978460,49.0528930,212 5.9974020,49.0533410,214 5.9972920,49.0534980,213 5.9971570,49.0537020,214 5.9971490,49.0538180,214 5.9972430,49.0540820,212 5.9970350,49.0540860,214 5.9970370,49.0541180,214 5.9969990,49.0549410,214 5.9970020,49.0552030,214 5.9970270,49.0553890,213 5.9970590,49.0554380,210 5.9970270,49.0553890,213 5.9970020,49.0552030,214 5.9969990,49.0549410,214 5.9970370,49.0541180,214 5.9970350,49.0540860,214 5.9972430,49.0540820,212 5.9971490,49.0538180,214 5.9971570,49.0537020,214 5.9972920,49.0534980,213 5.9979540,49.0536330,209 5.9989810,49.0538050,204 5.9990510,49.0538160,205 5.9990740,49.0537990,205 5.9999790,49.0542900,220 6.0002740,49.0541690,222 6.0005230,49.0540510,222 6.0007710,49.0539240,222 6.0008820,49.0538790,222 6.0012130,49.0537700,224 6.0015830,49.0537010,226 6.0019720,49.0536030,225 6.0021730,49.0535620,224 6.0023370,49.0535010,223 6.0024890,49.0534540,222 6.0026410,49.0534600,222 6.0031770,49.0535390,221 6.0032850,49.0535420,220 6.0037130,49.0535800,221 6.0038390,49.0535750,221 6.0039670,49.0535450,220 6.0039880,49.0535270,220 6.0039880,49.0535020,220 6.0044350,49.0534610,219 6.0045250,49.0534640,219 6.0046170,49.0534750,220 6.0054460,49.0536180,222 6.0057800,49.0536770,222 6.0063240,49.0538020,225 6.0065510,49.0538310,225 6.0068900,49.0538870,225 6.0068480,49.0538070,224 6.0068470,49.0537840,224 6.0068700,49.0537550,223 6.0068260,49.0537340,223 6.0067870,49.0537010,222 6.0067870,49.0536560,222 6.0080360,49.0538920,220 6.0082290,49.0539000,220 6.0082520,49.0539430,220 6.0083150,49.0539880,220 6.0085540,49.0540450,220 6.0088020,49.0541630,218 6.0089480,49.0542490,218 6.0090880,49.0543550,217 6.0091930,49.0544560,216 6.0092330,49.0545100,215 6.0092550,49.0545890,215 6.0092740,49.0550210,214 6.0092960,49.0552040,214 6.0093930,49.0556340,215 6.0094210,49.0558190,216 6.0094250,49.0560900,216 6.0094000,49.0565770,214 6.0094120,49.0567680,212 6.0094890,49.0570330,210 6.0096850,49.0575170,205 6.0097260,49.0576770,205 6.0097640,49.0579720,204 6.0097880,49.0583330,204 6.0098900,49.0590460,205 6.0099340,49.0591490,204 6.0099920,49.0592430,204 6.0101090,49.0593940,204 6.0103280,49.0596060,202 6.0103690,49.0596900,202 6.0103850,49.0598160,202 6.0104670,49.0599950,202 6.0107410,49.0602780,203 6.0107780,49.0603250,204 6.0108230,49.0603980,206 6.0109250,49.0605140,208 6.0117980,49.0608720,223 6.0118170,49.0609930,227 6.0119730,49.0612440,234 6.0122280,49.0614110,238 6.0123270,49.0617260,245 6.0124830,49.0622920,252 6.0129220,49.0626170,256 6.0136580,49.0629970,262 6.0147760,49.0634790,266 6.0153000,49.0638600,266 6.0157390,49.0643050,266 6.0161070,49.0647130,264 6.0165460,49.0651030,262 6.0172540,49.0654920,262 6.0180320,49.0657060,261 6.0192500,49.0656690,264 6.0196590,49.0657010,265 6.0211070,49.0658650,264 6.0222110,49.0661280,264 6.0230640,49.0666770,263 6.0235330,49.0669670,262 6.0240640,49.0672050,263 6.0246240,49.0675070,262 6.0252860,49.0678400,266 6.0257260,49.0680420,266 6.0262690,49.0682660,266 6.0267310,49.0684150,268 6.0269130,49.0684620,268 6.0271400,49.0685540,269 6.0275730,49.0687890,270 6.0278250,49.0689830,272 6.0282870,49.0693930,276 6.0297810,49.0704700,284 6.0302300,49.0708130,286 6.0307170,49.0710000,287 6.0311430,49.0710680,288 6.0317990,49.0713510,290 6.0325870,49.0716700,292 6.0328880,49.0717720,294 6.0332290,49.0719390,295 6.0337050,49.0720610,296 6.0338040,49.0721590,296 6.0345370,49.0722470,298 6.0347040,49.0720480,298 6.0385750,49.0734930,302 6.0390360,49.0733580,304 6.0414180,49.0751920,300 6.0423840,49.0758670,294 6.0427910,49.0762540,290 6.0428480,49.0763750,289 6.0430760,49.0762720,290 6.0435910,49.0767150,286 6.0439610,49.0770170,282 6.0445440,49.0772860,281 6.0446680,49.0773550,280 6.0447820,49.0774180,278 6.0450820,49.0775370,278 6.0451150,49.0775580,278 6.0452970,49.0776420,278 6.0454580,49.0777340,278 6.0457480,49.0779940,278 6.0459190,49.0783170,274 6.0460050,49.0786970,272 6.0460480,49.0788090,272 6.0461340,49.0789360,272 6.0462520,49.0790410,271 6.0463420,49.0791350,270 6.0466040,49.0793520,266 6.0468540,49.0794980,265 6.0470960,49.0795980,264 6.0472890,49.0796270,264 6.0475070,49.0795960,266 6.0478510,49.0794490,268 6.0481720,49.0793290,267 6.0493420,49.0789640,268 6.0495990,49.0789000,267 6.0499970,49.0788610,262 6.0503140,49.0788370,258 6.0506380,49.0788250,254 6.0509850,49.0787890,254 6.0513660,49.0787660,252 6.0520650,49.0786620,251 6.0526360,49.0785690,251 6.0531680,49.0784660,252 6.0535260,49.0784370,252 6.0537300,49.0784580,250 6.0539440,49.0784580,250 6.0542660,49.0785000,248 6.0544920,49.0785210,246 6.0546630,49.0785140,246 6.0548460,49.0784930,245 6.0551460,49.0784230,244 6.0554470,49.0783310,244 6.0557570,49.0781950,244 6.0559900,49.0785400,233 6.0560470,49.0786470,230 6.0561690,49.0788120,228 6.0562320,49.0788820,226 6.0563180,49.0789210,226 6.0564340,49.0789340,225 6.0565550,49.0789330,224 6.0577560,49.0788230,220 6.0580290,49.0788120,220 6.0583220,49.0788320,220 6.0590150,49.0789710,217 6.0595660,49.0790920,215 6.0596860,49.0791090,214 6.0598180,49.0791130,214 6.0599730,49.0790960,213 6.0607460,49.0789380,210 6.0617090,49.0788070,206 6.0632450,49.0787060,199 6.0636030,49.0786860,198 6.0638480,49.0786600,196 6.0640660,49.0785970,197 6.0640660,49.0785490,198 6.0641100,49.0784940,198 6.0641700,49.0784480,199 6.0648040,49.0781210,205 6.0649160,49.0780730,206 6.0650420,49.0780430,207 6.0651760,49.0780340,207 6.0653090,49.0780470,207 6.0654330,49.0780800,208 6.0655420,49.0781310,208 6.0656290,49.0781980,208 6.0657620,49.0782920,208 6.0658020,49.0783130,208 6.0659150,49.0783730,208 6.0660830,49.0784390,208 6.0663050,49.0784960,206 6.0664520,49.0785220,206 6.0666460,49.0785370,205 6.0668420,49.0785350,204 6.0670350,49.0785150,203 6.0679430,49.0783540,203 6.0680060,49.0783320,203 6.0680570,49.0782730,203 6.0681040,49.0781760,204 6.0681300,49.0780360,204 6.0681520,49.0779960,204 6.0681870,49.0779620,204 6.0682420,49.0779400,204 6.0686900,49.0778030,201 6.0690770,49.0776750,200 6.0692830,49.0778190,198 6.0695770,49.0780190,195 6.0696500,49.0780490,194 6.0697100,49.0780630,193 6.0697850,49.0780620,193 6.0699530,49.0780360,192 6.0701350,49.0780410,191 6.0705470,49.0780900,187 6.0706420,49.0781180,186 6.0707180,49.0781460,186 6.0708110,49.0780480,186 6.0708850,49.0779710,186 6.0709360,49.0779890,186 6.0712020,49.0780790,184 6.0715710,49.0782740,181 6.0718950,49.0784670,180 6.0719910,49.0783760,180 6.0723670,49.0780650,179 6.0724680,49.0779770,179 6.0725990,49.0778640,179 6.0728370,49.0776870,178 6.0729420,49.0776320,178 6.0731630,49.0775180,178 6.0734640,49.0773750,177 6.0734860,49.0773640,177 6.0737500,49.0772130,177 6.0742020,49.0769370,177 6.0744320,49.0768000,176 6.0745260,49.0767400,176 6.0747890,49.0765750,176 6.0750410,49.0764240,176 6.0751540,49.0763540,176 6.0752300,49.0763110,175 6.0756660,49.0765960,174 6.0761810,49.0768830,173 6.0761790,49.0768840,173</coordinates></LineString></Placemark>
</Document></kml>