<?xml version="1.0" encoding="UTF-8"?>
<gpx version="1.1" creator="olifant"
     xmlns="http://www.topografix.com/GPX/1/1"
     xmlns:xsi="http://www.w3.org/2001/XMLSchema-instance"
     xsi:schemaLocation="http://www.topografix.com/GPX/1/1 http://www.topografix.com/GPX/1/1/gpx.xsd">
  <metadata><name>L'aqueduc et la vallee de Gorze</name><desc>20.1 km. D+ 297 m. 64 % de chemins. Depart : Ars-sur-Moselle, pres de la gare (20 min de Metz). Les arches romaines de Jouy, puis le vallon boise qui remonte jusqu'a l'abbaye de Gorze en suivant le trace de l'aqueduc.</desc></metadata>
  <wpt lat="49.0769680" lon="6.0763110"><name>Ars-sur-Moselle</name><desc>Depart en voiture. Se garer pres de la gare ou du centre.</desc></wpt>
  <wpt lat="49.0652930" lon="6.0802500"><name>Aqueduc romain de Jouy-aux-Arches</name><desc>Sept arches encore debout d'un aqueduc du IIe siecle qui amenait l'eau de Gorze a Metz. La suite de l'ouvrage se devine tout le long du vallon.</desc></wpt>
  <wpt lat="49.0516250" lon="5.9988240"><name>Gorze</name><desc>Village au fond de la vallee, ancienne abbaye benedictine et palais abbatial. Boulangerie et cafe sur la place.</desc></wpt>
  <wpt lat="49.0554390" lon="5.9970580"><name>Abbaye de Gorze</name><desc>Le palais abbatial et son jardin en terrasses.</desc></wpt>
  <trk><name>L'aqueduc et la vallee de Gorze</name><trkseg>
    <trkpt lat="49.0768840" lon="6.0761790"><ele>173.0</ele></trkpt>
    <trkpt lat="49.0768830" lon="6.0761810"><ele>173.0</ele></trkpt>
    <trkpt lat="49.0766920" lon="6.0764640"><ele>173.0</ele></trkpt>
    <trkpt lat="49.0766210" lon="6.0765670"><ele>173.0</ele></trkpt>
    <trkpt lat="49.0765460" lon="6.0766840"><ele>173.0</ele></trkpt>
    <trkpt lat="49.0765050" lon="6.0766160"><ele>173.0</ele></trkpt>
    <trkpt lat="49.0763730" lon="6.0763580"><ele>173.0</ele></trkpt>
    <trkpt lat="49.0763570" lon="6.0762660"><ele>173.5</ele></trkpt>
    <trkpt lat="49.0761200" lon="6.0760020"><ele>174.8</ele></trkpt>
    <trkpt lat="49.0759690" lon="6.0757630"><ele>174.5</ele></trkpt>
    <trkpt lat="49.0758780" lon="6.0759000"><ele>174.0</ele></trkpt>
    <trkpt lat="49.0757580" lon="6.0757230"><ele>174.2</ele></trkpt>
    <trkpt lat="49.0756970" lon="6.0758260"><ele>174.0</ele></trkpt>
    <trkpt lat="49.0755190" lon="6.0755830"><ele>174.8</ele></trkpt>
    <trkpt lat="49.0754990" lon="6.0756910"><ele>174.5</ele></trkpt>
    <trkpt lat="49.0754460" lon="6.0757940"><ele>174.0</ele></trkpt>
    <trkpt lat="49.0754100" lon="6.0758680"><ele>173.8</ele></trkpt>
    <trkpt lat="49.0753710" lon="6.0759380"><ele>173.5</ele></trkpt>
    <trkpt lat="49.0753050" lon="6.0758790"><ele>173.8</ele></trkpt>
    <trkpt lat="49.0752710" lon="6.0758660"><ele>173.8</ele></trkpt>
    <trkpt lat="49.0751710" lon="6.0758590"><ele>173.5</ele></trkpt>
    <trkpt lat="49.0751560" lon="6.0759300"><ele>173.2</ele></trkpt>
    <trkpt lat="49.0751490" lon="6.0760050"><ele>173.0</ele></trkpt>
    <trkpt lat="49.0751390" lon="6.0760400"><ele>173.0</ele></trkpt>
    <trkpt lat="49.0751000" lon="6.0761110"><ele>173.0</ele></trkpt>
    <trkpt lat="49.0749530" lon="6.0763680"><ele>172.0</ele></trkpt>
    <trkpt lat="49.0745420" lon="6.0770350"><ele>172.5</ele></trkpt>
    <trkpt lat="49.0745190" lon="6.0770880"><ele>172.5</ele></trkpt>
    <trkpt lat="49.0744700" lon="6.0771830"><ele>172.8</ele></trkpt>
    <trkpt lat="49.0743710" lon="6.0773370"><ele>173.0</ele></trkpt>
    <trkpt lat="49.0742860" lon="6.0772330"><ele>173.0</ele></trkpt>
    <trkpt lat="49.0741630" lon="6.0770680"><ele>174.5</ele></trkpt>
    <trkpt lat="49.0740980" lon="6.0769680"><ele>175.0</ele></trkpt>
    <trkpt lat="49.0740710" lon="6.0769280"><ele>174.8</ele></trkpt>
    <trkpt lat="49.0739710" lon="6.0770870"><ele>174.5</ele></trkpt>
    <trkpt lat="49.0738140" lon="6.0772840"><ele>174.2</ele></trkpt>
    <trkpt lat="49.0736850" lon="6.0774180"><ele>174.0</ele></trkpt>
    <trkpt lat="49.0735640" lon="6.0775150"><ele>173.8</ele></trkpt>
    <trkpt lat="49.0736410" lon="6.0777350"><ele>173.8</ele></trkpt>
    <trkpt lat="49.0736310" lon="6.0777530"><ele>173.8</ele></trkpt>
    <trkpt lat="49.0735420" lon="6.0778230"><ele>174.5</ele></trkpt>
    <trkpt lat="49.0733200" lon="6.0778720"><ele>175.8</ele></trkpt>
    <trkpt lat="49.0732470" lon="6.0779050"><ele>175.8</ele></trkpt>
    <trkpt lat="49.0731770" lon="6.0779480"><ele>175.5</ele></trkpt>
    <trkpt lat="49.0731290" lon="6.0780010"><ele>175.0</ele></trkpt>
    <trkpt lat="49.0730850" lon="6.0780740"><ele>174.8</ele></trkpt>
    <trkpt lat="49.0730350" lon="6.0782000"><ele>174.5</ele></trkpt>
    <trkpt lat="49.0729950" lon="6.0782690"><ele>174.5</ele></trkpt>
    <trkpt lat="49.0729360" lon="6.0783130"><ele>174.8</ele></trkpt>
    <trkpt lat="49.0728720" lon="6.0783300"><ele>175.2</ele></trkpt>
    <trkpt lat="49.0727960" lon="6.0783340"><ele>175.8</ele></trkpt>
    <trkpt lat="49.0727280" lon="6.0783140"><ele>176.0</ele></trkpt>
    <trkpt lat="49.0724950" lon="6.0782770"><ele>176.8</ele></trkpt>
    <trkpt lat="49.0722730" lon="6.0782870"><ele>177.0</ele></trkpt>
    <trkpt lat="49.0720130" lon="6.0785300"><ele>173.0</ele></trkpt>
    <trkpt lat="49.0715560" lon="6.0789950"><ele>172.2</ele></trkpt>
    <trkpt lat="49.0714390" lon="6.0791220"><ele>176.0</ele></trkpt>
    <trkpt lat="49.0713530" lon="6.0792310"><ele>177.2</ele></trkpt>
    <trkpt lat="49.0712630" lon="6.0793620"><ele>176.2</ele></trkpt>
    <trkpt lat="49.0712440" lon="6.0793930"><ele>176.2</ele></trkpt>
    <trkpt lat="49.0710800" lon="6.0796550"><ele>174.0</ele></trkpt>
    <trkpt lat="49.0698190" lon="6.0818450"><ele>173.0</ele></trkpt>
    <trkpt lat="49.0698000" lon="6.0818750"><ele>173.2</ele></trkpt>
    <trkpt lat="49.0697600" lon="6.0818170"><ele>173.5</ele></trkpt>
    <trkpt lat="49.0696560" lon="6.0816740"><ele>173.2</ele></trkpt>
    <trkpt lat="49.0695650" lon="6.0815560"><ele>172.0</ele></trkpt>
    <trkpt lat="49.0694700" lon="6.0814290"><ele>172.5</ele></trkpt>
    <trkpt lat="49.0692250" lon="6.0811790"><ele>172.2</ele></trkpt>
    <trkpt lat="49.0689090" lon="6.0806640"><ele>174.2</ele></trkpt>
    <trkpt lat="49.0688780" lon="6.0806440"><ele>174.5</ele></trkpt>
    <trkpt lat="49.0688380" lon="6.0806330"><ele>174.2</ele></trkpt>
    <trkpt lat="49.0687940" lon="6.0806490"><ele>173.5</ele></trkpt>
    <trkpt lat="49.0687600" lon="6.0806740"><ele>173.0</ele></trkpt>
    <trkpt lat="49.0686110" lon="6.0809530"><ele>173.8</ele></trkpt>
    <trkpt lat="49.0685240" lon="6.0810350"><ele>173.8</ele></trkpt>
    <trkpt lat="49.0684590" lon="6.0809880"><ele>173.2</ele></trkpt>
    <trkpt lat="49.0682330" lon="6.0805370"><ele>170.5</ele></trkpt>
    <trkpt lat="49.0681270" lon="6.0803380"><ele>170.5</ele></trkpt>
    <trkpt lat="49.0676720" lon="6.0797200"><ele>170.2</ele></trkpt>
    <trkpt lat="49.0674650" lon="6.0794790"><ele>170.8</ele></trkpt>
    <trkpt lat="49.0662740" lon="6.0790370"><ele>170.5</ele></trkpt>
    <trkpt lat="49.0658820" lon="6.0788640"><ele>170.8</ele></trkpt>
    <trkpt lat="49.0658400" lon="6.0790800"><ele>171.5</ele></trkpt>
    <trkpt lat="49.0658270" lon="6.0791360"><ele>171.8</ele></trkpt>
    <trkpt lat="49.0655180" lon="6.0795690"><ele>174.8</ele></trkpt>
    <trkpt lat="49.0654750" lon="6.0796770"><ele>175.5</ele></trkpt>
    <trkpt lat="49.0653750" lon="6.0800790"><ele>177.2</ele></trkpt>
    <trkpt lat="49.0653670" lon="6.0801110"><ele>177.2</ele></trkpt>
    <trkpt lat="49.0655860" lon="6.0802340"><ele>176.5</ele></trkpt>
    <trkpt lat="49.0655750" lon="6.0802980"><ele>177.0</ele></trkpt>
    <trkpt lat="49.0655580" lon="6.0803380"><ele>177.2</ele></trkpt>
    <trkpt lat="49.0655130" lon="6.0803650"><ele>177.8</ele></trkpt>
    <trkpt lat="49.0653450" lon="6.0803410"><ele>178.0</ele></trkpt>
    <trkpt lat="49.0653200" lon="6.0803450"><ele>178.2</ele></trkpt>
    <trkpt lat="49.0652690" lon="6.0803150"><ele>178.2</ele></trkpt>
    <trkpt lat="49.0652040" lon="6.0802450"><ele>178.0</ele></trkpt>
    <trkpt lat="49.0651990" lon="6.0802200"><ele>178.0</ele></trkpt>
    <trkpt lat="49.0652080" lon="6.0801610"><ele>178.0</ele></trkpt>
    <trkpt lat="49.0653010" lon="6.0802070"><ele>177.5</ele></trkpt>
    <trkpt lat="49.0652080" lon="6.0801610"><ele>178.0</ele></trkpt>
    <trkpt lat="49.0651990" lon="6.0802200"><ele>178.0</ele></trkpt>
    <trkpt lat="49.0652040" lon="6.0802450"><ele>178.0</ele></trkpt>
    <trkpt lat="49.0652690" lon="6.0803150"><ele>178.2</ele></trkpt>
    <trkpt lat="49.0653200" lon="6.0803450"><ele>178.2</ele></trkpt>
    <trkpt lat="49.0653450" lon="6.0803410"><ele>178.0</ele></trkpt>
    <trkpt lat="49.0655130" lon="6.0803650"><ele>177.8</ele></trkpt>
    <trkpt lat="49.0655580" lon="6.0803380"><ele>177.2</ele></trkpt>
    <trkpt lat="49.0655750" lon="6.0802980"><ele>177.0</ele></trkpt>
    <trkpt lat="49.0655860" lon="6.0802340"><ele>176.5</ele></trkpt>
    <trkpt lat="49.0653670" lon="6.0801110"><ele>177.2</ele></trkpt>
    <trkpt lat="49.0653750" lon="6.0800790"><ele>177.2</ele></trkpt>
    <trkpt lat="49.0654750" lon="6.0796770"><ele>175.5</ele></trkpt>
    <trkpt lat="49.0655180" lon="6.0795690"><ele>174.8</ele></trkpt>
    <trkpt lat="49.0658270" lon="6.0791360"><ele>171.8</ele></trkpt>
    <trkpt lat="49.0658400" lon="6.0790800"><ele>171.5</ele></trkpt>
    <trkpt lat="49.0658820" lon="6.0788640"><ele>170.8</ele></trkpt>
    <trkpt lat="49.0662740" lon="6.0790370"><ele>170.5</ele></trkpt>
    <trkpt lat="49.0674650" lon="6.0794790"><ele>170.8</ele></trkpt>
    <trkpt lat="49.0676720" lon="6.0797200"><ele>170.2</ele></trkpt>
    <trkpt lat="49.0681270" lon="6.0803380"><ele>170.5</ele></trkpt>
    <trkpt lat="49.0682330" lon="6.0805370"><ele>170.5</ele></trkpt>
    <trkpt lat="49.0684590" lon="6.0809880"><ele>173.2</ele></trkpt>
    <trkpt lat="49.0685240" lon="6.0810350"><ele>173.8</ele></trkpt>
    <trkpt lat="49.0686110" lon="6.0809530"><ele>173.8</ele></trkpt>
    <trkpt lat="49.0687600" lon="6.0806740"><ele>173.0</ele></trkpt>
    <trkpt lat="49.0687940" lon="6.0806490"><ele>173.5</ele></trkpt>
    <trkpt lat="49.0688380" lon="6.0806330"><ele>174.2</ele></trkpt>
    <trkpt lat="49.0688780" lon="6.0806440"><ele>174.5</ele></trkpt>
    <trkpt lat="49.0689090" lon="6.0806640"><ele>174.2</ele></trkpt>
    <trkpt lat="49.0692250" lon="6.0811790"><ele>172.2</ele></trkpt>
    <trkpt lat="49.0694700" lon="6.0814290"><ele>172.5</ele></trkpt>
    <trkpt lat="49.0695650" lon="6.0815560"><ele>172.0</ele></trkpt>
    <trkpt lat="49.0696560" lon="6.0816740"><ele>173.2</ele></trkpt>
    <trkpt lat="49.0697600" lon="6.0818170"><ele>173.5</ele></trkpt>
    <trkpt lat="49.0698000" lon="6.0818750"><ele>173.2</ele></trkpt>
    <trkpt lat="49.0698190" lon="6.0818450"><ele>173.0</ele></trkpt>
    <trkpt lat="49.0710800" lon="6.0796550"><ele>174.0</ele></trkpt>
    <trkpt lat="49.0712440" lon="6.0793930"><ele>176.2</ele></trkpt>
    <trkpt lat="49.0712630" lon="6.0793620"><ele>176.2</ele></trkpt>
    <trkpt lat="49.0713530" lon="6.0792310"><ele>177.2</ele></trkpt>
    <trkpt lat="49.0714390" lon="6.0791220"><ele>176.0</ele></trkpt>
    <trkpt lat="49.0715560" lon="6.0789950"><ele>172.2</ele></trkpt>
    <trkpt lat="49.0720130" lon="6.0785300"><ele>173.0</ele></trkpt>
    <trkpt lat="49.0722730" lon="6.0782870"><ele>177.0</ele></trkpt>
    <trkpt lat="49.0724950" lon="6.0782770"><ele>176.8</ele></trkpt>
    <trkpt lat="49.0727280" lon="6.0783140"><ele>176.0</ele></trkpt>
    <trkpt lat="49.0727960" lon="6.0783340"><ele>175.8</ele></trkpt>
    <trkpt lat="49.0728720" lon="6.0783300"><ele>175.2</ele></trkpt>
    <trkpt lat="49.0729360" lon="6.0783130"><ele>174.8</ele></trkpt>
    <trkpt lat="49.0729950" lon="6.0782690"><ele>174.5</ele></trkpt>
    <trkpt lat="49.0730350" lon="6.0782000"><ele>174.5</ele></trkpt>
    <trkpt lat="49.0730850" lon="6.0780740"><ele>174.8</ele></trkpt>
    <trkpt lat="49.0731290" lon="6.0780010"><ele>175.0</ele></trkpt>
    <trkpt lat="49.0731770" lon="6.0779480"><ele>175.5</ele></trkpt>
    <trkpt lat="49.0732470" lon="6.0779050"><ele>175.8</ele></trkpt>
    <trkpt lat="49.0733200" lon="6.0778720"><ele>175.8</ele></trkpt>
    <trkpt lat="49.0735420" lon="6.0778230"><ele>174.5</ele></trkpt>
    <trkpt lat="49.0736310" lon="6.0777530"><ele>173.8</ele></trkpt>
    <trkpt lat="49.0736410" lon="6.0777350"><ele>173.8</ele></trkpt>
    <trkpt lat="49.0735640" lon="6.0775150"><ele>174.0</ele></trkpt>
    <trkpt lat="49.0736850" lon="6.0774180"><ele>174.0</ele></trkpt>
    <trkpt lat="49.0738140" lon="6.0772840"><ele>174.2</ele></trkpt>
    <trkpt lat="49.0739710" lon="6.0770870"><ele>174.8</ele></trkpt>
    <trkpt lat="49.0740710" lon="6.0769280"><ele>175.0</ele></trkpt>
    <trkpt lat="49.0740980" lon="6.0769680"><ele>175.0</ele></trkpt>
    <trkpt lat="49.0741630" lon="6.0770680"><ele>174.5</ele></trkpt>
    <trkpt lat="49.0742860" lon="6.0772330"><ele>173.0</ele></trkpt>
    <trkpt lat="49.0743710" lon="6.0773370"><ele>173.0</ele></trkpt>
    <trkpt lat="49.0744700" lon="6.0771830"><ele>172.8</ele></trkpt>
    <trkpt lat="49.0745190" lon="6.0770880"><ele>172.5</ele></trkpt>
    <trkpt lat="49.0745420" lon="6.0770350"><ele>172.5</ele></trkpt>
    <trkpt lat="49.0749530" lon="6.0763680"><ele>172.0</ele></trkpt>
    <trkpt lat="49.0751000" lon="6.0761110"><ele>173.0</ele></trkpt>
    <trkpt lat="49.0751390" lon="6.0760400"><ele>173.0</ele></trkpt>
    <trkpt lat="49.0751490" lon="6.0760050"><ele>173.0</ele></trkpt>
    <trkpt lat="49.0751560" lon="6.0759300"><ele>173.2</ele></trkpt>
    <trkpt lat="49.0751710" lon="6.0758590"><ele>173.5</ele></trkpt>
    <trkpt lat="49.0752710" lon="6.0758660"><ele>173.8</ele></trkpt>
    <trkpt lat="49.0753050" lon="6.0758790"><ele>173.8</ele></trkpt>
    <trkpt lat="49.0753710" lon="6.0759380"><ele>173.5</ele></trkpt>
    <trkpt lat="49.0754100" lon="6.0758680"><ele>173.8</ele></trkpt>
    <trkpt lat="49.0754460" lon="6.0757940"><ele>174.0</ele></trkpt>
    <trkpt lat="49.0754990" lon="6.0756910"><ele>174.5</ele></trkpt>
    <trkpt lat="49.0755190" lon="6.0755830"><ele>174.8</ele></trkpt>
    <trkpt lat="49.0756970" lon="6.0758260"><ele>174.0</ele></trkpt>
    <trkpt lat="49.0757580" lon="6.0757230"><ele>174.2</ele></trkpt>
    <trkpt lat="49.0758780" lon="6.0759000"><ele>174.0</ele></trkpt>
    <trkpt lat="49.0759690" lon="6.0757630"><ele>174.5</ele></trkpt>
    <trkpt lat="49.0761250" lon="6.0755310"><ele>175.0</ele></trkpt>
    <trkpt lat="49.0763110" lon="6.0752300"><ele>175.2</ele></trkpt>
    <trkpt lat="49.0763540" lon="6.0751540"><ele>175.5</ele></trkpt>
    <trkpt lat="49.0764240" lon="6.0750410"><ele>175.8</ele></trkpt>
    <trkpt lat="49.0765750" lon="6.0747890"><ele>176.0</ele></trkpt>
    <trkpt lat="49.0767400" lon="6.0745260"><ele>176.0</ele></trkpt>
    <trkpt lat="49.0768000" lon="6.0744320"><ele>176.0</ele></trkpt>
    <trkpt lat="49.0769370" lon="6.0742020"><ele>176.8</ele></trkpt>
    <trkpt lat="49.0772130" lon="6.0737500"><ele>177.0</ele></trkpt>
    <trkpt lat="49.0773640" lon="6.0734860"><ele>177.0</ele></trkpt>
    <trkpt lat="49.0773750" lon="6.0734640"><ele>177.0</ele></trkpt>
    <trkpt lat="49.0775180" lon="6.0731630"><ele>177.5</ele></trkpt>
    <trkpt lat="49.0776320" lon="6.0729420"><ele>178.0</ele></trkpt>
    <trkpt lat="49.0776870" lon="6.0728370"><ele>178.2</ele></trkpt>
    <trkpt lat="49.0778640" lon="6.0725990"><ele>178.8</ele></trkpt>
    <trkpt lat="49.0779770" lon="6.0724680"><ele>179.0</ele></trkpt>
    <trkpt lat="49.0780650" lon="6.0723670"><ele>179.0</ele></trkpt>
    <trkpt lat="49.0783760" lon="6.0719910"><ele>179.5</ele></trkpt>
    <trkpt lat="49.0784670" lon="6.0718950"><ele>179.5</ele></trkpt>
    <trkpt lat="49.0782740" lon="6.0715710"><ele>181.2</ele></trkpt>
    <trkpt lat="49.0780790" lon="6.0712020"><ele>183.5</ele></trkpt>
    <trkpt lat="49.0779890" lon="6.0709360"><ele>185.5</ele></trkpt>
    <trkpt lat="49.0779710" lon="6.0708850"><ele>185.8</ele></trkpt>
    <trkpt lat="49.0780480" lon="6.0708110"><ele>186.0</ele></trkpt>
    <trkpt lat="49.0781460" lon="6.0707180"><ele>186.0</ele></trkpt>
    <trkpt lat="49.0781180" lon="6.0706420"><ele>186.2</ele></trkpt>
    <trkpt lat="49.0780900" lon="6.0705470"><ele>186.8</ele></trkpt>
    <trkpt lat="49.0780410" lon="6.0701350"><ele>191.0</ele></trkpt>
    <trkpt lat="49.0780360" lon="6.0699530"><ele>192.2</ele></trkpt>
    <trkpt lat="49.0780620" lon="6.0697850"><ele>192.8</ele></trkpt>
    <trkpt lat="49.0780630" lon="6.0697100"><ele>193.0</ele></trkpt>
    <trkpt lat="49.0780490" lon="6.0696500"><ele>193.8</ele></trkpt>
    <trkpt lat="49.0780190" lon="6.0695770"><ele>194.8</ele></trkpt>
    <trkpt lat="49.0778190" lon="6.0692830"><ele>197.5</ele></trkpt>
    <trkpt lat="49.0776750" lon="6.0690770"><ele>199.5</ele></trkpt>
    <trkpt lat="49.0778030" lon="6.0686900"><ele>201.2</ele></trkpt>
    <trkpt lat="49.0779400" lon="6.0682420"><ele>203.8</ele></trkpt>
    <trkpt lat="49.0779620" lon="6.0681870"><ele>204.0</ele></trkpt>
    <trkpt lat="49.0779960" lon="6.0681520"><ele>204.2</ele></trkpt>
    <trkpt lat="49.0780360" lon="6.0681300"><ele>204.2</ele></trkpt>
    <trkpt lat="49.0781760" lon="6.0681040"><ele>203.8</ele></trkpt>
    <trkpt lat="49.0782730" lon="6.0680570"><ele>203.2</ele></trkpt>
    <trkpt lat="49.0783320" lon="6.0680060"><ele>203.0</ele></trkpt>
    <trkpt lat="49.0783540" lon="6.0679430"><ele>202.8</ele></trkpt>
    <trkpt lat="49.0785150" lon="6.0670350"><ele>203.2</ele></trkpt>
    <trkpt lat="49.0785350" lon="6.0668420"><ele>204.0</ele></trkpt>
    <trkpt lat="49.0785370" lon="6.0666460"><ele>204.8</ele></trkpt>
    <trkpt lat="49.0785220" lon="6.0664520"><ele>206.0</ele></trkpt>
    <trkpt lat="49.0784960" lon="6.0663050"><ele>206.5</ele></trkpt>
    <trkpt lat="49.0784390" lon="6.0660830"><ele>207.5</ele></trkpt>
    <trkpt lat="49.0783730" lon="6.0659150"><ele>207.8</ele></trkpt>
    <trkpt lat="49.0783130" lon="6.0658020"><ele>208.0</ele></trkpt>
    <trkpt lat="49.0782920" lon="6.0657620"><ele>208.0</ele></trkpt>
    <trkpt lat="49.0781980" lon="6.0656290"><ele>208.0</ele></trkpt>
    <trkpt lat="49.0781310" lon="6.0655420"><ele>207.8</ele></trkpt>
    <trkpt lat="49.0780800" lon="6.0654330"><ele>207.5</ele></trkpt>
    <trkpt lat="49.0780470" lon="6.0653090"><ele>207.0</ele></trkpt>
    <trkpt lat="49.0780340" lon="6.0651760"><ele>207.2</ele></trkpt>
    <trkpt lat="49.0780430" lon="6.0650420"><ele>207.0</ele></trkpt>
    <trkpt lat="49.0780730" lon="6.0649160"><ele>206.2</ele></trkpt>
    <trkpt lat="49.0781210" lon="6.0648040"><ele>204.8</ele></trkpt>
    <trkpt lat="49.0784480" lon="6.0641700"><ele>199.2</ele></trkpt>
    <trkpt lat="49.0784940" lon="6.0641100"><ele>198.5</ele></trkpt>
    <trkpt lat="49.0785490" lon="6.0640660"><ele>197.8</ele></trkpt>
    <trkpt lat="49.0785970" lon="6.0640660"><ele>197.0</ele></trkpt>
    <trkpt lat="49.0786600" lon="6.0638480"><ele>196.5</ele></trkpt>
    <trkpt lat="49.0786860" lon="6.0636030"><ele>197.8</ele></trkpt>
    <trkpt lat="49.0787060" lon="6.0632450"><ele>198.8</ele></trkpt>
    <trkpt lat="49.0788070" lon="6.0617090"><ele>205.5</ele></trkpt>
    <trkpt lat="49.0789380" lon="6.0607460"><ele>209.5</ele></trkpt>
    <trkpt lat="49.0790960" lon="6.0599730"><ele>213.0</ele></trkpt>
    <trkpt lat="49.0791130" lon="6.0598180"><ele>213.8</ele></trkpt>
    <trkpt lat="49.0791090" lon="6.0596860"><ele>214.5</ele></trkpt>
    <trkpt lat="49.0790920" lon="6.0595660"><ele>214.8</ele></trkpt>
    <trkpt lat="49.0789710" lon="6.0590150"><ele>217.2</ele></trkpt>
    <trkpt lat="49.0788320" lon="6.0583220"><ele>219.8</ele></trkpt>
    <trkpt lat="49.0788120" lon="6.0580290"><ele>220.2</ele></trkpt>
    <trkpt lat="49.0788230" lon="6.0577560"><ele>220.2</ele></trkpt>
    <trkpt lat="49.0789330" lon="6.0565550"><ele>224.0</ele></trkpt>
    <trkpt lat="49.0789340" lon="6.0564340"><ele>224.8</ele></trkpt>
    <trkpt lat="49.0789210" lon="6.0563180"><ele>225.5</ele></trkpt>
    <trkpt lat="49.0788820" lon="6.0562320"><ele>226.5</ele></trkpt>
    <trkpt lat="49.0788120" lon="6.0561690"><ele>227.8</ele></trkpt>
    <trkpt lat="49.0786470" lon="6.0560470"><ele>230.5</ele></trkpt>
    <trkpt lat="49.0785400" lon="6.0559900"><ele>232.8</ele></trkpt>
    <trkpt lat="49.0781950" lon="6.0557570"><ele>243.5</ele></trkpt>
    <trkpt lat="49.0783310" lon="6.0554470"><ele>243.5</ele></trkpt>
    <trkpt lat="49.0784230" lon="6.0551460"><ele>244.2</ele></trkpt>
    <trkpt lat="49.0784930" lon="6.0548460"><ele>245.0</ele></trkpt>
    <trkpt lat="49.0785140" lon="6.0546630"><ele>245.8</ele></trkpt>
    <trkpt lat="49.0785210" lon="6.0544920"><ele>246.5</ele></trkpt>
    <trkpt lat="49.0785000" lon="6.0542660"><ele>247.8</ele></trkpt>
    <trkpt lat="49.0784580" lon="6.0539440"><ele>249.5</ele></trkpt>
    <trkpt lat="49.0784580" lon="6.0537300"><ele>250.0</ele></trkpt>
    <trkpt lat="49.0784370" lon="6.0535260"><ele>251.8</ele></trkpt>
    <trkpt lat="49.0784660" lon="6.0531680"><ele>252.5</ele></trkpt>
    <trkpt lat="49.0785690" lon="6.0526360"><ele>251.0</ele></trkpt>
    <trkpt lat="49.0786620" lon="6.0520650"><ele>251.0</ele></trkpt>
    <trkpt lat="49.0787660" lon="6.0513660"><ele>251.8</ele></trkpt>
    <trkpt lat="49.0787890" lon="6.0509850"><ele>253.8</ele></trkpt>
    <trkpt lat="49.0788250" lon="6.0506380"><ele>254.2</ele></trkpt>
    <trkpt lat="49.0788370" lon="6.0503140"><ele>257.5</ele></trkpt>
    <trkpt lat="49.0788610" lon="6.0499970"><ele>261.8</ele></trkpt>
    <trkpt lat="49.0789000" lon="6.0495990"><ele>267.0</ele></trkpt>
    <trkpt lat="49.0789640" lon="6.0493420"><ele>267.5</ele></trkpt>
    <trkpt lat="49.0793290" lon="6.0481720"><ele>266.8</ele></trkpt>
    <trkpt lat="49.0794490" lon="6.0478510"><ele>268.0</ele></trkpt>
    <trkpt lat="49.0795960" lon="6.0475070"><ele>266.2</ele></trkpt>
    <trkpt lat="49.0796270" lon="6.0472890"><ele>264.5</ele></trkpt>
    <trkpt lat="49.0795980" lon="6.0470960"><ele>263.8</ele></trkpt>
    <trkpt lat="49.0794980" lon="6.0468540"><ele>264.8</ele></trkpt>
    <trkpt lat="49.0793520" lon="6.0466040"><ele>266.5</ele></trkpt>
    <trkpt lat="49.0791350" lon="6.0463420"><ele>270.0</ele></trkpt>
    <trkpt lat="49.0790410" lon="6.0462520"><ele>271.0</ele></trkpt>
    <trkpt lat="49.0789360" lon="6.0461340"><ele>271.8</ele></trkpt>
    <trkpt lat="49.0788090" lon="6.0460480"><ele>271.8</ele></trkpt>
    <trkpt lat="49.0786970" lon="6.0460050"><ele>271.8</ele></trkpt>
    <trkpt lat="49.0783170" lon="6.0459190"><ele>274.0</ele></trkpt>
    <trkpt lat="49.0779940" lon="6.0457480"><ele>277.5</ele></trkpt>
    <trkpt lat="49.0777340" lon="6.0454580"><ele>278.2</ele></trkpt>
    <trkpt lat="49.0776420" lon="6.0452970"><ele>277.8</ele></trkpt>
    <trkpt lat="49.0775580" lon="6.0451150"><ele>278.0</ele></trkpt>
    <trkpt lat="49.0775370" lon="6.0450820"><ele>278.5</ele></trkpt>
    <trkpt lat="49.0774180" lon="6.0447820"><ele>278.5</ele></trkpt>
    <trkpt lat="49.0773550" lon="6.0446680"><ele>279.5</ele></trkpt>
    <trkpt lat="49.0772860" lon="6.0445440"><ele>281.0</ele></trkpt>
    <trkpt lat="49.0770170" lon="6.0439610"><ele>282.5</ele></trkpt>
    <trkpt lat="49.0767150" lon="6.0435910"><ele>285.5</ele></trkpt>
    <trkpt lat="49.0762720" lon="6.0430760"><ele>290.5</ele></trkpt>
    <trkpt lat="49.0763750" lon="6.0428480"><ele>288.8</ele></trkpt>
    <trkpt lat="49.0762540" lon="6.0427910"><ele>290.2</ele></trkpt>
    <trkpt lat="49.0758670" lon="6.0423840"><ele>294.0</ele></trkpt>
    <trkpt lat="49.0751920" lon="6.0414180"><ele>300.2</ele></trkpt>
    <trkpt lat="49.0733580" lon="6.0390360"><ele>303.8</ele></trkpt>
    <trkpt lat="49.0734930" lon="6.0385750"><ele>302.2</ele></trkpt>
    <trkpt lat="49.0720480" lon="6.0347040"><ele>298.5</ele></trkpt>
    <trkpt lat="49.0722470" lon="6.0345370"><ele>298.0</ele></trkpt>
    <trkpt lat="49.0721590" lon="6.0338040"><ele>296.5</ele></trkpt>
    <trkpt lat="49.0720610" lon="6.0337050"><ele>296.0</ele></trkpt>
    <trkpt lat="49.0719390" lon="6.0332290"><ele>294.8</ele></trkpt>
    <trkpt lat="49.0717720" lon="6.0328880"><ele>293.8</ele></trkpt>
    <trkpt lat="49.0716700" lon="6.0325870"><ele>292.2</ele></trkpt>
    <trkpt lat="49.0713510" lon="6.0317990"><ele>289.8</ele></trkpt>
    <trkpt lat="49.0710680" lon="6.0311430"><ele>287.8</ele></trkpt>
    <trkpt lat="49.0710000" lon="6.0307170"><ele>287.0</ele></trkpt>
    <trkpt lat="49.0708130" lon="6.0302300"><ele>285.8</ele></trkpt>
    <trkpt lat="49.0704700" lon="6.0297810"><ele>283.8</ele></trkpt>
    <trkpt lat="49.0693930" lon="6.0282870"><ele>275.8</ele></trkpt>
    <trkpt lat="49.0689830" lon="6.0278250"><ele>272.0</ele></trkpt>
    <trkpt lat="49.0687890" lon="6.0275730"><ele>270.5</ele></trkpt>
    <trkpt lat="49.0685540" lon="6.0271400"><ele>268.8</ele></trkpt>
    <trkpt lat="49.0684620" lon="6.0269130"><ele>268.2</ele></trkpt>
    <trkpt lat="49.0684150" lon="6.0267310"><ele>267.5</ele></trkpt>
    <trkpt lat="49.0682660" lon="6.0262690"><ele>266.2</ele></trkpt>
    <trkpt lat="49.0680420" lon="6.0257260"><ele>266.5</ele></trkpt>
    <trkpt lat="49.0678400" lon="6.0252860"><ele>265.5</ele></trkpt>
    <trkpt lat="49.0675070" lon="6.0246240"><ele>262.5</ele></trkpt>
    <trkpt lat="49.0672050" lon="6.0240640"><ele>262.8</ele></trkpt>
    <trkpt lat="49.0669670" lon="6.0235330"><ele>262.5</ele></trkpt>
    <trkpt lat="49.0666770" lon="6.0230640"><ele>262.8</ele></trkpt>
    <trkpt lat="49.0661280" lon="6.0222110"><ele>263.8</ele></trkpt>
    <trkpt lat="49.0658650" lon="6.0211070"><ele>263.8</ele></trkpt>
    <trkpt lat="49.0657010" lon="6.0196590"><ele>264.8</ele></trkpt>
    <trkpt lat="49.0656690" lon="6.0192500"><ele>264.2</ele></trkpt>
    <trkpt lat="49.0657060" lon="6.0180320"><ele>261.2</ele></trkpt>
    <trkpt lat="49.0654920" lon="6.0172540"><ele>261.8</ele></trkpt>
    <trkpt lat="49.0651030" lon="6.0165460"><ele>262.5</ele></trkpt>
    <trkpt lat="49.0647130" lon="6.0161070"><ele>264.0</ele></trkpt>
    <trkpt lat="49.0643050" lon="6.0157390"><ele>265.5</ele></trkpt>
    <trkpt lat="49.0638600" lon="6.0153000"><ele>266.2</ele></trkpt>
    <trkpt lat="49.0634790" lon="6.0147760"><ele>265.8</ele></trkpt>
    <trkpt lat="49.0629970" lon="6.0136580"><ele>261.5</ele></trkpt>
    <trkpt lat="49.0626170" lon="6.0129220"><ele>256.5</ele></trkpt>
    <trkpt lat="49.0622920" lon="6.0124830"><ele>252.2</ele></trkpt>
    <trkpt lat="49.0617260" lon="6.0123270"><ele>244.8</ele></trkpt>
    <trkpt lat="49.0614110" lon="6.0122280"><ele>237.5</ele></trkpt>
    <trkpt lat="49.0612440" lon="6.0119730"><ele>233.5</ele></trkpt>
    <trkpt lat="49.0609930" lon="6.0118170"><ele>226.8</ele></trkpt>
    <trkpt lat="49.0608720" lon="6.0117980"><ele>223.0</ele></trkpt>
    <trkpt lat="49.0605140" lon="6.0109250"><ele>208.5</ele></trkpt>
    <trkpt lat="49.0603980" lon="6.0108230"><ele>205.5</ele></trkpt>
    <trkpt lat="49.0603250" lon="6.0107780"><ele>203.8</ele></trkpt>
    <trkpt lat="49.0602780" lon="6.0107410"><ele>203.0</ele></trkpt>
    <trkpt lat="49.0599950" lon="6.0104670"><ele>202.2</ele></trkpt>
    <trkpt lat="49.0598160" lon="6.0103850"><ele>202.5</ele></trkpt>
    <trkpt lat="49.0596900" lon="6.0103690"><ele>202.5</ele></trkpt>
    <trkpt lat="49.0596060" lon="6.0103280"><ele>202.2</ele></trkpt>
    <trkpt lat="49.0593940" lon="6.0101090"><ele>204.0</ele></trkpt>
    <trkpt lat="49.0592430" lon="6.0099920"><ele>204.0</ele></trkpt>
    <trkpt lat="49.0591490" lon="6.0099340"><ele>204.5</ele></trkpt>
    <trkpt lat="49.0590460" lon="6.0098900"><ele>204.8</ele></trkpt>
    <trkpt lat="49.0583330" lon="6.0097880"><ele>204.0</ele></trkpt>
    <trkpt lat="49.0579720" lon="6.0097640"><ele>204.5</ele></trkpt>
    <trkpt lat="49.0576770" lon="6.0097260"><ele>204.8</ele></trkpt>
    <trkpt lat="49.0575170" lon="6.0096850"><ele>205.2</ele></trkpt>
    <trkpt lat="49.0570330" lon="6.0094890"><ele>209.8</ele></trkpt>
    <trkpt lat="49.0567680" lon="6.0094120"><ele>212.5</ele></trkpt>
    <trkpt lat="49.0565770" lon="6.0094000"><ele>214.2</ele></trkpt>
    <trkpt lat="49.0560900" lon="6.0094250"><ele>216.2</ele></trkpt>
    <trkpt lat="49.0558190" lon="6.0094210"><ele>216.0</ele></trkpt>
    <trkpt lat="49.0556340" lon="6.0093930"><ele>215.0</ele></trkpt>
    <trkpt lat="49.0552040" lon="6.0092960"><ele>214.2</ele></trkpt>
    <trkpt lat="49.0550210" lon="6.0092740"><ele>214.2</ele></trkpt>
    <trkpt lat="49.0545890" lon="6.0092550"><ele>214.8</ele></trkpt>
    <trkpt lat="49.0545100" lon="6.0092330"><ele>215.0</ele></trkpt>
    <trkpt lat="49.0544560" lon="6.0091930"><ele>215.5</ele></trkpt>
    <trkpt lat="49.0543550" lon="6.0090880"><ele>216.8</ele></trkpt>
    <trkpt lat="49.0542490" lon="6.0089480"><ele>218.0</ele></trkpt>
    <trkpt lat="49.0541630" lon="6.0088020"><ele>218.5</ele></trkpt>
    <trkpt lat="49.0540450" lon="6.0085540"><ele>219.5</ele></trkpt>
    <trkpt lat="49.0539880" lon="6.0083150"><ele>220.5</ele></trkpt>
    <trkpt lat="49.0539430" lon="6.0082520"><ele>220.0</ele></trkpt>
    <trkpt lat="49.0539000" lon="6.0082290"><ele>219.5</ele></trkpt>
    <trkpt lat="49.0538920" lon="6.0080360"><ele>220.0</ele></trkpt>
    <trkpt lat="49.0536560" lon="6.0067870"><ele>221.5</ele></trkpt>
    <trkpt lat="49.0536040" lon="6.0065020"><ele>220.2</ele></trkpt>
    <trkpt lat="49.0534990" lon="6.0065260"><ele>219.5</ele></trkpt>
    <trkpt lat="49.0530890" lon="6.0065690"><ele>215.2</ele></trkpt>
    <trkpt lat="49.0530350" lon="6.0065500"><ele>214.5</ele></trkpt>
    <trkpt lat="49.0528720" lon="6.0065660"><ele>210.8</ele></trkpt>
    <trkpt lat="49.0525230" lon="6.0066820"><ele>201.2</ele></trkpt>
    <trkpt lat="49.0524780" lon="6.0061990"><ele>202.2</ele></trkpt>
    <trkpt lat="49.0524440" lon="6.0061770"><ele>201.8</ele></trkpt>
    <trkpt lat="49.0524000" lon="6.0061720"><ele>201.0</ele></trkpt>
    <trkpt lat="49.0523490" lon="6.0061450"><ele>200.0</ele></trkpt>
    <trkpt lat="49.0523180" lon="6.0060730"><ele>199.8</ele></trkpt>
    <trkpt lat="49.0523020" lon="6.0059170"><ele>200.0</ele></trkpt>
    <trkpt lat="49.0522980" lon="6.0057700"><ele>200.5</ele></trkpt>
    <trkpt lat="49.0523050" lon="6.0055950"><ele>201.0</ele></trkpt>
    <trkpt lat="49.0523390" lon="6.0053220"><ele>202.5</ele></trkpt>
    <trkpt lat="49.0523510" lon="6.0051420"><ele>202.5</ele></trkpt>
    <trkpt lat="49.0523410" lon="6.0049760"><ele>202.0</ele></trkpt>
    <trkpt lat="49.0523250" lon="6.0048740"><ele>201.8</ele></trkpt>
    <trkpt lat="49.0522940" lon="6.0048020"><ele>201.2</ele></trkpt>
    <trkpt lat="49.0523190" lon="6.0047160"><ele>201.5</ele></trkpt>
    <trkpt lat="49.0523440" lon="6.0045850"><ele>202.0</ele></trkpt>
    <trkpt lat="49.0522160" lon="6.0045420"><ele>199.8</ele></trkpt>
    <trkpt lat="49.0522120" lon="6.0044560"><ele>199.8</ele></trkpt>
    <trkpt lat="49.0521820" lon="6.0042820"><ele>199.8</ele></trkpt>
    <trkpt lat="49.0521590" lon="6.0042310"><ele>199.8</ele></trkpt>
    <trkpt lat="49.0520680" lon="6.0041100"><ele>199.5</ele></trkpt>
    <trkpt lat="49.0520140" lon="6.0039820"><ele>199.2</ele></trkpt>
    <trkpt lat="49.0519990" lon="6.0039270"><ele>199.2</ele></trkpt>
    <trkpt lat="49.0519850" lon="6.0035870"><ele>200.2</ele></trkpt>
    <trkpt lat="49.0520320" lon="6.0031660"><ele>200.2</ele></trkpt>
    <trkpt lat="49.0520910" lon="6.0026200"><ele>201.0</ele></trkpt>
    <trkpt lat="49.0521100" lon="6.0023500"><ele>201.2</ele></trkpt>
    <trkpt lat="49.0521600" lon="6.0020010"><ele>201.8</ele></trkpt>
    <trkpt lat="49.0521850" lon="6.0018690"><ele>201.8</ele></trkpt>
    <trkpt lat="49.0522970" lon="6.0015040"><ele>202.0</ele></trkpt>
    <trkpt lat="49.0522250" lon="6.0014600"><ele>202.0</ele></trkpt>
    <trkpt lat="49.0521240" lon="6.0013790"><ele>202.0</ele></trkpt>
    <trkpt lat="49.0519370" lon="6.0011730"><ele>202.8</ele></trkpt>
    <trkpt lat="49.0518590" lon="6.0010920"><ele>203.2</ele></trkpt>
    <trkpt lat="49.0513740" lon="6.0005910"><ele>208.8</ele></trkpt>
    <trkpt lat="49.0514650" lon="6.0002950"><ele>209.5</ele></trkpt>
    <trkpt lat="49.0514770" lon="6.0002540"><ele>209.8</ele></trkpt>
    <trkpt lat="49.0516530" lon="5.9998500"><ele>210.0</ele></trkpt>
    <trkpt lat="49.0517430" lon="5.9996730"><ele>209.8</ele></trkpt>
    <trkpt lat="49.0522960" lon="5.9987280"><ele>211.0</ele></trkpt>
    <trkpt lat="49.0523020" lon="5.9987160"><ele>211.0</ele></trkpt>
    <trkpt lat="49.0520270" lon="5.9982700"><ele>215.5</ele></trkpt>
    <trkpt lat="49.0518300" lon="5.9985570"><ele>216.0</ele></trkpt>
    <trkpt lat="49.0515450" lon="5.9980230"><ele>223.8</ele></trkpt>
    <trkpt lat="49.0515090" lon="5.9980030"><ele>224.5</ele></trkpt>
    <trkpt lat="49.0515190" lon="5.9982140"><ele>223.2</ele></trkpt>
    <trkpt lat="49.0515080" lon="5.9984330"><ele>221.8</ele></trkpt>
    <trkpt lat="49.0514350" lon="5.9986660"><ele>220.8</ele></trkpt>
    <trkpt lat="49.0515080" lon="5.9984330"><ele>221.8</ele></trkpt>
    <trkpt lat="49.0515190" lon="5.9982140"><ele>223.2</ele></trkpt>
    <trkpt lat="49.0515090" lon="5.9980030"><ele>224.5</ele></trkpt>
    <trkpt lat="49.0515450" lon="5.9980230"><ele>223.8</ele></trkpt>
    <trkpt lat="49.0518300" lon="5.9985570"><ele>216.0</ele></trkpt>
    <trkpt lat="49.0520270" lon="5.9982700"><ele>215.5</ele></trkpt>
    <trkpt lat="49.0523020" lon="5.9987160"><ele>211.0</ele></trkpt>
    <trkpt lat="49.0523580" lon="5.9986200"><ele>210.8</ele></trkpt>
    <trkpt lat="49.0524500" lon="5.9984610"><ele>210.8</ele></trkpt>
    <trkpt lat="49.0526400" lon="5.9981780"><ele>211.2</ele></trkpt>
    <trkpt lat="49.0527350" lon="5.9980340"><ele>211.5</ele></trkpt>
    <trkpt lat="49.0528100" lon="5.9979410"><ele>212.0</ele></trkpt>
    <trkpt lat="49.0528930" lon="5.9978460"><ele>212.0</ele></trkpt>
    <trkpt lat="49.0533410" lon="5.9974020"><ele>213.5</ele></trkpt>
    <trkpt lat="49.0534980" lon="5.9972920"><ele>213.2</ele></trkpt>
    <trkpt lat="49.0537020" lon="5.9971570"><ele>213.5</ele></trkpt>
    <trkpt lat="49.0538180" lon="5.9971490"><ele>214.0</ele></trkpt>
    <trkpt lat="49.0540820" lon="5.9972430"><ele>212.5</ele></trkpt>
    <trkpt lat="49.0540860" lon="5.9970350"><ele>213.5</ele></trkpt>
    <trkpt lat="49.0541180" lon="5.9970370"><ele>213.5</ele></trkpt>
    <trkpt lat="49.0549410" lon="5.9969990"><ele>213.8</ele></trkpt>
    <trkpt lat="49.0552030" lon="5.9970020"><ele>213.8</ele></trkpt>
    <trkpt lat="49.0553890" lon="5.9970270"><ele>212.8</ele></trkpt>
    <trkpt lat="49.0554380" lon="5.9970590"><ele>210.0</ele></trkpt>
    <trkpt lat="49.0553890" lon="5.9970270"><ele>212.8</ele></trkpt>
    <trkpt lat="49.0552030" lon="5.9970020"><ele>213.8</ele></trkpt>
    <trkpt lat="49.0549410" lon="5.9969990"><ele>213.8</ele></trkpt>
    <trkpt lat="49.0541180" lon="5.9970370"><ele>213.5</ele></trkpt>
    <trkpt lat="49.0540860" lon="5.9970350"><ele>213.5</ele></trkpt>
    <trkpt lat="49.0540820" lon="5.9972430"><ele>212.5</ele></trkpt>
    <trkpt lat="49.0538180" lon="5.9971490"><ele>214.0</ele></trkpt>
    <trkpt lat="49.0537020" lon="5.9971570"><ele>213.5</ele></trkpt>
    <trkpt lat="49.0534980" lon="5.9972920"><ele>213.2</ele></trkpt>
    <trkpt lat="49.0536330" lon="5.9979540"><ele>208.8</ele></trkpt>
    <trkpt lat="49.0538050" lon="5.9989810"><ele>204.2</ele></trkpt>
    <trkpt lat="49.0538160" lon="5.9990510"><ele>204.8</ele></trkpt>
    <trkpt lat="49.0537990" lon="5.9990740"><ele>204.8</ele></trkpt>
    <trkpt lat="49.0542900" lon="5.9999790"><ele>220.2</ele></trkpt>
    <trkpt lat="49.0541690" lon="6.0002740"><ele>222.0</ele></trkpt>
    <trkpt lat="49.0540510" lon="6.0005230"><ele>222.5</ele></trkpt>
    <trkpt lat="49.0539240" lon="6.0007710"><ele>222.0</ele></trkpt>
    <trkpt lat="49.0538790" lon="6.0008820"><ele>222.2</ele></trkpt>
    <trkpt lat="49.0537700" lon="6.0012130"><ele>224.0</ele></trkpt>
    <trkpt lat="49.0537010" lon="6.0015830"><ele>225.5</ele></trkpt>
    <trkpt lat="49.0536030" lon="6.0019720"><ele>224.8</ele></trkpt>
    <trkpt lat="49.0535620" lon="6.0021730"><ele>224.5</ele></trkpt>
    <trkpt lat="49.0535010" lon="6.0023370"><ele>222.8</ele></trkpt>
    <trkpt lat="49.0534540" lon="6.0024890"><ele>221.5</ele></trkpt>
    <trkpt lat="49.0534600" lon="6.0026410"><ele>221.5</ele></trkpt>
    <trkpt lat="49.0535390" lon="6.0031770"><ele>221.0</ele></trkpt>
    <trkpt lat="49.0535420" lon="6.0032850"><ele>220.5</ele></trkpt>
    <trkpt lat="49.0535800" lon="6.0037130"><ele>221.2</ele></trkpt>
    <trkpt lat="49.0535750" lon="6.0038390"><ele>221.0</ele></trkpt>
    <trkpt lat="49.0535450" lon="6.0039670"><ele>220.5</ele></trkpt>
    <trkpt lat="49.0535270" lon="6.0039880"><ele>220.2</ele></trkpt>
    <trkpt lat="49.0535020" lon="6.0039880"><ele>219.8</ele></trkpt>
    <trkpt lat="49.0534610" lon="6.0044350"><ele>219.2</ele></trkpt>
    <trkpt lat="49.0534640" lon="6.0045250"><ele>219.2</ele></trkpt>
    <trkpt lat="49.0534750" lon="6.0046170"><ele>219.5</ele></trkpt>
    <trkpt lat="49.0536180" lon="6.0054460"><ele>221.5</ele></trkpt>
    <trkpt lat="49.0536770" lon="6.0057800"><ele>222.0</ele></trkpt>
    <trkpt lat="49.0538020" lon="6.0063240"><ele>224.8</ele></trkpt>
    <trkpt lat="49.0538310" lon="6.0065510"><ele>225.0</ele></trkpt>
    <trkpt lat="49.0538870" lon="6.0068900"><ele>225.0</ele></trkpt>
    <trkpt lat="49.0538070" lon="6.0068480"><ele>224.0</ele></trkpt>
    <trkpt lat="49.0537840" lon="6.0068470"><ele>223.5</ele></trkpt>
    <trkpt lat="49.0537550" lon="6.0068700"><ele>223.0</ele></trkpt>
    <trkpt lat="49.0537340" lon="6.0068260"><ele>222.8</ele></trkpt>
    <trkpt lat="49.0537010" lon="6.0067870"><ele>222.2</ele></trkpt>
    <trkpt lat="49.0536560" lon="6.0067870"><ele>221.5</ele></trkpt>
    <trkpt lat="49.0538920" lon="6.0080360"><ele>220.0</ele></trkpt>
    <trkpt lat="49.0539000" lon="6.0082290"><ele>219.5</ele></trkpt>
    <trkpt lat="49.0539430" lon="6.0082520"><ele>220.0</ele></trkpt>
    <trkpt lat="49.0539880" lon="6.0083150"><ele>220.5</ele></trkpt>
    <trkpt lat="49.0540450" lon="6.0085540"><ele>219.5</ele></trkpt>
    <trkpt lat="49.0541630" lon="6.0088020"><ele>218.5</ele></trkpt>
    <trkpt lat="49.0542490" lon="6.0089480"><ele>218.0</ele></trkpt>
    <trkpt lat="49.0543550" lon="6.0090880"><ele>216.8</ele></trkpt>
    <trkpt lat="49.0544560" lon="6.0091930"><ele>215.5</ele></trkpt>
    <trkpt lat="49.0545100" lon="6.0092330"><ele>215.0</ele></trkpt>
    <trkpt lat="49.0545890" lon="6.0092550"><ele>214.8</ele></trkpt>
    <trkpt lat="49.0550210" lon="6.0092740"><ele>214.2</ele></trkpt>
    <trkpt lat="49.0552040" lon="6.0092960"><ele>214.2</ele></trkpt>
    <trkpt lat="49.0556340" lon="6.0093930"><ele>215.0</ele></trkpt>
    <trkpt lat="49.0558190" lon="6.0094210"><ele>216.0</ele></trkpt>
    <trkpt lat="49.0560900" lon="6.0094250"><ele>216.2</ele></trkpt>
    <trkpt lat="49.0565770" lon="6.0094000"><ele>214.2</ele></trkpt>
    <trkpt lat="49.0567680" lon="6.0094120"><ele>212.5</ele></trkpt>
    <trkpt lat="49.0570330" lon="6.0094890"><ele>209.8</ele></trkpt>
    <trkpt lat="49.0575170" lon="6.0096850"><ele>205.2</ele></trkpt>
    <trkpt lat="49.0576770" lon="6.0097260"><ele>204.8</ele></trkpt>
    <trkpt lat="49.0579720" lon="6.0097640"><ele>204.5</ele></trkpt>
    <trkpt lat="49.0583330" lon="6.0097880"><ele>204.0</ele></trkpt>
    <trkpt lat="49.0590460" lon="6.0098900"><ele>204.8</ele></trkpt>
    <trkpt lat="49.0591490" lon="6.0099340"><ele>204.5</ele></trkpt>
    <trkpt lat="49.0592430" lon="6.0099920"><ele>204.0</ele></trkpt>
    <trkpt lat="49.0593940" lon="6.0101090"><ele>204.0</ele></trkpt>
    <trkpt lat="49.0596060" lon="6.0103280"><ele>202.2</ele></trkpt>
    <trkpt lat="49.0596900" lon="6.0103690"><ele>202.5</ele></trkpt>
    <trkpt lat="49.0598160" lon="6.0103850"><ele>202.5</ele></trkpt>
    <trkpt lat="49.0599950" lon="6.0104670"><ele>202.2</ele></trkpt>
    <trkpt lat="49.0602780" lon="6.0107410"><ele>203.0</ele></trkpt>
    <trkpt lat="49.0603250" lon="6.0107780"><ele>203.8</ele></trkpt>
    <trkpt lat="49.0603980" lon="6.0108230"><ele>205.5</ele></trkpt>
    <trkpt lat="49.0605140" lon="6.0109250"><ele>208.5</ele></trkpt>
    <trkpt lat="49.0608720" lon="6.0117980"><ele>223.0</ele></trkpt>
    <trkpt lat="49.0609930" lon="6.0118170"><ele>226.8</ele></trkpt>
    <trkpt lat="49.0612440" lon="6.0119730"><ele>233.5</ele></trkpt>
    <trkpt lat="49.0614110" lon="6.0122280"><ele>237.5</ele></trkpt>
    <trkpt lat="49.0617260" lon="6.0123270"><ele>244.8</ele></trkpt>
    <trkpt lat="49.0622920" lon="6.0124830"><ele>252.2</ele></trkpt>
    <trkpt lat="49.0626170" lon="6.0129220"><ele>256.5</ele></trkpt>
    <trkpt lat="49.0629970" lon="6.0136580"><ele>261.5</ele></trkpt>
    <trkpt lat="49.0634790" lon="6.0147760"><ele>265.8</ele></trkpt>
    <trkpt lat="49.0638600" lon="6.0153000"><ele>266.2</ele></trkpt>
    <trkpt lat="49.0643050" lon="6.0157390"><ele>265.5</ele></trkpt>
    <trkpt lat="49.0647130" lon="6.0161070"><ele>264.0</ele></trkpt>
    <trkpt lat="49.0651030" lon="6.0165460"><ele>262.5</ele></trkpt>
    <trkpt lat="49.0654920" lon="6.0172540"><ele>261.8</ele></trkpt>
    <trkpt lat="49.0657060" lon="6.0180320"><ele>261.2</ele></trkpt>
    <trkpt lat="49.0656690" lon="6.0192500"><ele>264.2</ele></trkpt>
    <trkpt lat="49.0657010" lon="6.0196590"><ele>264.8</ele></trkpt>
    <trkpt lat="49.0658650" lon="6.0211070"><ele>263.8</ele></trkpt>
    <trkpt lat="49.0661280" lon="6.0222110"><ele>263.8</ele></trkpt>
    <trkpt lat="49.0666770" lon="6.0230640"><ele>262.8</ele></trkpt>
    <trkpt lat="49.0669670" lon="6.0235330"><ele>262.5</ele></trkpt>
    <trkpt lat="49.0672050" lon="6.0240640"><ele>262.8</ele></trkpt>
    <trkpt lat="49.0675070" lon="6.0246240"><ele>262.5</ele></trkpt>
    <trkpt lat="49.0678400" lon="6.0252860"><ele>265.5</ele></trkpt>
    <trkpt lat="49.0680420" lon="6.0257260"><ele>266.5</ele></trkpt>
    <trkpt lat="49.0682660" lon="6.0262690"><ele>266.2</ele></trkpt>
    <trkpt lat="49.0684150" lon="6.0267310"><ele>267.5</ele></trkpt>
    <trkpt lat="49.0684620" lon="6.0269130"><ele>268.2</ele></trkpt>
    <trkpt lat="49.0685540" lon="6.0271400"><ele>268.8</ele></trkpt>
    <trkpt lat="49.0687890" lon="6.0275730"><ele>270.5</ele></trkpt>
    <trkpt lat="49.0689830" lon="6.0278250"><ele>272.0</ele></trkpt>
    <trkpt lat="49.0693930" lon="6.0282870"><ele>275.8</ele></trkpt>
    <trkpt lat="49.0704700" lon="6.0297810"><ele>283.8</ele></trkpt>
    <trkpt lat="49.0708130" lon="6.0302300"><ele>285.8</ele></trkpt>
    <trkpt lat="49.0710000" lon="6.0307170"><ele>287.0</ele></trkpt>
    <trkpt lat="49.0710680" lon="6.0311430"><ele>287.8</ele></trkpt>
    <trkpt lat="49.0713510" lon="6.0317990"><ele>289.8</ele></trkpt>
    <trkpt lat="49.0716700" lon="6.0325870"><ele>292.2</ele></trkpt>
    <trkpt lat="49.0717720" lon="6.0328880"><ele>293.8</ele></trkpt>
    <trkpt lat="49.0719390" lon="6.0332290"><ele>294.8</ele></trkpt>
    <trkpt lat="49.0720610" lon="6.0337050"><ele>296.0</ele></trkpt>
    <trkpt lat="49.0721590" lon="6.0338040"><ele>296.5</ele></trkpt>
    <trkpt lat="49.0722470" lon="6.0345370"><ele>298.0</ele></trkpt>
    <trkpt lat="49.0720480" lon="6.0347040"><ele>298.5</ele></trkpt>
    <trkpt lat="49.0734930" lon="6.0385750"><ele>302.2</ele></trkpt>
    <trkpt lat="49.0733580" lon="6.0390360"><ele>303.8</ele></trkpt>
    <trkpt lat="49.0751920" lon="6.0414180"><ele>300.2</ele></trkpt>
    <trkpt lat="49.0758670" lon="6.0423840"><ele>294.0</ele></trkpt>
    <trkpt lat="49.0762540" lon="6.0427910"><ele>290.2</ele></trkpt>
    <trkpt lat="49.0763750" lon="6.0428480"><ele>288.8</ele></trkpt>
    <trkpt lat="49.0762720" lon="6.0430760"><ele>290.5</ele></trkpt>
    <trkpt lat="49.0767150" lon="6.0435910"><ele>285.5</ele></trkpt>
    <trkpt lat="49.0770170" lon="6.0439610"><ele>282.5</ele></trkpt>
    <trkpt lat="49.0772860" lon="6.0445440"><ele>281.0</ele></trkpt>
    <trkpt lat="49.0773550" lon="6.0446680"><ele>279.5</ele></trkpt>
    <trkpt lat="49.0774180" lon="6.0447820"><ele>278.5</ele></trkpt>
    <trkpt lat="49.0775370" lon="6.0450820"><ele>278.5</ele></trkpt>
    <trkpt lat="49.0775580" lon="6.0451150"><ele>278.0</ele></trkpt>
    <trkpt lat="49.0776420" lon="6.0452970"><ele>277.8</ele></trkpt>
    <trkpt lat="49.0777340" lon="6.0454580"><ele>278.2</ele></trkpt>
    <trkpt lat="49.0779940" lon="6.0457480"><ele>277.5</ele></trkpt>
    <trkpt lat="49.0783170" lon="6.0459190"><ele>274.0</ele></trkpt>
    <trkpt lat="49.0786970" lon="6.0460050"><ele>271.8</ele></trkpt>
    <trkpt lat="49.0788090" lon="6.0460480"><ele>271.8</ele></trkpt>
    <trkpt lat="49.0789360" lon="6.0461340"><ele>271.8</ele></trkpt>
    <trkpt lat="49.0790410" lon="6.0462520"><ele>271.0</ele></trkpt>
    <trkpt lat="49.0791350" lon="6.0463420"><ele>270.0</ele></trkpt>
    <trkpt lat="49.0793520" lon="6.0466040"><ele>266.5</ele></trkpt>
    <trkpt lat="49.0794980" lon="6.0468540"><ele>264.8</ele></trkpt>
    <trkpt lat="49.0795980" lon="6.0470960"><ele>263.8</ele></trkpt>
    <trkpt lat="49.0796270" lon="6.0472890"><ele>264.5</ele></trkpt>
    <trkpt lat="49.0795960" lon="6.0475070"><ele>266.2</ele></trkpt>
    <trkpt lat="49.0794490" lon="6.0478510"><ele>268.0</ele></trkpt>
    <trkpt lat="49.0793290" lon="6.0481720"><ele>266.8</ele></trkpt>
    <trkpt lat="49.0789640" lon="6.0493420"><ele>267.5</ele></trkpt>
    <trkpt lat="49.0789000" lon="6.0495990"><ele>267.0</ele></trkpt>
    <trkpt lat="49.0788610" lon="6.0499970"><ele>261.8</ele></trkpt>
    <trkpt lat="49.0788370" lon="6.0503140"><ele>257.5</ele></trkpt>
    <trkpt lat="49.0788250" lon="6.0506380"><ele>254.2</ele></trkpt>
    <trkpt lat="49.0787890" lon="6.0509850"><ele>253.8</ele></trkpt>
    <trkpt lat="49.0787660" lon="6.0513660"><ele>251.8</ele></trkpt>
    <trkpt lat="49.0786620" lon="6.0520650"><ele>251.0</ele></trkpt>
    <trkpt lat="49.0785690" lon="6.0526360"><ele>251.0</ele></trkpt>
    <trkpt lat="49.0784660" lon="6.0531680"><ele>252.5</ele></trkpt>
    <trkpt lat="49.0784370" lon="6.0535260"><ele>251.8</ele></trkpt>
    <trkpt lat="49.0784580" lon="6.0537300"><ele>250.0</ele></trkpt>
    <trkpt lat="49.0784580" lon="6.0539440"><ele>249.5</ele></trkpt>
    <trkpt lat="49.0785000" lon="6.0542660"><ele>247.8</ele></trkpt>
    <trkpt lat="49.0785210" lon="6.0544920"><ele>246.5</ele></trkpt>
    <trkpt lat="49.0785140" lon="6.0546630"><ele>245.8</ele></trkpt>
    <trkpt lat="49.0784930" lon="6.0548460"><ele>245.0</ele></trkpt>
    <trkpt lat="49.0784230" lon="6.0551460"><ele>244.2</ele></trkpt>
    <trkpt lat="49.0783310" lon="6.0554470"><ele>243.5</ele></trkpt>
    <trkpt lat="49.0781950" lon="6.0557570"><ele>243.5</ele></trkpt>
    <trkpt lat="49.0785400" lon="6.0559900"><ele>232.8</ele></trkpt>
    <trkpt lat="49.0786470" lon="6.0560470"><ele>230.5</ele></trkpt>
    <trkpt lat="49.0788120" lon="6.0561690"><ele>227.8</ele></trkpt>
    <trkpt lat="49.0788820" lon="6.0562320"><ele>226.5</ele></trkpt>
    <trkpt lat="49.0789210" lon="6.0563180"><ele>225.5</ele></trkpt>
    <trkpt lat="49.0789340" lon="6.0564340"><ele>224.8</ele></trkpt>
    <trkpt lat="49.0789330" lon="6.0565550"><ele>224.0</ele></trkpt>
    <trkpt lat="49.0788230" lon="6.0577560"><ele>220.2</ele></trkpt>
    <trkpt lat="49.0788120" lon="6.0580290"><ele>220.2</ele></trkpt>
    <trkpt lat="49.0788320" lon="6.0583220"><ele>219.8</ele></trkpt>
    <trkpt lat="49.0789710" lon="6.0590150"><ele>217.2</ele></trkpt>
    <trkpt lat="49.0790920" lon="6.0595660"><ele>214.8</ele></trkpt>
    <trkpt lat="49.0791090" lon="6.0596860"><ele>214.5</ele></trkpt>
    <trkpt lat="49.0791130" lon="6.0598180"><ele>213.8</ele></trkpt>
    <trkpt lat="49.0790960" lon="6.0599730"><ele>213.0</ele></trkpt>
    <trkpt lat="49.0789380" lon="6.0607460"><ele>209.5</ele></trkpt>
    <trkpt lat="49.0788070" lon="6.0617090"><ele>205.5</ele></trkpt>
    <trkpt lat="49.0787060" lon="6.0632450"><ele>198.8</ele></trkpt>
    <trkpt lat="49.0786860" lon="6.0636030"><ele>197.8</ele></trkpt>
    <trkpt lat="49.0786600" lon="6.0638480"><ele>196.5</ele></trkpt>
    <trkpt lat="49.0785970" lon="6.0640660"><ele>197.0</ele></trkpt>
    <trkpt lat="49.0785490" lon="6.0640660"><ele>197.8</ele></trkpt>
    <trkpt lat="49.0784940" lon="6.0641100"><ele>198.5</ele></trkpt>
    <trkpt lat="49.0784480" lon="6.0641700"><ele>199.2</ele></trkpt>
    <trkpt lat="49.0781210" lon="6.0648040"><ele>204.8</ele></trkpt>
    <trkpt lat="49.0780730" lon="6.0649160"><ele>206.2</ele></trkpt>
    <trkpt lat="49.0780430" lon="6.0650420"><ele>207.0</ele></trkpt>
    <trkpt lat="49.0780340" lon="6.0651760"><ele>207.2</ele></trkpt>
    <trkpt lat="49.0780470" lon="6.0653090"><ele>207.0</ele></trkpt>
    <trkpt lat="49.0780800" lon="6.0654330"><ele>207.5</ele></trkpt>
    <trkpt lat="49.0781310" lon="6.0655420"><ele>207.8</ele></trkpt>
    <trkpt lat="49.0781980" lon="6.0656290"><ele>208.0</ele></trkpt>
    <trkpt lat="49.0782920" lon="6.0657620"><ele>208.0</ele></trkpt>
    <trkpt lat="49.0783130" lon="6.0658020"><ele>208.0</ele></trkpt>
    <trkpt lat="49.0783730" lon="6.0659150"><ele>207.8</ele></trkpt>
    <trkpt lat="49.0784390" lon="6.0660830"><ele>207.5</ele></trkpt>
    <trkpt lat="49.0784960" lon="6.0663050"><ele>206.5</ele></trkpt>
    <trkpt lat="49.0785220" lon="6.0664520"><ele>206.0</ele></trkpt>
    <trkpt lat="49.0785370" lon="6.0666460"><ele>204.8</ele></trkpt>
    <trkpt lat="49.0785350" lon="6.0668420"><ele>204.0</ele></trkpt>
    <trkpt lat="49.0785150" lon="6.0670350"><ele>203.2</ele></trkpt>
    <trkpt lat="49.0783540" lon="6.0679430"><ele>202.8</ele></trkpt>
    <trkpt lat="49.0783320" lon="6.0680060"><ele>203.0</ele></trkpt>
    <trkpt lat="49.0782730" lon="6.0680570"><ele>203.2</ele></trkpt>
    <trkpt lat="49.0781760" lon="6.0681040"><ele>203.8</ele></trkpt>
    <trkpt lat="49.0780360" lon="6.0681300"><ele>204.2</ele></trkpt>
    <trkpt lat="49.0779960" lon="6.0681520"><ele>204.2</ele></trkpt>
    <trkpt lat="49.0779620" lon="6.0681870"><ele>204.0</ele></trkpt>
    <trkpt lat="49.0779400" lon="6.0682420"><ele>203.8</ele></trkpt>
    <trkpt lat="49.0778030" lon="6.0686900"><ele>201.2</ele></trkpt>
    <trkpt lat="49.0776750" lon="6.0690770"><ele>199.5</ele></trkpt>
    <trkpt lat="49.0778190" lon="6.0692830"><ele>197.5</ele></trkpt>
    <trkpt lat="49.0780190" lon="6.0695770"><ele>194.8</ele></trkpt>
    <trkpt lat="49.0780490" lon="6.0696500"><ele>193.8</ele></trkpt>
    <trkpt lat="49.0780630" lon="6.0697100"><ele>193.0</ele></trkpt>
    <trkpt lat="49.0780620" lon="6.0697850"><ele>192.8</ele></trkpt>
    <trkpt lat="49.0780360" lon="6.0699530"><ele>192.2</ele></trkpt>
    <trkpt lat="49.0780410" lon="6.0701350"><ele>191.0</ele></trkpt>
    <trkpt lat="49.0780900" lon="6.0705470"><ele>186.8</ele></trkpt>
    <trkpt lat="49.0781180" lon="6.0706420"><ele>186.2</ele></trkpt>
    <trkpt lat="49.0781460" lon="6.0707180"><ele>186.0</ele></trkpt>
    <trkpt lat="49.0780480" lon="6.0708110"><ele>186.0</ele></trkpt>
    <trkpt lat="49.0779710" lon="6.0708850"><ele>185.8</ele></trkpt>
    <trkpt lat="49.0779890" lon="6.0709360"><ele>185.5</ele></trkpt>
    <trkpt lat="49.0780790" lon="6.0712020"><ele>183.5</ele></trkpt>
    <trkpt lat="49.0782740" lon="6.0715710"><ele>181.2</ele></trkpt>
    <trkpt lat="49.0784670" lon="6.0718950"><ele>179.5</ele></trkpt>
    <trkpt lat="49.0783760" lon="6.0719910"><ele>179.5</ele></trkpt>
    <trkpt lat="49.0780650" lon="6.0723670"><ele>179.0</ele></trkpt>
    <trkpt lat="49.0779770" lon="6.0724680"><ele>179.0</ele></trkpt>
    <trkpt lat="49.0778640" lon="6.0725990"><ele>178.8</ele></trkpt>
    <trkpt lat="49.0776870" lon="6.0728370"><ele>178.2</ele></trkpt>
    <trkpt lat="49.0776320" lon="6.0729420"><ele>178.0</ele></trkpt>
    <trkpt lat="49.0775180" lon="6.0731630"><ele>177.5</ele></trkpt>
    <trkpt lat="49.0773750" lon="6.0734640"><ele>177.0</ele></trkpt>
    <trkpt lat="49.0773640" lon="6.0734860"><ele>177.0</ele></trkpt>
    <trkpt lat="49.0772130" lon="6.0737500"><ele>177.0</ele></trkpt>
    <trkpt lat="49.0769370" lon="6.0742020"><ele>176.8</ele></trkpt>
    <trkpt lat="49.0768000" lon="6.0744320"><ele>176.0</ele></trkpt>
    <trkpt lat="49.0767400" lon="6.0745260"><ele>176.0</ele></trkpt>
    <trkpt lat="49.0765750" lon="6.0747890"><ele>176.0</ele></trkpt>
    <trkpt lat="49.0764240" lon="6.0750410"><ele>175.8</ele></trkpt>
    <trkpt lat="49.0763540" lon="6.0751540"><ele>175.5</ele></trkpt>
    <trkpt lat="49.0763110" lon="6.0752300"><ele>175.2</ele></trkpt>
    <trkpt lat="49.0765960" lon="6.0756660"><ele>174.0</ele></trkpt>
    <trkpt lat="49.0768830" lon="6.0761810"><ele>173.0</ele></trkpt>
    <trkpt lat="49.0768840" lon="6.0761790"><ele>173.0</ele></trkpt>
  </trkseg></trk>
</gpx>