<?xml version="1.0" encoding="UTF-8"?>
<gpx version="1.1" creator="olifant"
     xmlns="http://www.topografix.com/GPX/1/1"
     xmlns:xsi="http://www.w3.org/2001/XMLSchema-instance"
     xsi:schemaLocation="http://www.topografix.com/GPX/1/1 http://www.topografix.com/GPX/1/1/gpx.xsd">
  <metadata><name>Le tour du Mont Saint-Quentin</name><desc>10.0 km. D+ 273 m. 53 % de chemins. Depart : Parking de l'eglise fortifiee, Scy-Chazelles (15 min de Metz). Le sommet et son fort en ruine, puis Plappeville et son fort, et le retour en balcon par Lessy.</desc></metadata>
  <wpt lat="49.1110920" lon="6.1113370"><name>Eglise fortifiee Saint-Quentin, Scy-Chazelles</name><desc>Eglise fortifiee du XIIe siecle, tombe de Robert Schuman a l'interieur, sa maison a 200 m. C'est ici que commence la montee.</desc></wpt>
  <wpt lat="49.1212250" lon="6.1273020"><name>Mont Saint-Quentin, sommet</name><desc>358 m, ancien complexe fortifie en partie ruine, bois et prairies, panorama sur toute la vallee. Les batiments sont interdits d'acces.</desc></wpt>
  <wpt lat="49.1310140" lon="6.1250130"><name>Plappeville</name><desc>Village vigneron du versant nord, ruelles et maisons de maitre.</desc></wpt>
  <wpt lat="49.1336400" lon="6.1162800"><name>Fort de Plappeville</name></wpt>
  <wpt lat="49.1201680" lon="6.0955820"><name>Lessy</name><desc>Village blotti dans le cirque, au pied du versant sud du Saint-Quentin.</desc></wpt>
  <trk><name>Le tour du Mont Saint-Quentin</name><trkseg>
    <trkpt lat="49.1109820" lon="6.1112620"><ele>221.5</ele></trkpt>
    <trkpt lat="49.1110070" lon="6.1111790"><ele>221.5</ele></trkpt>
    <trkpt lat="49.1110450" lon="6.1111040"><ele>221.0</ele></trkpt>
    <trkpt lat="49.1110610" lon="6.1110680"><ele>221.0</ele></trkpt>
    <trkpt lat="49.1111950" lon="6.1111720"><ele>222.0</ele></trkpt>
    <trkpt lat="49.1112820" lon="6.1112380"><ele>222.8</ele></trkpt>
    <trkpt lat="49.1113550" lon="6.1113060"><ele>223.0</ele></trkpt>
    <trkpt lat="49.1118660" lon="6.1118550"><ele>226.0</ele></trkpt>
    <trkpt lat="49.1120540" lon="6.1120030"><ele>226.8</ele></trkpt>
    <trkpt lat="49.1123840" lon="6.1121860"><ele>229.0</ele></trkpt>
    <trkpt lat="49.1127410" lon="6.1123830"><ele>232.8</ele></trkpt>
    <trkpt lat="49.1131840" lon="6.1126190"><ele>237.8</ele></trkpt>
    <trkpt lat="49.1132920" lon="6.1126620"><ele>238.2</ele></trkpt>
    <trkpt lat="49.1133980" lon="6.1126820"><ele>238.8</ele></trkpt>
    <trkpt lat="49.1134530" lon="6.1126890"><ele>239.2</ele></trkpt>
    <trkpt lat="49.1136460" lon="6.1127330"><ele>241.2</ele></trkpt>
    <trkpt lat="49.1136680" lon="6.1127860"><ele>241.5</ele></trkpt>
    <trkpt lat="49.1136920" lon="6.1129290"><ele>242.8</ele></trkpt>
    <trkpt lat="49.1137690" lon="6.1130350"><ele>244.5</ele></trkpt>
    <trkpt lat="49.1140580" lon="6.1136310"><ele>249.2</ele></trkpt>
    <trkpt lat="49.1141030" lon="6.1136970"><ele>249.8</ele></trkpt>
    <trkpt lat="49.1141570" lon="6.1135680"><ele>250.0</ele></trkpt>
    <trkpt lat="49.1141940" lon="6.1135840"><ele>250.2</ele></trkpt>
    <trkpt lat="49.1145180" lon="6.1137220"><ele>253.5</ele></trkpt>
    <trkpt lat="49.1145810" lon="6.1137840"><ele>253.8</ele></trkpt>
    <trkpt lat="49.1146430" lon="6.1137650"><ele>253.8</ele></trkpt>
    <trkpt lat="49.1147410" lon="6.1137650"><ele>254.0</ele></trkpt>
    <trkpt lat="49.1148960" lon="6.1137330"><ele>254.5</ele></trkpt>
    <trkpt lat="49.1149230" lon="6.1139460"><ele>254.5</ele></trkpt>
    <trkpt lat="49.1152200" lon="6.1138430"><ele>254.0</ele></trkpt>
    <trkpt lat="49.1152610" lon="6.1138490"><ele>253.8</ele></trkpt>
    <trkpt lat="49.1153390" lon="6.1138920"><ele>254.8</ele></trkpt>
    <trkpt lat="49.1153060" lon="6.1140470"><ele>255.2</ele></trkpt>
    <trkpt lat="49.1152370" lon="6.1141470"><ele>255.5</ele></trkpt>
    <trkpt lat="49.1159920" lon="6.1145090"><ele>262.2</ele></trkpt>
    <trkpt lat="49.1160560" lon="6.1145740"><ele>263.0</ele></trkpt>
    <trkpt lat="49.1161220" lon="6.1146190"><ele>263.5</ele></trkpt>
    <trkpt lat="49.1161960" lon="6.1146350"><ele>264.5</ele></trkpt>
    <trkpt lat="49.1163720" lon="6.1146380"><ele>266.5</ele></trkpt>
    <trkpt lat="49.1163250" lon="6.1148220"><ele>266.5</ele></trkpt>
    <trkpt lat="49.1160110" lon="6.1155640"><ele>264.8</ele></trkpt>
    <trkpt lat="49.1158160" lon="6.1162900"><ele>264.2</ele></trkpt>
    <trkpt lat="49.1158570" lon="6.1163590"><ele>265.0</ele></trkpt>
    <trkpt lat="49.1159680" lon="6.1163560"><ele>266.2</ele></trkpt>
    <trkpt lat="49.1159910" lon="6.1167020"><ele>267.2</ele></trkpt>
    <trkpt lat="49.1160490" lon="6.1169370"><ele>268.0</ele></trkpt>
    <trkpt lat="49.1161480" lon="6.1171660"><ele>268.5</ele></trkpt>
    <trkpt lat="49.1161890" lon="6.1171960"><ele>269.0</ele></trkpt>
    <trkpt lat="49.1167110" lon="6.1172770"><ele>277.5</ele></trkpt>
    <trkpt lat="49.1170220" lon="6.1173940"><ele>282.2</ele></trkpt>
    <trkpt lat="49.1173360" lon="6.1174770"><ele>289.5</ele></trkpt>
    <trkpt lat="49.1173860" lon="6.1179260"><ele>292.2</ele></trkpt>
    <trkpt lat="49.1174070" lon="6.1179910"><ele>293.0</ele></trkpt>
    <trkpt lat="49.1174440" lon="6.1181040"><ele>294.2</ele></trkpt>
    <trkpt lat="49.1175400" lon="6.1183090"><ele>297.2</ele></trkpt>
    <trkpt lat="49.1175420" lon="6.1184180"><ele>297.5</ele></trkpt>
    <trkpt lat="49.1175690" lon="6.1185050"><ele>298.8</ele></trkpt>
    <trkpt lat="49.1176950" lon="6.1189330"><ele>303.5</ele></trkpt>
    <trkpt lat="49.1178350" lon="6.1194530"><ele>308.2</ele></trkpt>
    <trkpt lat="49.1179090" lon="6.1196810"><ele>310.8</ele></trkpt>
    <trkpt lat="49.1179980" lon="6.1199060"><ele>312.5</ele></trkpt>
    <trkpt lat="49.1181530" lon="6.1202020"><ele>316.5</ele></trkpt>
    <trkpt lat="49.1184260" lon="6.1206510"><ele>322.5</ele></trkpt>
    <trkpt lat="49.1185720" lon="6.1209300"><ele>325.2</ele></trkpt>
    <trkpt lat="49.1187030" lon="6.1212320"><ele>327.2</ele></trkpt>
    <trkpt lat="49.1190810" lon="6.1221510"><ele>330.2</ele></trkpt>
    <trkpt lat="49.1192310" lon="6.1220120"><ele>334.5</ele></trkpt>
    <trkpt lat="49.1192950" lon="6.1219950"><ele>335.8</ele></trkpt>
    <trkpt lat="49.1193060" lon="6.1220520"><ele>335.5</ele></trkpt>
    <trkpt lat="49.1193390" lon="6.1221020"><ele>335.5</ele></trkpt>
    <trkpt lat="49.1193430" lon="6.1221610"><ele>335.0</ele></trkpt>
    <trkpt lat="49.1194180" lon="6.1221470"><ele>336.2</ele></trkpt>
    <trkpt lat="49.1196370" lon="6.1229360"><ele>335.5</ele></trkpt>
    <trkpt lat="49.1196540" lon="6.1230670"><ele>334.0</ele></trkpt>
    <trkpt lat="49.1197900" lon="6.1231050"><ele>337.8</ele></trkpt>
    <trkpt lat="49.1198590" lon="6.1230930"><ele>340.8</ele></trkpt>
    <trkpt lat="49.1199320" lon="6.1231190"><ele>343.2</ele></trkpt>
    <trkpt lat="49.1199640" lon="6.1230900"><ele>345.0</ele></trkpt>
    <trkpt lat="49.1200270" lon="6.1230760"><ele>346.8</ele></trkpt>
    <trkpt lat="49.1200450" lon="6.1229950"><ele>346.8</ele></trkpt>
    <trkpt lat="49.1201170" lon="6.1228680"><ele>347.2</ele></trkpt>
    <trkpt lat="49.1202050" lon="6.1230920"><ele>347.2</ele></trkpt>
    <trkpt lat="49.1202450" lon="6.1232360"><ele>345.8</ele></trkpt>
    <trkpt lat="49.1203540" lon="6.1237850"><ele>348.2</ele></trkpt>
    <trkpt lat="49.1205070" lon="6.1246080"><ele>346.0</ele></trkpt>
    <trkpt lat="49.1205580" lon="6.1254870"><ele>348.0</ele></trkpt>
    <trkpt lat="49.1205590" lon="6.1256530"><ele>348.0</ele></trkpt>
    <trkpt lat="49.1205370" lon="6.1258560"><ele>347.2</ele></trkpt>
    <trkpt lat="49.1205440" lon="6.1265090"><ele>349.0</ele></trkpt>
    <trkpt lat="49.1205750" lon="6.1267490"><ele>348.2</ele></trkpt>
    <trkpt lat="49.1206100" lon="6.1269060"><ele>349.0</ele></trkpt>
    <trkpt lat="49.1208670" lon="6.1276060"><ele>347.5</ele></trkpt>
    <trkpt lat="49.1206100" lon="6.1269060"><ele>349.0</ele></trkpt>
    <trkpt lat="49.1205750" lon="6.1267490"><ele>348.2</ele></trkpt>
    <trkpt lat="49.1205440" lon="6.1265090"><ele>349.0</ele></trkpt>
    <trkpt lat="49.1205750" lon="6.1265110"><ele>349.5</ele></trkpt>
    <trkpt lat="49.1205950" lon="6.1265300"><ele>349.2</ele></trkpt>
    <trkpt lat="49.1210470" lon="6.1265330"><ele>350.2</ele></trkpt>
    <trkpt lat="49.1212990" lon="6.1265680"><ele>351.5</ele></trkpt>
    <trkpt lat="49.1216060" lon="6.1265560"><ele>351.8</ele></trkpt>
    <trkpt lat="49.1216540" lon="6.1265800"><ele>350.8</ele></trkpt>
    <trkpt lat="49.1223310" lon="6.1264570"><ele>350.8</ele></trkpt>
    <trkpt lat="49.1223600" lon="6.1264320"><ele>351.0</ele></trkpt>
    <trkpt lat="49.1225050" lon="6.1264300"><ele>350.5</ele></trkpt>
    <trkpt lat="49.1226390" lon="6.1263770"><ele>342.2</ele></trkpt>
    <trkpt lat="49.1226880" lon="6.1263450"><ele>339.5</ele></trkpt>
    <trkpt lat="49.1227000" lon="6.1264270"><ele>338.2</ele></trkpt>
    <trkpt lat="49.1227830" lon="6.1265280"><ele>331.8</ele></trkpt>
    <trkpt lat="49.1228370" lon="6.1266190"><ele>328.2</ele></trkpt>
    <trkpt lat="49.1236940" lon="6.1236250"><ele>312.0</ele></trkpt>
    <trkpt lat="49.1239100" lon="6.1228580"><ele>309.0</ele></trkpt>
    <trkpt lat="49.1241680" lon="6.1220660"><ele>305.8</ele></trkpt>
    <trkpt lat="49.1244360" lon="6.1212550"><ele>301.8</ele></trkpt>
    <trkpt lat="49.1244820" lon="6.1211360"><ele>300.2</ele></trkpt>
    <trkpt lat="49.1245170" lon="6.1210860"><ele>299.8</ele></trkpt>
    <trkpt lat="49.1245530" lon="6.1210720"><ele>299.5</ele></trkpt>
    <trkpt lat="49.1246110" lon="6.1211030"><ele>298.0</ele></trkpt>
    <trkpt lat="49.1246600" lon="6.1209140"><ele>299.8</ele></trkpt>
    <trkpt lat="49.1247530" lon="6.1207630"><ele>299.5</ele></trkpt>
    <trkpt lat="49.1248880" lon="6.1208220"><ele>294.5</ele></trkpt>
    <trkpt lat="49.1249920" lon="6.1207900"><ele>291.2</ele></trkpt>
    <trkpt lat="49.1251300" lon="6.1205190"><ele>286.8</ele></trkpt>
    <trkpt lat="49.1253850" lon="6.1203180"><ele>278.8</ele></trkpt>
    <trkpt lat="49.1256480" lon="6.1202510"><ele>271.5</ele></trkpt>
    <trkpt lat="49.1258250" lon="6.1200780"><ele>267.8</ele></trkpt>
    <trkpt lat="49.1260460" lon="6.1199670"><ele>265.8</ele></trkpt>
    <trkpt lat="49.1260710" lon="6.1199540"><ele>265.5</ele></trkpt>
    <trkpt lat="49.1262990" lon="6.1204310"><ele>262.2</ele></trkpt>
    <trkpt lat="49.1264290" lon="6.1207430"><ele>259.5</ele></trkpt>
    <trkpt lat="49.1265610" lon="6.1209320"><ele>258.2</ele></trkpt>
    <trkpt lat="49.1266720" lon="6.1210910"><ele>256.0</ele></trkpt>
    <trkpt lat="49.1267360" lon="6.1212420"><ele>256.0</ele></trkpt>
    <trkpt lat="49.1267970" lon="6.1214610"><ele>254.8</ele></trkpt>
    <trkpt lat="49.1268320" lon="6.1215540"><ele>253.8</ele></trkpt>
    <trkpt lat="49.1271000" lon="6.1220270"><ele>250.8</ele></trkpt>
    <trkpt lat="49.1271870" lon="6.1221780"><ele>249.5</ele></trkpt>
    <trkpt lat="49.1272660" lon="6.1222970"><ele>248.2</ele></trkpt>
    <trkpt lat="49.1276410" lon="6.1227100"><ele>245.8</ele></trkpt>
    <trkpt lat="49.1278060" lon="6.1228740"><ele>245.2</ele></trkpt>
    <trkpt lat="49.1280200" lon="6.1230560"><ele>243.0</ele></trkpt>
    <trkpt lat="49.1281470" lon="6.1231840"><ele>242.0</ele></trkpt>
    <trkpt lat="49.1282220" lon="6.1232870"><ele>240.8</ele></trkpt>
    <trkpt lat="49.1283160" lon="6.1234380"><ele>239.2</ele></trkpt>
    <trkpt lat="49.1283550" lon="6.1234840"><ele>238.8</ele></trkpt>
    <trkpt lat="49.1284590" lon="6.1235860"><ele>238.0</ele></trkpt>
    <trkpt lat="49.1287460" lon="6.1237380"><ele>237.0</ele></trkpt>
    <trkpt lat="49.1288480" lon="6.1238270"><ele>236.2</ele></trkpt>
    <trkpt lat="49.1289770" lon="6.1236200"><ele>238.0</ele></trkpt>
    <trkpt lat="49.1292090" lon="6.1237960"><ele>236.5</ele></trkpt>
    <trkpt lat="49.1293650" lon="6.1239590"><ele>235.8</ele></trkpt>
    <trkpt lat="49.1298170" lon="6.1245360"><ele>234.5</ele></trkpt>
    <trkpt lat="49.1302420" lon="6.1248810"><ele>231.0</ele></trkpt>
    <trkpt lat="49.1304060" lon="6.1245090"><ele>233.8</ele></trkpt>
    <trkpt lat="49.1304500" lon="6.1243740"><ele>234.8</ele></trkpt>
    <trkpt lat="49.1304950" lon="6.1244410"><ele>234.0</ele></trkpt>
    <trkpt lat="49.1306870" lon="6.1246090"><ele>232.2</ele></trkpt>
    <trkpt lat="49.1309450" lon="6.1247830"><ele>231.0</ele></trkpt>
    <trkpt lat="49.1309890" lon="6.1247980"><ele>231.0</ele></trkpt>
    <trkpt lat="49.1310620" lon="6.1248130"><ele>231.0</ele></trkpt>
    <trkpt lat="49.1312030" lon="6.1248320"><ele>232.5</ele></trkpt>
    <trkpt lat="49.1312060" lon="6.1249100"><ele>232.0</ele></trkpt>
    <trkpt lat="49.1311940" lon="6.1249230"><ele>231.5</ele></trkpt>
    <trkpt lat="49.1312140" lon="6.1249370"><ele>231.8</ele></trkpt>
    <trkpt lat="49.1312220" lon="6.1250240"><ele>231.5</ele></trkpt>
    <trkpt lat="49.1311600" lon="6.1251650"><ele>231.2</ele></trkpt>
    <trkpt lat="49.1310180" lon="6.1250020"><ele>230.5</ele></trkpt>
    <trkpt lat="49.1311600" lon="6.1251650"><ele>231.2</ele></trkpt>
    <trkpt lat="49.1312220" lon="6.1250240"><ele>231.5</ele></trkpt>
    <trkpt lat="49.1312140" lon="6.1249370"><ele>231.8</ele></trkpt>
    <trkpt lat="49.1311940" lon="6.1249230"><ele>231.5</ele></trkpt>
    <trkpt lat="49.1312060" lon="6.1249100"><ele>232.0</ele></trkpt>
    <trkpt lat="49.1312030" lon="6.1248320"><ele>232.5</ele></trkpt>
    <trkpt lat="49.1310620" lon="6.1248130"><ele>231.0</ele></trkpt>
    <trkpt lat="49.1309890" lon="6.1247980"><ele>231.0</ele></trkpt>
    <trkpt lat="49.1309990" lon="6.1246870"><ele>231.8</ele></trkpt>
    <trkpt lat="49.1310050" lon="6.1244930"><ele>233.2</ele></trkpt>
    <trkpt lat="49.1309600" lon="6.1242730"><ele>234.2</ele></trkpt>
    <trkpt lat="49.1310030" lon="6.1241230"><ele>235.2</ele></trkpt>
    <trkpt lat="49.1308350" lon="6.1238250"><ele>237.5</ele></trkpt>
    <trkpt lat="49.1305500" lon="6.1235160"><ele>241.5</ele></trkpt>
    <trkpt lat="49.1306170" lon="6.1233250"><ele>242.8</ele></trkpt>
    <trkpt lat="49.1306360" lon="6.1232360"><ele>243.0</ele></trkpt>
    <trkpt lat="49.1306330" lon="6.1231140"><ele>243.5</ele></trkpt>
    <trkpt lat="49.1306370" lon="6.1230810"><ele>243.8</ele></trkpt>
    <trkpt lat="49.1307200" lon="6.1228500"><ele>245.0</ele></trkpt>
    <trkpt lat="49.1308070" lon="6.1226160"><ele>247.5</ele></trkpt>
    <trkpt lat="49.1312460" lon="6.1212700"><ele>260.8</ele></trkpt>
    <trkpt lat="49.1310980" lon="6.1211700"><ele>261.0</ele></trkpt>
    <trkpt lat="49.1308120" lon="6.1210130"><ele>262.0</ele></trkpt>
    <trkpt lat="49.1307070" lon="6.1209420"><ele>262.5</ele></trkpt>
    <trkpt lat="49.1306760" lon="6.1209320"><ele>262.5</ele></trkpt>
    <trkpt lat="49.1306420" lon="6.1209430"><ele>262.5</ele></trkpt>
    <trkpt lat="49.1307820" lon="6.1206280"><ele>265.8</ele></trkpt>
    <trkpt lat="49.1308770" lon="6.1203380"><ele>268.8</ele></trkpt>
    <trkpt lat="49.1309620" lon="6.1199520"><ele>275.5</ele></trkpt>
    <trkpt lat="49.1309960" lon="6.1196800"><ele>279.8</ele></trkpt>
    <trkpt lat="49.1310030" lon="6.1193820"><ele>284.8</ele></trkpt>
    <trkpt lat="49.1309600" lon="6.1190940"><ele>289.0</ele></trkpt>
    <trkpt lat="49.1308600" lon="6.1189330"><ele>291.2</ele></trkpt>
    <trkpt lat="49.1307240" lon="6.1186930"><ele>293.5</ele></trkpt>
    <trkpt lat="49.1305810" lon="6.1185260"><ele>295.5</ele></trkpt>
    <trkpt lat="49.1305150" lon="6.1185170"><ele>295.5</ele></trkpt>
    <trkpt lat="49.1304580" lon="6.1185370"><ele>295.0</ele></trkpt>
    <trkpt lat="49.1303460" lon="6.1183230"><ele>298.2</ele></trkpt>
    <trkpt lat="49.1303170" lon="6.1182660"><ele>299.5</ele></trkpt>
    <trkpt lat="49.1304290" lon="6.1181660"><ele>302.2</ele></trkpt>
    <trkpt lat="49.1305420" lon="6.1181090"><ele>304.5</ele></trkpt>
    <trkpt lat="49.1306220" lon="6.1180770"><ele>305.8</ele></trkpt>
    <trkpt lat="49.1306940" lon="6.1180680"><ele>306.5</ele></trkpt>
    <trkpt lat="49.1307380" lon="6.1180890"><ele>306.2</ele></trkpt>
    <trkpt lat="49.1307950" lon="6.1180920"><ele>306.5</ele></trkpt>
    <trkpt lat="49.1309260" lon="6.1180180"><ele>309.2</ele></trkpt>
    <trkpt lat="49.1310670" lon="6.1179980"><ele>310.2</ele></trkpt>
    <trkpt lat="49.1311960" lon="6.1179310"><ele>313.5</ele></trkpt>
    <trkpt lat="49.1313040" lon="6.1178390"><ele>317.2</ele></trkpt>
    <trkpt lat="49.1312820" lon="6.1177310"><ele>319.8</ele></trkpt>
    <trkpt lat="49.1313450" lon="6.1176320"><ele>322.8</ele></trkpt>
    <trkpt lat="49.1313790" lon="6.1176250"><ele>323.0</ele></trkpt>
    <trkpt lat="49.1314060" lon="6.1176080"><ele>323.8</ele></trkpt>
    <trkpt lat="49.1315990" lon="6.1176130"><ele>325.0</ele></trkpt>
    <trkpt lat="49.1317290" lon="6.1176020"><ele>326.2</ele></trkpt>
    <trkpt lat="49.1317700" lon="6.1176320"><ele>326.2</ele></trkpt>
    <trkpt lat="49.1318370" lon="6.1176530"><ele>326.5</ele></trkpt>
    <trkpt lat="49.1321910" lon="6.1178870"><ele>327.0</ele></trkpt>
    <trkpt lat="49.1322450" lon="6.1179260"><ele>327.0</ele></trkpt>
    <trkpt lat="49.1323420" lon="6.1180170"><ele>326.8</ele></trkpt>
    <trkpt lat="49.1325710" lon="6.1181890"><ele>326.5</ele></trkpt>
    <trkpt lat="49.1326970" lon="6.1182740"><ele>326.5</ele></trkpt>
    <trkpt lat="49.1328590" lon="6.1183370"><ele>327.8</ele></trkpt>
    <trkpt lat="49.1329840" lon="6.1183630"><ele>328.2</ele></trkpt>
    <trkpt lat="49.1329370" lon="6.1180620"><ele>332.5</ele></trkpt>
    <trkpt lat="49.1329240" lon="6.1180040"><ele>332.8</ele></trkpt>
    <trkpt lat="49.1329380" lon="6.1178390"><ele>334.0</ele></trkpt>
    <trkpt lat="49.1328920" lon="6.1176080"><ele>334.8</ele></trkpt>
    <trkpt lat="49.1329420" lon="6.1175980"><ele>334.8</ele></trkpt>
    <trkpt lat="49.1330140" lon="6.1175710"><ele>334.8</ele></trkpt>
    <trkpt lat="49.1330830" lon="6.1175040"><ele>334.8</ele></trkpt>
    <trkpt lat="49.1331260" lon="6.1174050"><ele>334.0</ele></trkpt>
    <trkpt lat="49.1331740" lon="6.1172420"><ele>333.0</ele></trkpt>
    <trkpt lat="49.1331880" lon="6.1171570"><ele>334.5</ele></trkpt>
    <trkpt lat="49.1331780" lon="6.1170690"><ele>336.5</ele></trkpt>
    <trkpt lat="49.1331330" lon="6.1170040"><ele>337.8</ele></trkpt>
    <trkpt lat="49.1330690" lon="6.1169680"><ele>337.8</ele></trkpt>
    <trkpt lat="49.1330170" lon="6.1169080"><ele>338.2</ele></trkpt>
    <trkpt lat="49.1329880" lon="6.1168100"><ele>339.0</ele></trkpt>
    <trkpt lat="49.1329910" lon="6.1166740"><ele>340.0</ele></trkpt>
    <trkpt lat="49.1330440" lon="6.1165550"><ele>340.0</ele></trkpt>
    <trkpt lat="49.1331200" lon="6.1164710"><ele>340.0</ele></trkpt>
    <trkpt lat="49.1332210" lon="6.1164320"><ele>340.0</ele></trkpt>
    <trkpt lat="49.1333710" lon="6.1164490"><ele>340.2</ele></trkpt>
    <trkpt lat="49.1335560" lon="6.1165710"><ele>340.5</ele></trkpt>
    <trkpt lat="49.1333710" lon="6.1164490"><ele>340.2</ele></trkpt>
    <trkpt lat="49.1332210" lon="6.1164320"><ele>340.0</ele></trkpt>
    <trkpt lat="49.1331200" lon="6.1164710"><ele>340.0</ele></trkpt>
    <trkpt lat="49.1330440" lon="6.1165550"><ele>340.0</ele></trkpt>
    <trkpt lat="49.1329910" lon="6.1166740"><ele>340.0</ele></trkpt>
    <trkpt lat="49.1329880" lon="6.1168100"><ele>339.0</ele></trkpt>
    <trkpt lat="49.1330170" lon="6.1169080"><ele>338.2</ele></trkpt>
    <trkpt lat="49.1330690" lon="6.1169680"><ele>337.8</ele></trkpt>
    <trkpt lat="49.1331330" lon="6.1170040"><ele>337.8</ele></trkpt>
    <trkpt lat="49.1331780" lon="6.1170690"><ele>336.5</ele></trkpt>
    <trkpt lat="49.1331880" lon="6.1171570"><ele>334.5</ele></trkpt>
    <trkpt lat="49.1331740" lon="6.1172420"><ele>333.0</ele></trkpt>
    <trkpt lat="49.1331260" lon="6.1174050"><ele>334.0</ele></trkpt>
    <trkpt lat="49.1330830" lon="6.1175040"><ele>334.8</ele></trkpt>
    <trkpt lat="49.1330140" lon="6.1175710"><ele>334.8</ele></trkpt>
    <trkpt lat="49.1329420" lon="6.1175980"><ele>334.8</ele></trkpt>
    <trkpt lat="49.1328920" lon="6.1176080"><ele>334.8</ele></trkpt>
    <trkpt lat="49.1328060" lon="6.1175970"><ele>334.5</ele></trkpt>
    <trkpt lat="49.1327410" lon="6.1175180"><ele>334.8</ele></trkpt>
    <trkpt lat="49.1326410" lon="6.1173100"><ele>334.5</ele></trkpt>
    <trkpt lat="49.1325400" lon="6.1171880"><ele>335.0</ele></trkpt>
    <trkpt lat="49.1314680" lon="6.1167600"><ele>333.0</ele></trkpt>
    <trkpt lat="49.1313970" lon="6.1168100"><ele>332.8</ele></trkpt>
    <trkpt lat="49.1313880" lon="6.1167890"><ele>333.0</ele></trkpt>
    <trkpt lat="49.1313990" lon="6.1167270"><ele>333.5</ele></trkpt>
    <trkpt lat="49.1313020" lon="6.1166600"><ele>333.5</ele></trkpt>
    <trkpt lat="49.1311540" lon="6.1165970"><ele>333.8</ele></trkpt>
    <trkpt lat="49.1309900" lon="6.1165620"><ele>333.5</ele></trkpt>
    <trkpt lat="49.1308250" lon="6.1165700"><ele>332.8</ele></trkpt>
    <trkpt lat="49.1299340" lon="6.1167540"><ele>325.8</ele></trkpt>
    <trkpt lat="49.1297210" lon="6.1167620"><ele>325.2</ele></trkpt>
    <trkpt lat="49.1293900" lon="6.1167780"><ele>323.2</ele></trkpt>
    <trkpt lat="49.1285240" lon="6.1166530"><ele>322.0</ele></trkpt>
    <trkpt lat="49.1281510" lon="6.1166000"><ele>321.8</ele></trkpt>
    <trkpt lat="49.1278770" lon="6.1165710"><ele>321.0</ele></trkpt>
    <trkpt lat="49.1277910" lon="6.1162970"><ele>322.5</ele></trkpt>
    <trkpt lat="49.1278050" lon="6.1162350"><ele>323.0</ele></trkpt>
    <trkpt lat="49.1277310" lon="6.1161920"><ele>323.0</ele></trkpt>
    <trkpt lat="49.1276900" lon="6.1161420"><ele>323.0</ele></trkpt>
    <trkpt lat="49.1276530" lon="6.1161300"><ele>322.8</ele></trkpt>
    <trkpt lat="49.1276140" lon="6.1161420"><ele>322.5</ele></trkpt>
    <trkpt lat="49.1275230" lon="6.1161100"><ele>322.0</ele></trkpt>
    <trkpt lat="49.1273820" lon="6.1161130"><ele>321.5</ele></trkpt>
    <trkpt lat="49.1271560" lon="6.1160370"><ele>320.2</ele></trkpt>
    <trkpt lat="49.1270410" lon="6.1160330"><ele>319.5</ele></trkpt>
    <trkpt lat="49.1266810" lon="6.1159990"><ele>316.5</ele></trkpt>
    <trkpt lat="49.1265720" lon="6.1160050"><ele>316.0</ele></trkpt>
    <trkpt lat="49.1263000" lon="6.1159620"><ele>314.2</ele></trkpt>
    <trkpt lat="49.1261970" lon="6.1159780"><ele>313.0</ele></trkpt>
    <trkpt lat="49.1260620" lon="6.1158600"><ele>312.5</ele></trkpt>
    <trkpt lat="49.1258170" lon="6.1157740"><ele>311.5</ele></trkpt>
    <trkpt lat="49.1256160" lon="6.1156370"><ele>308.5</ele></trkpt>
    <trkpt lat="49.1255770" lon="6.1156220"><ele>308.2</ele></trkpt>
    <trkpt lat="49.1255890" lon="6.1155320"><ele>308.2</ele></trkpt>
    <trkpt lat="49.1255460" lon="6.1153450"><ele>307.8</ele></trkpt>
    <trkpt lat="49.1254870" lon="6.1152810"><ele>307.8</ele></trkpt>
    <trkpt lat="49.1254410" lon="6.1152350"><ele>307.2</ele></trkpt>
    <trkpt lat="49.1252110" lon="6.1151280"><ele>306.0</ele></trkpt>
    <trkpt lat="49.1250260" lon="6.1150830"><ele>305.8</ele></trkpt>
    <trkpt lat="49.1249110" lon="6.1150930"><ele>307.8</ele></trkpt>
    <trkpt lat="49.1248390" lon="6.1150850"><ele>309.2</ele></trkpt>
    <trkpt lat="49.1246800" lon="6.1146910"><ele>306.8</ele></trkpt>
    <trkpt lat="49.1246610" lon="6.1144680"><ele>304.5</ele></trkpt>
    <trkpt lat="49.1246160" lon="6.1143580"><ele>305.5</ele></trkpt>
    <trkpt lat="49.1245860" lon="6.1141760"><ele>305.8</ele></trkpt>
    <trkpt lat="49.1245490" lon="6.1136690"><ele>303.2</ele></trkpt>
    <trkpt lat="49.1244790" lon="6.1133580"><ele>303.2</ele></trkpt>
    <trkpt lat="49.1244740" lon="6.1132690"><ele>303.0</ele></trkpt>
    <trkpt lat="49.1244230" lon="6.1131300"><ele>303.5</ele></trkpt>
    <trkpt lat="49.1243540" lon="6.1125130"><ele>302.0</ele></trkpt>
    <trkpt lat="49.1243440" lon="6.1122770"><ele>301.2</ele></trkpt>
    <trkpt lat="49.1243580" lon="6.1120840"><ele>300.8</ele></trkpt>
    <trkpt lat="49.1244090" lon="6.1118720"><ele>299.8</ele></trkpt>
    <trkpt lat="49.1244120" lon="6.1117410"><ele>299.5</ele></trkpt>
    <trkpt lat="49.1244320" lon="6.1116040"><ele>299.2</ele></trkpt>
    <trkpt lat="49.1244830" lon="6.1115020"><ele>298.0</ele></trkpt>
    <trkpt lat="49.1244850" lon="6.1113220"><ele>298.2</ele></trkpt>
    <trkpt lat="49.1245010" lon="6.1111440"><ele>298.5</ele></trkpt>
    <trkpt lat="49.1244910" lon="6.1107860"><ele>300.0</ele></trkpt>
    <trkpt lat="49.1245050" lon="6.1106510"><ele>300.2</ele></trkpt>
    <trkpt lat="49.1245400" lon="6.1103380"><ele>300.0</ele></trkpt>
    <trkpt lat="49.1247370" lon="6.1097340"><ele>296.5</ele></trkpt>
    <trkpt lat="49.1247670" lon="6.1093750"><ele>295.8</ele></trkpt>
    <trkpt lat="49.1247560" lon="6.1089780"><ele>294.5</ele></trkpt>
    <trkpt lat="49.1246910" lon="6.1086260"><ele>294.5</ele></trkpt>
    <trkpt lat="49.1245110" lon="6.1079670"><ele>294.5</ele></trkpt>
    <trkpt lat="49.1244660" lon="6.1076990"><ele>294.0</ele></trkpt>
    <trkpt lat="49.1243600" lon="6.1070650"><ele>293.2</ele></trkpt>
    <trkpt lat="49.1243070" lon="6.1068050"><ele>293.0</ele></trkpt>
    <trkpt lat="49.1241890" lon="6.1064240"><ele>293.5</ele></trkpt>
    <trkpt lat="49.1240740" lon="6.1057190"><ele>292.0</ele></trkpt>
    <trkpt lat="49.1238420" lon="6.1048630"><ele>290.2</ele></trkpt>
    <trkpt lat="49.1238130" lon="6.1046230"><ele>288.5</ele></trkpt>
    <trkpt lat="49.1237490" lon="6.1043860"><ele>287.8</ele></trkpt>
    <trkpt lat="49.1235680" lon="6.1041100"><ele>288.8</ele></trkpt>
    <trkpt lat="49.1233210" lon="6.1038210"><ele>289.2</ele></trkpt>
    <trkpt lat="49.1232200" lon="6.1036430"><ele>288.8</ele></trkpt>
    <trkpt lat="49.1231070" lon="6.1035730"><ele>289.8</ele></trkpt>
    <trkpt lat="49.1230050" lon="6.1035810"><ele>290.8</ele></trkpt>
    <trkpt lat="49.1228500" lon="6.1033990"><ele>288.8</ele></trkpt>
    <trkpt lat="49.1227500" lon="6.1033290"><ele>287.5</ele></trkpt>
    <trkpt lat="49.1226290" lon="6.1033170"><ele>286.5</ele></trkpt>
    <trkpt lat="49.1223740" lon="6.1032780"><ele>282.2</ele></trkpt>
    <trkpt lat="49.1222850" lon="6.1031360"><ele>278.2</ele></trkpt>
    <trkpt lat="49.1222620" lon="6.1031250"><ele>277.8</ele></trkpt>
    <trkpt lat="49.1222270" lon="6.1031390"><ele>277.2</ele></trkpt>
    <trkpt lat="49.1221040" lon="6.1029920"><ele>272.8</ele></trkpt>
    <trkpt lat="49.1220300" lon="6.1029260"><ele>270.5</ele></trkpt>
    <trkpt lat="49.1219640" lon="6.1029030"><ele>269.0</ele></trkpt>
    <trkpt lat="49.1218940" lon="6.1029160"><ele>268.2</ele></trkpt>
    <trkpt lat="49.1218280" lon="6.1026970"><ele>264.8</ele></trkpt>
    <trkpt lat="49.1218020" lon="6.1025190"><ele>262.5</ele></trkpt>
    <trkpt lat="49.1216720" lon="6.1020980"><ele>257.0</ele></trkpt>
    <trkpt lat="49.1216270" lon="6.1018890"><ele>255.0</ele></trkpt>
    <trkpt lat="49.1214360" lon="6.1013030"><ele>248.0</ele></trkpt>
    <trkpt lat="49.1213880" lon="6.1011980"><ele>246.8</ele></trkpt>
    <trkpt lat="49.1213620" lon="6.1011020"><ele>245.8</ele></trkpt>
    <trkpt lat="49.1213370" lon="6.1007760"><ele>243.2</ele></trkpt>
    <trkpt lat="49.1211820" lon="6.1006300"><ele>241.5</ele></trkpt>
    <trkpt lat="49.1211070" lon="6.1004360"><ele>240.0</ele></trkpt>
    <trkpt lat="49.1210720" lon="6.1002670"><ele>238.5</ele></trkpt>
    <trkpt lat="49.1210480" lon="6.1000430"><ele>236.0</ele></trkpt>
    <trkpt lat="49.1209990" lon="6.0997770"><ele>233.5</ele></trkpt>
    <trkpt lat="49.1209640" lon="6.0995040"><ele>231.0</ele></trkpt>
    <trkpt lat="49.1209330" lon="6.0991320"><ele>227.0</ele></trkpt>
    <trkpt lat="49.1207630" lon="6.0990240"><ele>225.5</ele></trkpt>
    <trkpt lat="49.1207090" lon="6.0989500"><ele>224.8</ele></trkpt>
    <trkpt lat="49.1207210" lon="6.0989000"><ele>224.5</ele></trkpt>
    <trkpt lat="49.1207890" lon="6.0984000"><ele>221.2</ele></trkpt>
    <trkpt lat="49.1208450" lon="6.0982440"><ele>221.0</ele></trkpt>
    <trkpt lat="49.1209290" lon="6.0980640"><ele>221.0</ele></trkpt>
    <trkpt lat="49.1210060" lon="6.0979390"><ele>221.0</ele></trkpt>
    <trkpt lat="49.1210750" lon="6.0978320"><ele>221.5</ele></trkpt>
    <trkpt lat="49.1211400" lon="6.0976830"><ele>222.2</ele></trkpt>
    <trkpt lat="49.1211850" lon="6.0975270"><ele>223.2</ele></trkpt>
    <trkpt lat="49.1212140" lon="6.0973360"><ele>224.5</ele></trkpt>
    <trkpt lat="49.1212930" lon="6.0964150"><ele>234.2</ele></trkpt>
    <trkpt lat="49.1212620" lon="6.0962310"><ele>236.8</ele></trkpt>
    <trkpt lat="49.1211650" lon="6.0962050"><ele>236.2</ele></trkpt>
    <trkpt lat="49.1210180" lon="6.0961490"><ele>235.8</ele></trkpt>
    <trkpt lat="49.1209390" lon="6.0960860"><ele>236.0</ele></trkpt>
    <trkpt lat="49.1208250" lon="6.0959300"><ele>236.8</ele></trkpt>
    <trkpt lat="49.1206710" lon="6.0956300"><ele>238.2</ele></trkpt>
    <trkpt lat="49.1204910" lon="6.0954140"><ele>238.8</ele></trkpt>
    <trkpt lat="49.1204050" lon="6.0953930"><ele>238.5</ele></trkpt>
    <trkpt lat="49.1202580" lon="6.0954350"><ele>237.8</ele></trkpt>
    <trkpt lat="49.1201470" lon="6.0955220"><ele>235.0</ele></trkpt>
    <trkpt lat="49.1200070" lon="6.0956340"><ele>235.0</ele></trkpt>
    <trkpt lat="49.1199870" lon="6.0956590"><ele>234.8</ele></trkpt>
    <trkpt lat="49.1199740" lon="6.0956740"><ele>234.5</ele></trkpt>
    <trkpt lat="49.1198750" lon="6.0957970"><ele>233.2</ele></trkpt>
    <trkpt lat="49.1198100" lon="6.0958600"><ele>232.5</ele></trkpt>
    <trkpt lat="49.1196430" lon="6.0960220"><ele>230.8</ele></trkpt>
    <trkpt lat="49.1194510" lon="6.0961720"><ele>229.0</ele></trkpt>
    <trkpt lat="49.1190310" lon="6.0964610"><ele>226.8</ele></trkpt>
    <trkpt lat="49.1187840" lon="6.0966050"><ele>226.2</ele></trkpt>
    <trkpt lat="49.1187540" lon="6.0966100"><ele>226.2</ele></trkpt>
    <trkpt lat="49.1187490" lon="6.0966710"><ele>225.8</ele></trkpt>
    <trkpt lat="49.1187950" lon="6.0968800"><ele>223.0</ele></trkpt>
    <trkpt lat="49.1188150" lon="6.0969140"><ele>222.5</ele></trkpt>
    <trkpt lat="49.1188320" lon="6.0969950"><ele>221.2</ele></trkpt>
    <trkpt lat="49.1189980" lon="6.0978290"><ele>213.2</ele></trkpt>
    <trkpt lat="49.1190790" lon="6.0978550"><ele>213.5</ele></trkpt>
    <trkpt lat="49.1193370" lon="6.0986310"><ele>216.8</ele></trkpt>
    <trkpt lat="49.1194140" lon="6.0986720"><ele>217.8</ele></trkpt>
    <trkpt lat="49.1194110" lon="6.0987330"><ele>218.0</ele></trkpt>
    <trkpt lat="49.1194240" lon="6.0988740"><ele>218.8</ele></trkpt>
    <trkpt lat="49.1193960" lon="6.0991400"><ele>219.5</ele></trkpt>
    <trkpt lat="49.1192080" lon="6.0991610"><ele>219.0</ele></trkpt>
    <trkpt lat="49.1190090" lon="6.0992590"><ele>218.5</ele></trkpt>
    <trkpt lat="49.1188820" lon="6.0993460"><ele>218.8</ele></trkpt>
    <trkpt lat="49.1189160" lon="6.0997000"><ele>221.8</ele></trkpt>
    <trkpt lat="49.1189620" lon="6.0997420"><ele>222.2</ele></trkpt>
    <trkpt lat="49.1190340" lon="6.1000550"><ele>224.8</ele></trkpt>
    <trkpt lat="49.1190900" lon="6.1002090"><ele>226.0</ele></trkpt>
    <trkpt lat="49.1190430" lon="6.1002890"><ele>226.5</ele></trkpt>
    <trkpt lat="49.1188450" lon="6.1006720"><ele>229.2</ele></trkpt>
    <trkpt lat="49.1188220" lon="6.1007180"><ele>229.5</ele></trkpt>
    <trkpt lat="49.1185710" lon="6.1012600"><ele>234.0</ele></trkpt>
    <trkpt lat="49.1185040" lon="6.1012170"><ele>232.5</ele></trkpt>
    <trkpt lat="49.1182090" lon="6.1013800"><ele>231.5</ele></trkpt>
    <trkpt lat="49.1180700" lon="6.1014030"><ele>230.2</ele></trkpt>
    <trkpt lat="49.1178470" lon="6.1015740"><ele>229.5</ele></trkpt>
    <trkpt lat="49.1176150" lon="6.1015530"><ele>227.5</ele></trkpt>
    <trkpt lat="49.1174870" lon="6.1016230"><ele>227.2</ele></trkpt>
    <trkpt lat="49.1173060" lon="6.1018700"><ele>228.2</ele></trkpt>
    <trkpt lat="49.1170750" lon="6.1020710"><ele>227.0</ele></trkpt>
    <trkpt lat="49.1166780" lon="6.1022350"><ele>223.0</ele></trkpt>
    <trkpt lat="49.1168570" lon="6.1027190"><ele>228.8</ele></trkpt>
    <trkpt lat="49.1170710" lon="6.1033880"><ele>236.2</ele></trkpt>
    <trkpt lat="49.1170000" lon="6.1034400"><ele>236.0</ele></trkpt>
    <trkpt lat="49.1162540" lon="6.1040800"><ele>236.8</ele></trkpt>
    <trkpt lat="49.1161930" lon="6.1041410"><ele>237.0</ele></trkpt>
    <trkpt lat="49.1161460" lon="6.1042120"><ele>237.2</ele></trkpt>
    <trkpt lat="49.1160260" lon="6.1044340"><ele>237.5</ele></trkpt>
    <trkpt lat="49.1156210" lon="6.1039670"><ele>234.5</ele></trkpt>
    <trkpt lat="49.1152330" lon="6.1037310"><ele>232.5</ele></trkpt>
    <trkpt lat="49.1149290" lon="6.1035250"><ele>230.2</ele></trkpt>
    <trkpt lat="49.1146820" lon="6.1038540"><ele>230.5</ele></trkpt>
    <trkpt lat="49.1146540" lon="6.1038920"><ele>230.8</ele></trkpt>
    <trkpt lat="49.1142730" lon="6.1043990"><ele>229.5</ele></trkpt>
    <trkpt lat="49.1141080" lon="6.1044290"><ele>228.5</ele></trkpt>
    <trkpt lat="49.1138300" lon="6.1046610"><ele>228.5</ele></trkpt>
    <trkpt lat="49.1137630" lon="6.1048020"><ele>229.2</ele></trkpt>
    <trkpt lat="49.1136990" lon="6.1051040"><ele>230.0</ele></trkpt>
    <trkpt lat="49.1137260" lon="6.1051410"><ele>230.0</ele></trkpt>
    <trkpt lat="49.1137350" lon="6.1052070"><ele>230.2</ele></trkpt>
    <trkpt lat="49.1137250" lon="6.1053480"><ele>230.5</ele></trkpt>
    <trkpt lat="49.1137360" lon="6.1054620"><ele>231.0</ele></trkpt>
    <trkpt lat="49.1137560" lon="6.1055740"><ele>231.5</ele></trkpt>
    <trkpt lat="49.1135040" lon="6.1057000"><ele>230.2</ele></trkpt>
    <trkpt lat="49.1129810" lon="6.1059580"><ele>227.8</ele></trkpt>
    <trkpt lat="49.1130140" lon="6.1061450"><ele>228.5</ele></trkpt>
    <trkpt lat="49.1128860" lon="6.1067510"><ele>227.8</ele></trkpt>
    <trkpt lat="49.1128790" lon="6.1067780"><ele>227.5</ele></trkpt>
    <trkpt lat="49.1125500" lon="6.1069740"><ele>225.2</ele></trkpt>
    <trkpt lat="49.1123940" lon="6.1072020"><ele>224.0</ele></trkpt>
    <trkpt lat="49.1123110" lon="6.1077060"><ele>223.8</ele></trkpt>
    <trkpt lat="49.1122760" lon="6.1079460"><ele>223.5</ele></trkpt>
    <trkpt lat="49.1121950" lon="6.1082920"><ele>222.8</ele></trkpt>
    <trkpt lat="49.1121410" lon="6.1082660"><ele>222.5</ele></trkpt>
    <trkpt lat="49.1117430" lon="6.1080700"><ele>220.2</ele></trkpt>
    <trkpt lat="49.1117400" lon="6.1081390"><ele>220.5</ele></trkpt>
    <trkpt lat="49.1116940" lon="6.1082920"><ele>220.8</ele></trkpt>
    <trkpt lat="49.1115280" lon="6.1086440"><ele>221.0</ele></trkpt>
    <trkpt lat="49.1114540" lon="6.1088630"><ele>221.2</ele></trkpt>
    <trkpt lat="49.1113120" lon="6.1092930"><ele>220.8</ele></trkpt>
    <trkpt lat="49.1112500" lon="6.1095530"><ele>220.5</ele></trkpt>
    <trkpt lat="49.1111790" lon="6.1101510"><ele>221.0</ele></trkpt>
    <trkpt lat="49.1110640" lon="6.1108290"><ele>221.2</ele></trkpt>
    <trkpt lat="49.1110440" lon="6.1109040"><ele>221.0</ele></trkpt>
    <trkpt lat="49.1110200" lon="6.1109630"><ele>221.0</ele></trkpt>
    <trkpt lat="49.1110030" lon="6.1109980"><ele>220.8</ele></trkpt>
    <trkpt lat="49.1110610" lon="6.1110680"><ele>221.0</ele></trkpt>
    <trkpt lat="49.1110450" lon="6.1111040"><ele>221.0</ele></trkpt>
    <trkpt lat="49.1110070" lon="6.1111790"><ele>221.5</ele></trkpt>
    <trkpt lat="49.1109820" lon="6.1112620"><ele>222.2</ele></trkpt>
  </trkseg></trk>
</gpx>