<?xml version="1.0" encoding="UTF-8"?>
<gpx version="1.1" creator="olifant"
     xmlns="http://www.topografix.com/GPX/1/1"
     xmlns:xsi="http://www.w3.org/2001/XMLSchema-instance"
     xsi:schemaLocation="http://www.topografix.com/GPX/1/1 http://www.topografix.com/GPX/1/1/gpx.xsd">
  <metadata><name>Les pelouses de Montenach</name><desc>15.5 km. D+ 330 m. 54 % de chemins. Depart : Sous le chateau de Sierck-les-Bains (45 min de Metz). La reserve naturelle des pelouses calcaires, ses orchidees et ses vues sur la boucle de la Moselle, puis le plateau agricole ; depart du chateau de Sierck.</desc></metadata>
  <wpt lat="49.4400980" lon="6.3597380"><name>Chateau des ducs de Lorraine, Sierck-les-Bains</name><desc>Depart en voiture, 45 min de Metz. Parking sous le chateau.</desc></wpt>
  <wpt lat="49.4421580" lon="6.3720460"><name>Rustroff</name><desc>Village au-dessus de Sierck, entre vignes et pelouses seches.</desc></wpt>
  <wpt lat="49.4203550" lon="6.3811970"><name>Montenach</name><desc>Village au pied de la reserve naturelle des pelouses calcaires, orchidees au printemps, vues sur la boucle de la Moselle.</desc></wpt>
  <wpt lat="49.3977660" lon="6.3532430"><name>Kerling-les-Sierck</name><desc>Village le plus au sud du secteur, sur le plateau agricole.</desc></wpt>
  <wpt lat="49.4205570" lon="6.3595130"><name>Ferme du Koenigsberg</name><desc>Ferme isolee sur le plateau, au-dessus de la reserve de Montenach.</desc></wpt>
  <trk><name>Les pelouses de Montenach</name><trkseg>
    <trkpt lat="49.4402550" lon="6.3596930"><ele>154.2</ele></trkpt>
    <trkpt lat="49.4403610" lon="6.3597340"><ele>153.5</ele></trkpt>
    <trkpt lat="49.4406780" lon="6.3598320"><ele>154.5</ele></trkpt>
    <trkpt lat="49.4408570" lon="6.3598870"><ele>155.2</ele></trkpt>
    <trkpt lat="49.4408800" lon="6.3596840"><ele>162.8</ele></trkpt>
    <trkpt lat="49.4413770" lon="6.3598250"><ele>160.8</ele></trkpt>
    <trkpt lat="49.4415480" lon="6.3598810"><ele>158.8</ele></trkpt>
    <trkpt lat="49.4416020" lon="6.3599100"><ele>158.2</ele></trkpt>
    <trkpt lat="49.4419080" lon="6.3602170"><ele>153.5</ele></trkpt>
    <trkpt lat="49.4422200" lon="6.3602910"><ele>149.8</ele></trkpt>
    <trkpt lat="49.4423490" lon="6.3602500"><ele>148.8</ele></trkpt>
    <trkpt lat="49.4423680" lon="6.3602450"><ele>148.8</ele></trkpt>
    <trkpt lat="49.4425250" lon="6.3601480"><ele>148.0</ele></trkpt>
    <trkpt lat="49.4427090" lon="6.3599300"><ele>148.0</ele></trkpt>
    <trkpt lat="49.4427240" lon="6.3599520"><ele>148.0</ele></trkpt>
    <trkpt lat="49.4427540" lon="6.3599050"><ele>148.2</ele></trkpt>
    <trkpt lat="49.4428740" lon="6.3597210"><ele>147.8</ele></trkpt>
    <trkpt lat="49.4431950" lon="6.3602430"><ele>147.8</ele></trkpt>
    <trkpt lat="49.4433680" lon="6.3604800"><ele>148.0</ele></trkpt>
    <trkpt lat="49.4436750" lon="6.3608820"><ele>148.2</ele></trkpt>
    <trkpt lat="49.4438970" lon="6.3611080"><ele>147.8</ele></trkpt>
    <trkpt lat="49.4441200" lon="6.3613630"><ele>147.0</ele></trkpt>
    <trkpt lat="49.4442620" lon="6.3615450"><ele>147.2</ele></trkpt>
    <trkpt lat="49.4443190" lon="6.3616430"><ele>147.2</ele></trkpt>
    <trkpt lat="49.4443620" lon="6.3617380"><ele>147.0</ele></trkpt>
    <trkpt lat="49.4443370" lon="6.3618000"><ele>147.2</ele></trkpt>
    <trkpt lat="49.4442780" lon="6.3619000"><ele>147.2</ele></trkpt>
    <trkpt lat="49.4442550" lon="6.3619180"><ele>147.2</ele></trkpt>
    <trkpt lat="49.4441860" lon="6.3619540"><ele>147.0</ele></trkpt>
    <trkpt lat="49.4441580" lon="6.3619860"><ele>147.0</ele></trkpt>
    <trkpt lat="49.4441100" lon="6.3620870"><ele>147.0</ele></trkpt>
    <trkpt lat="49.4444570" lon="6.3624790"><ele>147.0</ele></trkpt>
    <trkpt lat="49.4445080" lon="6.3625450"><ele>147.2</ele></trkpt>
    <trkpt lat="49.4447860" lon="6.3628990"><ele>147.2</ele></trkpt>
    <trkpt lat="49.4443810" lon="6.3636940"><ele>149.8</ele></trkpt>
    <trkpt lat="49.4443750" lon="6.3637160"><ele>150.2</ele></trkpt>
    <trkpt lat="49.4446140" lon="6.3640170"><ele>151.0</ele></trkpt>
    <trkpt lat="49.4449350" lon="6.3644580"><ele>149.8</ele></trkpt>
    <trkpt lat="49.4452920" lon="6.3649100"><ele>151.0</ele></trkpt>
    <trkpt lat="49.4450020" lon="6.3654280"><ele>154.8</ele></trkpt>
    <trkpt lat="49.4450390" lon="6.3654930"><ele>154.5</ele></trkpt>
    <trkpt lat="49.4450160" lon="6.3655320"><ele>154.8</ele></trkpt>
    <trkpt lat="49.4450070" lon="6.3655470"><ele>154.8</ele></trkpt>
    <trkpt lat="49.4446450" lon="6.3662310"><ele>162.2</ele></trkpt>
    <trkpt lat="49.4440090" lon="6.3673350"><ele>175.8</ele></trkpt>
    <trkpt lat="49.4437560" lon="6.3678760"><ele>183.0</ele></trkpt>
    <trkpt lat="49.4432920" lon="6.3691180"><ele>198.8</ele></trkpt>
    <trkpt lat="49.4430490" lon="6.3698050"><ele>207.8</ele></trkpt>
    <trkpt lat="49.4428240" lon="6.3704930"><ele>215.8</ele></trkpt>
    <trkpt lat="49.4427940" lon="6.3705710"><ele>216.8</ele></trkpt>
    <trkpt lat="49.4426600" lon="6.3708070"><ele>219.0</ele></trkpt>
    <trkpt lat="49.4425150" lon="6.3710630"><ele>221.5</ele></trkpt>
    <trkpt lat="49.4424570" lon="6.3712000"><ele>222.8</ele></trkpt>
    <trkpt lat="49.4424510" lon="6.3712440"><ele>223.0</ele></trkpt>
    <trkpt lat="49.4424750" lon="6.3713650"><ele>223.8</ele></trkpt>
    <trkpt lat="49.4424530" lon="6.3713830"><ele>224.0</ele></trkpt>
    <trkpt lat="49.4423910" lon="6.3714700"><ele>224.8</ele></trkpt>
    <trkpt lat="49.4423610" lon="6.3714900"><ele>225.0</ele></trkpt>
    <trkpt lat="49.4423210" lon="6.3714960"><ele>225.2</ele></trkpt>
    <trkpt lat="49.4422660" lon="6.3714790"><ele>225.2</ele></trkpt>
    <trkpt lat="49.4420900" lon="6.3713600"><ele>226.2</ele></trkpt>
    <trkpt lat="49.4420510" lon="6.3715310"><ele>227.5</ele></trkpt>
    <trkpt lat="49.4419700" lon="6.3718020"><ele>230.0</ele></trkpt>
    <trkpt lat="49.4418970" lon="6.3719560"><ele>232.5</ele></trkpt>
    <trkpt lat="49.4418540" lon="6.3721250"><ele>233.8</ele></trkpt>
    <trkpt lat="49.4420170" lon="6.3722130"><ele>232.2</ele></trkpt>
    <trkpt lat="49.4418540" lon="6.3721250"><ele>233.8</ele></trkpt>
    <trkpt lat="49.4415740" lon="6.3719600"><ele>236.0</ele></trkpt>
    <trkpt lat="49.4415380" lon="6.3718650"><ele>235.8</ele></trkpt>
    <trkpt lat="49.4412030" lon="6.3715480"><ele>236.0</ele></trkpt>
    <trkpt lat="49.4411040" lon="6.3714480"><ele>236.0</ele></trkpt>
    <trkpt lat="49.4409910" lon="6.3713350"><ele>235.5</ele></trkpt>
    <trkpt lat="49.4409360" lon="6.3711970"><ele>234.8</ele></trkpt>
    <trkpt lat="49.4408770" lon="6.3709360"><ele>233.8</ele></trkpt>
    <trkpt lat="49.4407950" lon="6.3709790"><ele>235.0</ele></trkpt>
    <trkpt lat="49.4407080" lon="6.3710620"><ele>236.5</ele></trkpt>
    <trkpt lat="49.4404370" lon="6.3714870"><ele>241.5</ele></trkpt>
    <trkpt lat="49.4402900" lon="6.3716880"><ele>244.0</ele></trkpt>
    <trkpt lat="49.4401730" lon="6.3718080"><ele>247.2</ele></trkpt>
    <trkpt lat="49.4400920" lon="6.3719120"><ele>249.2</ele></trkpt>
    <trkpt lat="49.4400590" lon="6.3720020"><ele>250.8</ele></trkpt>
    <trkpt lat="49.4400540" lon="6.3721250"><ele>252.5</ele></trkpt>
    <trkpt lat="49.4400700" lon="6.3722780"><ele>254.2</ele></trkpt>
    <trkpt lat="49.4401360" lon="6.3725020"><ele>255.5</ele></trkpt>
    <trkpt lat="49.4398000" lon="6.3723150"><ele>260.2</ele></trkpt>
    <trkpt lat="49.4394000" lon="6.3721350"><ele>267.0</ele></trkpt>
    <trkpt lat="49.4391770" lon="6.3720970"><ele>270.2</ele></trkpt>
    <trkpt lat="49.4382020" lon="6.3721240"><ele>276.8</ele></trkpt>
    <trkpt lat="49.4377510" lon="6.3721840"><ele>276.2</ele></trkpt>
    <trkpt lat="49.4372580" lon="6.3721740"><ele>277.8</ele></trkpt>
    <trkpt lat="49.4362280" lon="6.3721220"><ele>278.0</ele></trkpt>
    <trkpt lat="49.4355720" lon="6.3720360"><ele>277.8</ele></trkpt>
    <trkpt lat="49.4350480" lon="6.3720620"><ele>280.2</ele></trkpt>
    <trkpt lat="49.4345000" lon="6.3719720"><ele>279.2</ele></trkpt>
    <trkpt lat="49.4343510" lon="6.3719820"><ele>280.8</ele></trkpt>
    <trkpt lat="49.4343030" lon="6.3718790"><ele>279.2</ele></trkpt>
    <trkpt lat="49.4341800" lon="6.3716450"><ele>276.5</ele></trkpt>
    <trkpt lat="49.4340730" lon="6.3714410"><ele>275.5</ele></trkpt>
    <trkpt lat="49.4335810" lon="6.3707190"><ele>270.0</ele></trkpt>
    <trkpt lat="49.4330210" lon="6.3701660"><ele>264.2</ele></trkpt>
    <trkpt lat="49.4324890" lon="6.3697560"><ele>262.5</ele></trkpt>
    <trkpt lat="49.4321280" lon="6.3692570"><ele>257.8</ele></trkpt>
    <trkpt lat="49.4320390" lon="6.3691740"><ele>256.8</ele></trkpt>
    <trkpt lat="49.4320060" lon="6.3690900"><ele>255.5</ele></trkpt>
    <trkpt lat="49.4320150" lon="6.3690100"><ele>254.2</ele></trkpt>
    <trkpt lat="49.4321180" lon="6.3688090"><ele>250.2</ele></trkpt>
    <trkpt lat="49.4321790" lon="6.3685890"><ele>246.8</ele></trkpt>
    <trkpt lat="49.4322430" lon="6.3680940"><ele>239.2</ele></trkpt>
    <trkpt lat="49.4323850" lon="6.3674900"><ele>232.8</ele></trkpt>
    <trkpt lat="49.4322270" lon="6.3674810"><ele>233.8</ele></trkpt>
    <trkpt lat="49.4320550" lon="6.3674920"><ele>235.0</ele></trkpt>
    <trkpt lat="49.4316220" lon="6.3675740"><ele>237.2</ele></trkpt>
    <trkpt lat="49.4315060" lon="6.3676290"><ele>237.5</ele></trkpt>
    <trkpt lat="49.4312120" lon="6.3678070"><ele>238.5</ele></trkpt>
    <trkpt lat="49.4310840" lon="6.3679140"><ele>239.2</ele></trkpt>
    <trkpt lat="49.4310020" lon="6.3679990"><ele>239.8</ele></trkpt>
    <trkpt lat="49.4307340" lon="6.3682590"><ele>242.5</ele></trkpt>
    <trkpt lat="49.4304420" lon="6.3685100"><ele>244.2</ele></trkpt>
    <trkpt lat="49.4302040" lon="6.3686730"><ele>245.5</ele></trkpt>
    <trkpt lat="49.4300610" lon="6.3687430"><ele>246.2</ele></trkpt>
    <trkpt lat="49.4297890" lon="6.3688580"><ele>247.5</ele></trkpt>
    <trkpt lat="49.4294240" lon="6.3689870"><ele>248.8</ele></trkpt>
    <trkpt lat="49.4292330" lon="6.3690800"><ele>249.2</ele></trkpt>
    <trkpt lat="49.4290440" lon="6.3691270"><ele>249.0</ele></trkpt>
    <trkpt lat="49.4290080" lon="6.3691440"><ele>249.0</ele></trkpt>
    <trkpt lat="49.4289730" lon="6.3691710"><ele>249.2</ele></trkpt>
    <trkpt lat="49.4288360" lon="6.3693640"><ele>250.2</ele></trkpt>
    <trkpt lat="49.4285490" lon="6.3696050"><ele>248.5</ele></trkpt>
    <trkpt lat="49.4282860" lon="6.3698970"><ele>246.5</ele></trkpt>
    <trkpt lat="49.4279960" lon="6.3702830"><ele>244.2</ele></trkpt>
    <trkpt lat="49.4279470" lon="6.3703320"><ele>244.0</ele></trkpt>
    <trkpt lat="49.4276980" lon="6.3705510"><ele>243.2</ele></trkpt>
    <trkpt lat="49.4273430" lon="6.3707600"><ele>243.5</ele></trkpt>
    <trkpt lat="49.4269080" lon="6.3708700"><ele>243.8</ele></trkpt>
    <trkpt lat="49.4268310" lon="6.3708960"><ele>244.5</ele></trkpt>
    <trkpt lat="49.4267090" lon="6.3709440"><ele>245.5</ele></trkpt>
    <trkpt lat="49.4266140" lon="6.3710160"><ele>246.2</ele></trkpt>
    <trkpt lat="49.4264880" lon="6.3711620"><ele>247.2</ele></trkpt>
    <trkpt lat="49.4263010" lon="6.3713970"><ele>247.8</ele></trkpt>
    <trkpt lat="49.4260590" lon="6.3717890"><ele>246.8</ele></trkpt>
    <trkpt lat="49.4259850" lon="6.3718960"><ele>246.0</ele></trkpt>
    <trkpt lat="49.4253030" lon="6.3725210"><ele>240.2</ele></trkpt>
    <trkpt lat="49.4251560" lon="6.3726740"><ele>239.8</ele></trkpt>
    <trkpt lat="49.4249610" lon="6.3729130"><ele>240.0</ele></trkpt>
    <trkpt lat="49.4245240" lon="6.3732850"><ele>240.0</ele></trkpt>
    <trkpt lat="49.4243800" lon="6.3734490"><ele>240.2</ele></trkpt>
    <trkpt lat="49.4242820" lon="6.3735460"><ele>239.8</ele></trkpt>
    <trkpt lat="49.4241930" lon="6.3736550"><ele>239.2</ele></trkpt>
    <trkpt lat="49.4240940" lon="6.3738040"><ele>238.5</ele></trkpt>
    <trkpt lat="49.4240040" lon="6.3739890"><ele>238.0</ele></trkpt>
    <trkpt lat="49.4239640" lon="6.3740730"><ele>237.8</ele></trkpt>
    <trkpt lat="49.4236530" lon="6.3746020"><ele>237.8</ele></trkpt>
    <trkpt lat="49.4235100" lon="6.3748260"><ele>236.8</ele></trkpt>
    <trkpt lat="49.4232910" lon="6.3752150"><ele>235.8</ele></trkpt>
    <trkpt lat="49.4231400" lon="6.3755470"><ele>235.8</ele></trkpt>
    <trkpt lat="49.4228560" lon="6.3763970"><ele>235.0</ele></trkpt>
    <trkpt lat="49.4228000" lon="6.3765950"><ele>234.2</ele></trkpt>
    <trkpt lat="49.4227740" lon="6.3768740"><ele>233.8</ele></trkpt>
    <trkpt lat="49.4227240" lon="6.3775700"><ele>234.0</ele></trkpt>
    <trkpt lat="49.4227170" lon="6.3779150"><ele>234.0</ele></trkpt>
    <trkpt lat="49.4226820" lon="6.3785680"><ele>231.2</ele></trkpt>
    <trkpt lat="49.4225480" lon="6.3803510"><ele>224.8</ele></trkpt>
    <trkpt lat="49.4225570" lon="6.3807000"><ele>223.0</ele></trkpt>
    <trkpt lat="49.4225260" lon="6.3809680"><ele>221.8</ele></trkpt>
    <trkpt lat="49.4225880" lon="6.3809780"><ele>222.2</ele></trkpt>
    <trkpt lat="49.4225630" lon="6.3813750"><ele>219.8</ele></trkpt>
    <trkpt lat="49.4225400" lon="6.3816000"><ele>217.0</ele></trkpt>
    <trkpt lat="49.4224540" lon="6.3819540"><ele>213.2</ele></trkpt>
    <trkpt lat="49.4222720" lon="6.3822650"><ele>209.0</ele></trkpt>
    <trkpt lat="49.4221850" lon="6.3823660"><ele>208.2</ele></trkpt>
    <trkpt lat="49.4221600" lon="6.3823960"><ele>208.0</ele></trkpt>
    <trkpt lat="49.4221280" lon="6.3824350"><ele>207.8</ele></trkpt>
    <trkpt lat="49.4220630" lon="6.3825140"><ele>207.2</ele></trkpt>
    <trkpt lat="49.4220100" lon="6.3824430"><ele>207.2</ele></trkpt>
    <trkpt lat="49.4218040" lon="6.3823120"><ele>206.5</ele></trkpt>
    <trkpt lat="49.4216160" lon="6.3819200"><ele>205.8</ele></trkpt>
    <trkpt lat="49.4215790" lon="6.3818420"><ele>205.8</ele></trkpt>
    <trkpt lat="49.4214800" lon="6.3817240"><ele>205.0</ele></trkpt>
    <trkpt lat="49.4213160" lon="6.3815670"><ele>204.2</ele></trkpt>
    <trkpt lat="49.4211450" lon="6.3814020"><ele>203.2</ele></trkpt>
    <trkpt lat="49.4209150" lon="6.3811980"><ele>202.2</ele></trkpt>
    <trkpt lat="49.4205340" lon="6.3808590"><ele>200.8</ele></trkpt>
    <trkpt lat="49.4204920" lon="6.3809610"><ele>200.8</ele></trkpt>
    <trkpt lat="49.4204540" lon="6.3812180"><ele>200.8</ele></trkpt>
    <trkpt lat="49.4204920" lon="6.3809610"><ele>200.8</ele></trkpt>
    <trkpt lat="49.4205340" lon="6.3808590"><ele>200.8</ele></trkpt>
    <trkpt lat="49.4204970" lon="6.3808200"><ele>200.8</ele></trkpt>
    <trkpt lat="49.4204800" lon="6.3808030"><ele>200.5</ele></trkpt>
    <trkpt lat="49.4204900" lon="6.3807740"><ele>200.5</ele></trkpt>
    <trkpt lat="49.4204900" lon="6.3807400"><ele>200.5</ele></trkpt>
    <trkpt lat="49.4204800" lon="6.3807110"><ele>200.2</ele></trkpt>
    <trkpt lat="49.4204630" lon="6.3806920"><ele>200.2</ele></trkpt>
    <trkpt lat="49.4204710" lon="6.3806580"><ele>200.2</ele></trkpt>
    <trkpt lat="49.4205120" lon="6.3805010"><ele>199.8</ele></trkpt>
    <trkpt lat="49.4205810" lon="6.3801850"><ele>200.0</ele></trkpt>
    <trkpt lat="49.4207680" lon="6.3792570"><ele>199.5</ele></trkpt>
    <trkpt lat="49.4209730" lon="6.3783760"><ele>199.0</ele></trkpt>
    <trkpt lat="49.4210170" lon="6.3781320"><ele>199.0</ele></trkpt>
    <trkpt lat="49.4210440" lon="6.3779350"><ele>198.5</ele></trkpt>
    <trkpt lat="49.4210640" lon="6.3777180"><ele>197.5</ele></trkpt>
    <trkpt lat="49.4210770" lon="6.3774900"><ele>197.5</ele></trkpt>
    <trkpt lat="49.4210830" lon="6.3772000"><ele>197.5</ele></trkpt>
    <trkpt lat="49.4211010" lon="6.3758600"><ele>195.8</ele></trkpt>
    <trkpt lat="49.4210790" lon="6.3752570"><ele>194.8</ele></trkpt>
    <trkpt lat="49.4210260" lon="6.3747720"><ele>194.0</ele></trkpt>
    <trkpt lat="49.4209080" lon="6.3740440"><ele>193.5</ele></trkpt>
    <trkpt lat="49.4208850" lon="6.3738450"><ele>193.8</ele></trkpt>
    <trkpt lat="49.4208850" lon="6.3736600"><ele>194.2</ele></trkpt>
    <trkpt lat="49.4209200" lon="6.3732150"><ele>195.2</ele></trkpt>
    <trkpt lat="49.4208470" lon="6.3732050"><ele>194.5</ele></trkpt>
    <trkpt lat="49.4207800" lon="6.3731580"><ele>194.2</ele></trkpt>
    <trkpt lat="49.4207260" lon="6.3730800"><ele>194.2</ele></trkpt>
    <trkpt lat="49.4206920" lon="6.3729800"><ele>194.0</ele></trkpt>
    <trkpt lat="49.4206100" lon="6.3730400"><ele>194.0</ele></trkpt>
    <trkpt lat="49.4204160" lon="6.3731900"><ele>192.8</ele></trkpt>
    <trkpt lat="49.4202460" lon="6.3733350"><ele>193.8</ele></trkpt>
    <trkpt lat="49.4201850" lon="6.3734150"><ele>193.8</ele></trkpt>
    <trkpt lat="49.4200740" lon="6.3731800"><ele>192.8</ele></trkpt>
    <trkpt lat="49.4200180" lon="6.3729920"><ele>191.8</ele></trkpt>
    <trkpt lat="49.4199860" lon="6.3728150"><ele>191.0</ele></trkpt>
    <trkpt lat="49.4199610" lon="6.3725530"><ele>191.0</ele></trkpt>
    <trkpt lat="49.4198960" lon="6.3723000"><ele>190.5</ele></trkpt>
    <trkpt lat="49.4197000" lon="6.3718770"><ele>192.2</ele></trkpt>
    <trkpt lat="49.4196410" lon="6.3718100"><ele>192.5</ele></trkpt>
    <trkpt lat="49.4193380" lon="6.3715690"><ele>195.2</ele></trkpt>
    <trkpt lat="49.4188290" lon="6.3712330"><ele>201.2</ele></trkpt>
    <trkpt lat="49.4184230" lon="6.3709400"><ele>204.8</ele></trkpt>
    <trkpt lat="49.4181290" lon="6.3706450"><ele>208.8</ele></trkpt>
    <trkpt lat="49.4180040" lon="6.3704150"><ele>211.5</ele></trkpt>
    <trkpt lat="49.4178950" lon="6.3700750"><ele>215.2</ele></trkpt>
    <trkpt lat="49.4178030" lon="6.3698290"><ele>218.2</ele></trkpt>
    <trkpt lat="49.4176960" lon="6.3696300"><ele>220.2</ele></trkpt>
    <trkpt lat="49.4174370" lon="6.3692190"><ele>224.0</ele></trkpt>
    <trkpt lat="49.4173180" lon="6.3689110"><ele>228.0</ele></trkpt>
    <trkpt lat="49.4171260" lon="6.3684790"><ele>234.0</ele></trkpt>
    <trkpt lat="49.4169860" lon="6.3682200"><ele>237.8</ele></trkpt>
    <trkpt lat="49.4167910" lon="6.3679210"><ele>240.8</ele></trkpt>
    <trkpt lat="49.4165170" lon="6.3675700"><ele>243.2</ele></trkpt>
    <trkpt lat="49.4163500" lon="6.3672740"><ele>245.8</ele></trkpt>
    <trkpt lat="49.4163250" lon="6.3671700"><ele>247.2</ele></trkpt>
    <trkpt lat="49.4163280" lon="6.3670700"><ele>249.2</ele></trkpt>
    <trkpt lat="49.4163690" lon="6.3669700"><ele>251.2</ele></trkpt>
    <trkpt lat="49.4165290" lon="6.3668190"><ele>255.2</ele></trkpt>
    <trkpt lat="49.4164990" lon="6.3667050"><ele>257.0</ele></trkpt>
    <trkpt lat="49.4164460" lon="6.3665880"><ele>259.5</ele></trkpt>
    <trkpt lat="49.4163630" lon="6.3664980"><ele>261.8</ele></trkpt>
    <trkpt lat="49.4160420" lon="6.3662620"><ele>266.2</ele></trkpt>
    <trkpt lat="49.4158560" lon="6.3660410"><ele>270.2</ele></trkpt>
    <trkpt lat="49.4155470" lon="6.3656930"><ele>275.2</ele></trkpt>
    <trkpt lat="49.4153020" lon="6.3652960"><ele>280.8</ele></trkpt>
    <trkpt lat="49.4151300" lon="6.3650910"><ele>281.5</ele></trkpt>
    <trkpt lat="49.4149760" lon="6.3649690"><ele>282.2</ele></trkpt>
    <trkpt lat="49.4147970" lon="6.3648850"><ele>282.2</ele></trkpt>
    <trkpt lat="49.4145480" lon="6.3648350"><ele>281.0</ele></trkpt>
    <trkpt lat="49.4143180" lon="6.3647170"><ele>281.5</ele></trkpt>
    <trkpt lat="49.4141300" lon="6.3645450"><ele>282.2</ele></trkpt>
    <trkpt lat="49.4139620" lon="6.3644700"><ele>282.8</ele></trkpt>
    <trkpt lat="49.4138640" lon="6.3643270"><ele>284.2</ele></trkpt>
    <trkpt lat="49.4137860" lon="6.3641670"><ele>285.8</ele></trkpt>
    <trkpt lat="49.4137340" lon="6.3641380"><ele>286.0</ele></trkpt>
    <trkpt lat="49.4136890" lon="6.3641520"><ele>286.0</ele></trkpt>
    <trkpt lat="49.4136420" lon="6.3642030"><ele>285.8</ele></trkpt>
    <trkpt lat="49.4134810" lon="6.3644650"><ele>286.0</ele></trkpt>
    <trkpt lat="49.4133930" lon="6.3645690"><ele>285.8</ele></trkpt>
    <trkpt lat="49.4131640" lon="6.3647600"><ele>286.0</ele></trkpt>
    <trkpt lat="49.4124650" lon="6.3652150"><ele>283.0</ele></trkpt>
    <trkpt lat="49.4123540" lon="6.3653040"><ele>282.2</ele></trkpt>
    <trkpt lat="49.4121750" lon="6.3654710"><ele>280.8</ele></trkpt>
    <trkpt lat="49.4118480" lon="6.3657230"><ele>278.8</ele></trkpt>
    <trkpt lat="49.4117910" lon="6.3657530"><ele>278.8</ele></trkpt>
    <trkpt lat="49.4117320" lon="6.3657390"><ele>279.2</ele></trkpt>
    <trkpt lat="49.4116880" lon="6.3656500"><ele>280.8</ele></trkpt>
    <trkpt lat="49.4116560" lon="6.3652540"><ele>285.0</ele></trkpt>
    <trkpt lat="49.4116420" lon="6.3644340"><ele>289.0</ele></trkpt>
    <trkpt lat="49.4116540" lon="6.3642250"><ele>289.0</ele></trkpt>
    <trkpt lat="49.4116430" lon="6.3640530"><ele>289.2</ele></trkpt>
    <trkpt lat="49.4116380" lon="6.3629570"><ele>293.0</ele></trkpt>
    <trkpt lat="49.4116400" lon="6.3617030"><ele>294.8</ele></trkpt>
    <trkpt lat="49.4113870" lon="6.3617900"><ele>293.8</ele></trkpt>
    <trkpt lat="49.4109400" lon="6.3619830"><ele>292.2</ele></trkpt>
    <trkpt lat="49.4104380" lon="6.3622190"><ele>291.5</ele></trkpt>
    <trkpt lat="49.4098100" lon="6.3624980"><ele>290.0</ele></trkpt>
    <trkpt lat="49.4095300" lon="6.3626370"><ele>289.2</ele></trkpt>
    <trkpt lat="49.4091200" lon="6.3628810"><ele>288.0</ele></trkpt>
    <trkpt lat="49.4085360" lon="6.3631370"><ele>286.8</ele></trkpt>
    <trkpt lat="49.4083890" lon="6.3632190"><ele>286.5</ele></trkpt>
    <trkpt lat="49.4081690" lon="6.3633590"><ele>285.8</ele></trkpt>
    <trkpt lat="49.4080460" lon="6.3633910"><ele>286.0</ele></trkpt>
    <trkpt lat="49.4078870" lon="6.3633950"><ele>286.5</ele></trkpt>
    <trkpt lat="49.4077430" lon="6.3633460"><ele>287.0</ele></trkpt>
    <trkpt lat="49.4075970" lon="6.3632490"><ele>288.0</ele></trkpt>
    <trkpt lat="49.4074590" lon="6.3631020"><ele>288.2</ele></trkpt>
    <trkpt lat="49.4072950" lon="6.3628570"><ele>288.8</ele></trkpt>
    <trkpt lat="49.4070690" lon="6.3625000"><ele>289.0</ele></trkpt>
    <trkpt lat="49.4068590" lon="6.3622500"><ele>288.5</ele></trkpt>
    <trkpt lat="49.4067040" lon="6.3620820"><ele>288.2</ele></trkpt>
    <trkpt lat="49.4064190" lon="6.3618100"><ele>287.8</ele></trkpt>
    <trkpt lat="49.4061780" lon="6.3616060"><ele>287.2</ele></trkpt>
    <trkpt lat="49.4059850" lon="6.3614870"><ele>287.0</ele></trkpt>
    <trkpt lat="49.4058590" lon="6.3614190"><ele>287.0</ele></trkpt>
    <trkpt lat="49.4055270" lon="6.3613620"><ele>285.8</ele></trkpt>
    <trkpt lat="49.4054030" lon="6.3613740"><ele>285.2</ele></trkpt>
    <trkpt lat="49.4051030" lon="6.3615160"><ele>284.8</ele></trkpt>
    <trkpt lat="49.4051870" lon="6.3612720"><ele>283.8</ele></trkpt>
    <trkpt lat="49.4051990" lon="6.3611720"><ele>283.0</ele></trkpt>
    <trkpt lat="49.4051800" lon="6.3610500"><ele>282.2</ele></trkpt>
    <trkpt lat="49.4051200" lon="6.3608470"><ele>280.8</ele></trkpt>
    <trkpt lat="49.4050220" lon="6.3606320"><ele>279.2</ele></trkpt>
    <trkpt lat="49.4048510" lon="6.3603500"><ele>278.0</ele></trkpt>
    <trkpt lat="49.4047060" lon="6.3601680"><ele>276.5</ele></trkpt>
    <trkpt lat="49.4044800" lon="6.3599700"><ele>275.0</ele></trkpt>
    <trkpt lat="49.4042920" lon="6.3598450"><ele>274.2</ele></trkpt>
    <trkpt lat="49.4036030" lon="6.3594570"><ele>270.8</ele></trkpt>
    <trkpt lat="49.4034880" lon="6.3593630"><ele>270.5</ele></trkpt>
    <trkpt lat="49.4033730" lon="6.3591930"><ele>270.0</ele></trkpt>
    <trkpt lat="49.4026150" lon="6.3573800"><ele>267.0</ele></trkpt>
    <trkpt lat="49.4022420" lon="6.3564600"><ele>268.8</ele></trkpt>
    <trkpt lat="49.4019320" lon="6.3558200"><ele>271.0</ele></trkpt>
    <trkpt lat="49.4017880" lon="6.3555810"><ele>272.5</ele></trkpt>
    <trkpt lat="49.4016380" lon="6.3554190"><ele>274.2</ele></trkpt>
    <trkpt lat="49.4009660" lon="6.3548460"><ele>282.0</ele></trkpt>
    <trkpt lat="49.4005510" lon="6.3544560"><ele>281.8</ele></trkpt>
    <trkpt lat="49.4003550" lon="6.3543060"><ele>281.2</ele></trkpt>
    <trkpt lat="49.3999780" lon="6.3540470"><ele>279.8</ele></trkpt>
    <trkpt lat="49.3997370" lon="6.3538360"><ele>278.0</ele></trkpt>
    <trkpt lat="49.3995010" lon="6.3535870"><ele>276.2</ele></trkpt>
    <trkpt lat="49.3992510" lon="6.3532780"><ele>274.5</ele></trkpt>
    <trkpt lat="49.3991180" lon="6.3530840"><ele>273.8</ele></trkpt>
    <trkpt lat="49.3990100" lon="6.3529620"><ele>273.2</ele></trkpt>
    <trkpt lat="49.3990000" lon="6.3529720"><ele>273.2</ele></trkpt>
    <trkpt lat="49.3989790" lon="6.3529940"><ele>273.2</ele></trkpt>
    <trkpt lat="49.3987720" lon="6.3531960"><ele>272.5</ele></trkpt>
    <trkpt lat="49.3983530" lon="6.3534860"><ele>271.0</ele></trkpt>
    <trkpt lat="49.3979950" lon="6.3538190"><ele>268.0</ele></trkpt>
    <trkpt lat="49.3983530" lon="6.3534860"><ele>271.0</ele></trkpt>
    <trkpt lat="49.3987720" lon="6.3531960"><ele>272.5</ele></trkpt>
    <trkpt lat="49.3989790" lon="6.3529940"><ele>273.2</ele></trkpt>
    <trkpt lat="49.3990000" lon="6.3529720"><ele>273.2</ele></trkpt>
    <trkpt lat="49.3990100" lon="6.3529620"><ele>273.2</ele></trkpt>
    <trkpt lat="49.3990830" lon="6.3529320"><ele>273.5</ele></trkpt>
    <trkpt lat="49.3997470" lon="6.3528190"><ele>277.0</ele></trkpt>
    <trkpt lat="49.4000660" lon="6.3527770"><ele>279.0</ele></trkpt>
    <trkpt lat="49.4003550" lon="6.3527610"><ele>280.2</ele></trkpt>
    <trkpt lat="49.4006780" lon="6.3527180"><ele>281.8</ele></trkpt>
    <trkpt lat="49.4010020" lon="6.3526590"><ele>283.2</ele></trkpt>
    <trkpt lat="49.4012960" lon="6.3525810"><ele>283.8</ele></trkpt>
    <trkpt lat="49.4017300" lon="6.3524820"><ele>283.8</ele></trkpt>
    <trkpt lat="49.4018890" lon="6.3524800"><ele>283.2</ele></trkpt>
    <trkpt lat="49.4022040" lon="6.3525990"><ele>281.0</ele></trkpt>
    <trkpt lat="49.4027200" lon="6.3528430"><ele>275.8</ele></trkpt>
    <trkpt lat="49.4028260" lon="6.3528600"><ele>274.8</ele></trkpt>
    <trkpt lat="49.4029200" lon="6.3528510"><ele>273.5</ele></trkpt>
    <trkpt lat="49.4030810" lon="6.3527990"><ele>271.5</ele></trkpt>
    <trkpt lat="49.4032830" lon="6.3527880"><ele>270.2</ele></trkpt>
    <trkpt lat="49.4037760" lon="6.3528320"><ele>267.0</ele></trkpt>
    <trkpt lat="49.4040810" lon="6.3528350"><ele>265.5</ele></trkpt>
    <trkpt lat="49.4042300" lon="6.3528520"><ele>265.0</ele></trkpt>
    <trkpt lat="49.4044980" lon="6.3529180"><ele>264.8</ele></trkpt>
    <trkpt lat="49.4050690" lon="6.3530230"><ele>266.2</ele></trkpt>
    <trkpt lat="49.4053480" lon="6.3530920"><ele>268.5</ele></trkpt>
    <trkpt lat="49.4056590" lon="6.3531330"><ele>270.5</ele></trkpt>
    <trkpt lat="49.4058550" lon="6.3531170"><ele>272.0</ele></trkpt>
    <trkpt lat="49.4059330" lon="6.3530680"><ele>272.2</ele></trkpt>
    <trkpt lat="49.4066310" lon="6.3519110"><ele>272.8</ele></trkpt>
    <trkpt lat="49.4072580" lon="6.3509720"><ele>271.5</ele></trkpt>
    <trkpt lat="49.4074880" lon="6.3507210"><ele>272.5</ele></trkpt>
    <trkpt lat="49.4077160" lon="6.3505240"><ele>272.5</ele></trkpt>
    <trkpt lat="49.4083030" lon="6.3501270"><ele>272.2</ele></trkpt>
    <trkpt lat="49.4084850" lon="6.3500450"><ele>272.5</ele></trkpt>
    <trkpt lat="49.4088500" lon="6.3499410"><ele>272.5</ele></trkpt>
    <trkpt lat="49.4090360" lon="6.3499490"><ele>272.5</ele></trkpt>
    <trkpt lat="49.4091520" lon="6.3500370"><ele>273.2</ele></trkpt>
    <trkpt lat="49.4092170" lon="6.3501020"><ele>273.5</ele></trkpt>
    <trkpt lat="49.4092970" lon="6.3501100"><ele>273.2</ele></trkpt>
    <trkpt lat="49.4099170" lon="6.3496780"><ele>269.2</ele></trkpt>
    <trkpt lat="49.4101020" lon="6.3495290"><ele>269.0</ele></trkpt>
    <trkpt lat="49.4105190" lon="6.3490340"><ele>269.0</ele></trkpt>
    <trkpt lat="49.4109880" lon="6.3486690"><ele>270.5</ele></trkpt>
    <trkpt lat="49.4112050" lon="6.3485690"><ele>270.8</ele></trkpt>
    <trkpt lat="49.4112580" lon="6.3488360"><ele>273.0</ele></trkpt>
    <trkpt lat="49.4117220" lon="6.3486440"><ele>272.0</ele></trkpt>
    <trkpt lat="49.4121600" lon="6.3486030"><ele>271.8</ele></trkpt>
    <trkpt lat="49.4121980" lon="6.3484440"><ele>270.0</ele></trkpt>
    <trkpt lat="49.4122820" lon="6.3483140"><ele>268.5</ele></trkpt>
    <trkpt lat="49.4124440" lon="6.3482420"><ele>267.5</ele></trkpt>
    <trkpt lat="49.4127990" lon="6.3481800"><ele>266.8</ele></trkpt>
    <trkpt lat="49.4131860" lon="6.3482280"><ele>266.8</ele></trkpt>
    <trkpt lat="49.4135900" lon="6.3483020"><ele>265.5</ele></trkpt>
    <trkpt lat="49.4137610" lon="6.3483650"><ele>265.2</ele></trkpt>
    <trkpt lat="49.4138250" lon="6.3483540"><ele>264.8</ele></trkpt>
    <trkpt lat="49.4139610" lon="6.3482600"><ele>262.5</ele></trkpt>
    <trkpt lat="49.4141600" lon="6.3482470"><ele>261.8</ele></trkpt>
    <trkpt lat="49.4142980" lon="6.3481530"><ele>260.0</ele></trkpt>
    <trkpt lat="49.4144410" lon="6.3481020"><ele>259.5</ele></trkpt>
    <trkpt lat="49.4146470" lon="6.3480940"><ele>259.2</ele></trkpt>
    <trkpt lat="49.4150900" lon="6.3480020"><ele>255.8</ele></trkpt>
    <trkpt lat="49.4150620" lon="6.3482260"><ele>257.5</ele></trkpt>
    <trkpt lat="49.4150860" lon="6.3485690"><ele>259.8</ele></trkpt>
    <trkpt lat="49.4153910" lon="6.3498300"><ele>263.8</ele></trkpt>
    <trkpt lat="49.4155730" lon="6.3506990"><ele>265.8</ele></trkpt>
    <trkpt lat="49.4157580" lon="6.3512000"><ele>266.0</ele></trkpt>
    <trkpt lat="49.4159430" lon="6.3517830"><ele>267.2</ele></trkpt>
    <trkpt lat="49.4160340" lon="6.3520160"><ele>267.5</ele></trkpt>
    <trkpt lat="49.4161270" lon="6.3520000"><ele>267.0</ele></trkpt>
    <trkpt lat="49.4162720" lon="6.3519970"><ele>267.0</ele></trkpt>
    <trkpt lat="49.4163790" lon="6.3520250"><ele>267.2</ele></trkpt>
    <trkpt lat="49.4164860" lon="6.3520330"><ele>267.5</ele></trkpt>
    <trkpt lat="49.4166280" lon="6.3520880"><ele>268.2</ele></trkpt>
    <trkpt lat="49.4167440" lon="6.3521070"><ele>269.2</ele></trkpt>
    <trkpt lat="49.4168630" lon="6.3520440"><ele>270.0</ele></trkpt>
    <trkpt lat="49.4170070" lon="6.3518870"><ele>271.8</ele></trkpt>
    <trkpt lat="49.4171910" lon="6.3516010"><ele>274.8</ele></trkpt>
    <trkpt lat="49.4174410" lon="6.3510590"><ele>280.8</ele></trkpt>
    <trkpt lat="49.4175910" lon="6.3509090"><ele>282.8</ele></trkpt>
    <trkpt lat="49.4177630" lon="6.3508000"><ele>284.8</ele></trkpt>
    <trkpt lat="49.4179750" lon="6.3507230"><ele>286.0</ele></trkpt>
    <trkpt lat="49.4183280" lon="6.3506920"><ele>286.2</ele></trkpt>
    <trkpt lat="49.4185330" lon="6.3506480"><ele>286.2</ele></trkpt>
    <trkpt lat="49.4186970" lon="6.3506490"><ele>286.2</ele></trkpt>
    <trkpt lat="49.4188130" lon="6.3506140"><ele>286.0</ele></trkpt>
    <trkpt lat="49.4189440" lon="6.3504970"><ele>285.5</ele></trkpt>
    <trkpt lat="49.4190230" lon="6.3504860"><ele>285.2</ele></trkpt>
    <trkpt lat="49.4188000" lon="6.3509320"><ele>287.5</ele></trkpt>
    <trkpt lat="49.4186220" lon="6.3513880"><ele>289.0</ele></trkpt>
    <trkpt lat="49.4184880" lon="6.3518560"><ele>291.0</ele></trkpt>
    <trkpt lat="49.4182590" lon="6.3527320"><ele>290.8</ele></trkpt>
    <trkpt lat="49.4180630" lon="6.3536190"><ele>288.0</ele></trkpt>
    <trkpt lat="49.4180250" lon="6.3539390"><ele>287.0</ele></trkpt>
    <trkpt lat="49.4180140" lon="6.3542790"><ele>285.8</ele></trkpt>
    <trkpt lat="49.4180400" lon="6.3546190"><ele>285.0</ele></trkpt>
    <trkpt lat="49.4180400" lon="6.3547670"><ele>284.8</ele></trkpt>
    <trkpt lat="49.4181950" lon="6.3550050"><ele>286.8</ele></trkpt>
    <trkpt lat="49.4183650" lon="6.3552380"><ele>288.5</ele></trkpt>
    <trkpt lat="49.4186440" lon="6.3556940"><ele>291.0</ele></trkpt>
    <trkpt lat="49.4194640" lon="6.3572400"><ele>295.0</ele></trkpt>
    <trkpt lat="49.4203440" lon="6.3589220"><ele>298.5</ele></trkpt>
    <trkpt lat="49.4204530" lon="6.3592160"><ele>299.0</ele></trkpt>
    <trkpt lat="49.4205730" lon="6.3594950"><ele>299.2</ele></trkpt>
    <trkpt lat="49.4206040" lon="6.3595670"><ele>299.2</ele></trkpt>
    <trkpt lat="49.4206720" lon="6.3596930"><ele>299.8</ele></trkpt>
    <trkpt lat="49.4207480" lon="6.3597910"><ele>300.2</ele></trkpt>
    <trkpt lat="49.4208140" lon="6.3598680"><ele>300.8</ele></trkpt>
    <trkpt lat="49.4208700" lon="6.3599520"><ele>301.2</ele></trkpt>
    <trkpt lat="49.4209930" lon="6.3601990"><ele>303.0</ele></trkpt>
    <trkpt lat="49.4211780" lon="6.3605480"><ele>304.2</ele></trkpt>
    <trkpt lat="49.4212030" lon="6.3606330"><ele>304.5</ele></trkpt>
    <trkpt lat="49.4212130" lon="6.3606970"><ele>304.5</ele></trkpt>
    <trkpt lat="49.4219750" lon="6.3609710"><ele>309.8</ele></trkpt>
    <trkpt lat="49.4222830" lon="6.3616730"><ele>307.5</ele></trkpt>
    <trkpt lat="49.4222540" lon="6.3620950"><ele>305.8</ele></trkpt>
    <trkpt lat="49.4222490" lon="6.3621990"><ele>305.5</ele></trkpt>
    <trkpt lat="49.4223340" lon="6.3623060"><ele>302.5</ele></trkpt>
    <trkpt lat="49.4223620" lon="6.3623880"><ele>301.0</ele></trkpt>
    <trkpt lat="49.4223650" lon="6.3624750"><ele>300.0</ele></trkpt>
    <trkpt lat="49.4223070" lon="6.3627680"><ele>296.8</ele></trkpt>
    <trkpt lat="49.4221460" lon="6.3630720"><ele>293.8</ele></trkpt>
    <trkpt lat="49.4221000" lon="6.3632000"><ele>291.5</ele></trkpt>
    <trkpt lat="49.4221320" lon="6.3632140"><ele>290.0</ele></trkpt>
    <trkpt lat="49.4221760" lon="6.3632080"><ele>288.5</ele></trkpt>
    <trkpt lat="49.4222380" lon="6.3631640"><ele>287.8</ele></trkpt>
    <trkpt lat="49.4222930" lon="6.3631450"><ele>286.0</ele></trkpt>
    <trkpt lat="49.4224730" lon="6.3630090"><ele>283.2</ele></trkpt>
    <trkpt lat="49.4226070" lon="6.3628500"><ele>281.8</ele></trkpt>
    <trkpt lat="49.4226400" lon="6.3627800"><ele>282.2</ele></trkpt>
    <trkpt lat="49.4226410" lon="6.3626180"><ele>286.2</ele></trkpt>
    <trkpt lat="49.4226540" lon="6.3624410"><ele>289.8</ele></trkpt>
    <trkpt lat="49.4227670" lon="6.3622700"><ele>288.2</ele></trkpt>
    <trkpt lat="49.4228940" lon="6.3621960"><ele>283.5</ele></trkpt>
    <trkpt lat="49.4229510" lon="6.3621900"><ele>280.8</ele></trkpt>
    <trkpt lat="49.4229690" lon="6.3621880"><ele>280.0</ele></trkpt>
    <trkpt lat="49.4230220" lon="6.3621840"><ele>277.5</ele></trkpt>
    <trkpt lat="49.4230410" lon="6.3621820"><ele>276.5</ele></trkpt>
    <trkpt lat="49.4231630" lon="6.3621700"><ele>271.0</ele></trkpt>
    <trkpt lat="49.4233020" lon="6.3621120"><ele>266.0</ele></trkpt>
    <trkpt lat="49.4235320" lon="6.3618910"><ele>263.5</ele></trkpt>
    <trkpt lat="49.4236220" lon="6.3619110"><ele>260.2</ele></trkpt>
    <trkpt lat="49.4237690" lon="6.3617290"><ele>260.0</ele></trkpt>
    <trkpt lat="49.4239290" lon="6.3616310"><ele>258.0</ele></trkpt>
    <trkpt lat="49.4240500" lon="6.3615090"><ele>257.8</ele></trkpt>
    <trkpt lat="49.4243860" lon="6.3610990"><ele>258.0</ele></trkpt>
    <trkpt lat="49.4246210" lon="6.3608750"><ele>257.8</ele></trkpt>
    <trkpt lat="49.4249150" lon="6.3606430"><ele>257.0</ele></trkpt>
    <trkpt lat="49.4250650" lon="6.3604660"><ele>257.8</ele></trkpt>
    <trkpt lat="49.4251310" lon="6.3603530"><ele>258.8</ele></trkpt>
    <trkpt lat="49.4254520" lon="6.3599990"><ele>261.0</ele></trkpt>
    <trkpt lat="49.4256680" lon="6.3598330"><ele>262.5</ele></trkpt>
    <trkpt lat="49.4257840" lon="6.3597740"><ele>262.5</ele></trkpt>
    <trkpt lat="49.4258940" lon="6.3597420"><ele>262.0</ele></trkpt>
    <trkpt lat="49.4259920" lon="6.3596660"><ele>262.0</ele></trkpt>
    <trkpt lat="49.4261650" lon="6.3594960"><ele>263.2</ele></trkpt>
    <trkpt lat="49.4263260" lon="6.3594880"><ele>261.8</ele></trkpt>
    <trkpt lat="49.4264550" lon="6.3594960"><ele>260.2</ele></trkpt>
    <trkpt lat="49.4266090" lon="6.3594400"><ele>259.5</ele></trkpt>
    <trkpt lat="49.4266990" lon="6.3593890"><ele>259.8</ele></trkpt>
    <trkpt lat="49.4268150" lon="6.3593750"><ele>259.2</ele></trkpt>
    <trkpt lat="49.4269140" lon="6.3594440"><ele>257.0</ele></trkpt>
    <trkpt lat="49.4270140" lon="6.3594810"><ele>255.8</ele></trkpt>
    <trkpt lat="49.4271950" lon="6.3594600"><ele>254.8</ele></trkpt>
    <trkpt lat="49.4273250" lon="6.3595280"><ele>253.0</ele></trkpt>
    <trkpt lat="49.4274580" lon="6.3595300"><ele>252.2</ele></trkpt>
    <trkpt lat="49.4275560" lon="6.3594960"><ele>252.2</ele></trkpt>
    <trkpt lat="49.4276300" lon="6.3594960"><ele>251.8</ele></trkpt>
    <trkpt lat="49.4276570" lon="6.3595470"><ele>250.5</ele></trkpt>
    <trkpt lat="49.4278230" lon="6.3594990"><ele>250.5</ele></trkpt>
    <trkpt lat="49.4281070" lon="6.3593780"><ele>252.2</ele></trkpt>
    <trkpt lat="49.4285430" lon="6.3592980"><ele>252.8</ele></trkpt>
    <trkpt lat="49.4287630" lon="6.3592150"><ele>254.2</ele></trkpt>
    <trkpt lat="49.4289050" lon="6.3591840"><ele>254.5</ele></trkpt>
    <trkpt lat="49.4290880" lon="6.3591840"><ele>253.8</ele></trkpt>
    <trkpt lat="49.4293200" lon="6.3591500"><ele>253.5</ele></trkpt>
    <trkpt lat="49.4296270" lon="6.3590800"><ele>253.5</ele></trkpt>
    <trkpt lat="49.4303190" lon="6.3588870"><ele>249.5</ele></trkpt>
    <trkpt lat="49.4304000" lon="6.3588380"><ele>249.5</ele></trkpt>
    <trkpt lat="49.4305380" lon="6.3590900"><ele>246.0</ele></trkpt>
    <trkpt lat="49.4306990" lon="6.3593630"><ele>242.0</ele></trkpt>
    <trkpt lat="49.4308030" lon="6.3594770"><ele>240.0</ele></trkpt>
    <trkpt lat="49.4309340" lon="6.3595360"><ele>238.0</ele></trkpt>
    <trkpt lat="49.4310520" lon="6.3595500"><ele>236.2</ele></trkpt>
    <trkpt lat="49.4312420" lon="6.3595430"><ele>234.0</ele></trkpt>
    <trkpt lat="49.4315440" lon="6.3595440"><ele>230.0</ele></trkpt>
    <trkpt lat="49.4317140" lon="6.3595270"><ele>228.0</ele></trkpt>
    <trkpt lat="49.4319170" lon="6.3594980"><ele>225.8</ele></trkpt>
    <trkpt lat="49.4319240" lon="6.3595960"><ele>225.0</ele></trkpt>
    <trkpt lat="49.4319540" lon="6.3596820"><ele>224.0</ele></trkpt>
    <trkpt lat="49.4320050" lon="6.3597430"><ele>223.2</ele></trkpt>
    <trkpt lat="49.4320660" lon="6.3597700"><ele>222.5</ele></trkpt>
    <trkpt lat="49.4321300" lon="6.3597580"><ele>222.2</ele></trkpt>
    <trkpt lat="49.4323320" lon="6.3596210"><ele>221.5</ele></trkpt>
    <trkpt lat="49.4324650" lon="6.3595660"><ele>220.8</ele></trkpt>
    <trkpt lat="49.4326620" lon="6.3595390"><ele>220.0</ele></trkpt>
    <trkpt lat="49.4331860" lon="6.3595690"><ele>215.2</ele></trkpt>
    <trkpt lat="49.4333130" lon="6.3596030"><ele>214.2</ele></trkpt>
    <trkpt lat="49.4334870" lon="6.3597060"><ele>212.0</ele></trkpt>
    <trkpt lat="49.4342300" lon="6.3601160"><ele>204.8</ele></trkpt>
    <trkpt lat="49.4344030" lon="6.3602000"><ele>203.2</ele></trkpt>
    <trkpt lat="49.4348180" lon="6.3603670"><ele>198.2</ele></trkpt>
    <trkpt lat="49.4351990" lon="6.3604750"><ele>193.8</ele></trkpt>
    <trkpt lat="49.4353010" lon="6.3604950"><ele>192.5</ele></trkpt>
    <trkpt lat="49.4354080" lon="6.3605030"><ele>191.8</ele></trkpt>
    <trkpt lat="49.4355170" lon="6.3604860"><ele>191.2</ele></trkpt>
    <trkpt lat="49.4356470" lon="6.3604520"><ele>190.2</ele></trkpt>
    <trkpt lat="49.4367560" lon="6.3601690"><ele>181.2</ele></trkpt>
    <trkpt lat="49.4368970" lon="6.3601570"><ele>179.2</ele></trkpt>
    <trkpt lat="49.4369970" lon="6.3601640"><ele>178.2</ele></trkpt>
    <trkpt lat="49.4370860" lon="6.3601870"><ele>177.2</ele></trkpt>
    <trkpt lat="49.4375070" lon="6.3603560"><ele>174.0</ele></trkpt>
    <trkpt lat="49.4376330" lon="6.3604090"><ele>172.5</ele></trkpt>
    <trkpt lat="49.4376830" lon="6.3604250"><ele>172.0</ele></trkpt>
    <trkpt lat="49.4377270" lon="6.3604360"><ele>171.5</ele></trkpt>
    <trkpt lat="49.4382750" lon="6.3605220"><ele>167.8</ele></trkpt>
    <trkpt lat="49.4383300" lon="6.3605150"><ele>167.2</ele></trkpt>
    <trkpt lat="49.4383840" lon="6.3604990"><ele>167.0</ele></trkpt>
    <trkpt lat="49.4389370" lon="6.3601240"><ele>170.2</ele></trkpt>
    <trkpt lat="49.4389630" lon="6.3601060"><ele>170.0</ele></trkpt>
    <trkpt lat="49.4393560" lon="6.3597170"><ele>166.8</ele></trkpt>
    <trkpt lat="49.4395400" lon="6.3595830"><ele>165.2</ele></trkpt>
    <trkpt lat="49.4398210" lon="6.3594300"><ele>165.8</ele></trkpt>
    <trkpt lat="49.4399400" lon="6.3594140"><ele>165.5</ele></trkpt>
    <trkpt lat="49.4401370" lon="6.3594150"><ele>165.0</ele></trkpt>
    <trkpt lat="49.4408800" lon="6.3596840"><ele>162.8</ele></trkpt>
    <trkpt lat="49.4408570" lon="6.3598870"><ele>155.2</ele></trkpt>
    <trkpt lat="49.4406780" lon="6.3598320"><ele>154.5</ele></trkpt>
    <trkpt lat="49.4403610" lon="6.3597340"><ele>153.5</ele></trkpt>
    <trkpt lat="49.4402550" lon="6.3596930"><ele>154.2</ele></trkpt>
  </trkseg></trk>
</gpx>