<?xml version="1.0" encoding="UTF-8"?>
<kml xmlns="http://www.opengis.net/kml/2.2"><Document>
  <name>Les pelouses de Montenach</name><description>15.5 km. D+ 330 m. 54 % de chemins. Depart : Sous le chateau de Sierck-les-Bains (45 min de Metz). La reserve naturelle des pelouses calcaires, ses orchidees et ses vues sur la boucle de la Moselle, puis le plateau agricole ; depart du chateau de Sierck.</description>
  <Style id="depart"><IconStyle><scale>1.2</scale><Icon><href>http://maps.google.com/mapfiles/kml/paddle/grn-circle.png</href></Icon></IconStyle></Style>
  <Style id="etape"><IconStyle><Icon><href>http://maps.google.com/mapfiles/kml/paddle/wht-blank.png</href></Icon></IconStyle></Style>
    <Placemark><name>Depart : Chateau des ducs de Lorraine, Sierck-les-Bains</name><description>Depart en voiture, 45 min de Metz. Parking sous le chateau.</description><styleUrl>#depart</styleUrl><Point><coordinates>6.3597380,49.4400980,0</coordinates></Point></Placemark>
    <Placemark><name>1. Rustroff</name><description>Village au-dessus de Sierck, entre vignes et pelouses seches.</description><styleUrl>#etape</styleUrl><Point><coordinates>6.3720460,49.4421580,0</coordinates></Point></Placemark>
    <Placemark><name>2. Montenach</name><description>Village au pied de la reserve naturelle des pelouses calcaires, orchidees au printemps, vues sur la boucle de la Moselle.</description><styleUrl>#etape</styleUrl><Point><coordinates>6.3811970,49.4203550,0</coordinates></Point></Placemark>
    <Placemark><name>3. Kerling-les-Sierck</name><description>Village le plus au sud du secteur, sur le plateau agricole.</description><styleUrl>#etape</styleUrl><Point><coordinates>6.3532430,49.3977660,0</coordinates></Point></Placemark>
    <Placemark><name>4. Ferme du Koenigsberg</name><description>Ferme isolee sur le plateau, au-dessus de la reserve de Montenach.</description><styleUrl>#etape</styleUrl><Point><coordinates>6.3595130,49.4205570,0</coordinates></Point></Placemark>
    <Style id="t1"><LineStyle><color>ffA0522D</color><width>4</width></LineStyle></Style>
    <Placemark><name>Les pelouses de Montenach</name><description>15.5 km. D+ 330 m. 54 % de chemins. Depart : Sous le chateau de Sierck-les-Bains (45 min de Metz). La reserve naturelle des pelouses calcaires, ses orchidees et ses vues sur la boucle de la Moselle, puis le plateau agricole ; depart du chateau de Sierck.</description><styleUrl>#t1</styleUrl><LineString><tessellate>1</tessellate><coordinates>6.3596930,49.4402550,154 6.3597340,49.4403610,154 6.3598320,49.4406780,154 6.3598870,49.4408570,155 6.3596840,49.4408800,163 6.3598250,49.4413770,161 6.3598810,49.4415480,159 6.3599100,49.4416020,158 6.3602170,49.4419080,154 6.3602910,49.4422200,150 6.3602500,49.4423490,149 6.3602450,49.4423680,149 6.3601480,49.4425250,148 6.3599300,49.4427090,148 6.3599520,49.4427240,148 6.3599050,49.4427540,148 6.3597210,49.4428740,148 6.3602430,49.4431950,148 6.3604800,49.4433680,148 6.3608820,49.4436750,148 6.3611080,49.4438970,148 6.3613630,49.4441200,147 6.3615450,49.4442620,147 6.3616430,49.4443190,147 6.3617380,49.4443620,147 6.3618000,49.4443370,147 6.3619000,49.4442780,147 6.3619180,49.4442550,147 6.3619540,49.4441860,147 6.3619860,49.4441580,147 6.3620870,49.4441100,147 6.3624790,49.4444570,147 6.3625450,49.4445080,147 6.3628990,49.4447860,147 6.3636940,49.4443810,150 6.3637160,49.4443750,150 6.3640170,49.4446140,151 6.3644580,49.4449350,150 6.3649100,49.4452920,151 6.3654280,49.4450020,155 6.3654930,49.4450390,154 6.3655320,49.4450160,155 6.3655470,49.4450070,155 6.3662310,49.4446450,162 6.3673350,49.4440090,176 6.3678760,49.4437560,183 6.3691180,49.4432920,199 6.3698050,49.4430490,208 6.3704930,49.4428240,216 6.3705710,49.4427940,217 6.3708070,49.4426600,219 6.3710630,49.4425150,222 6.3712000,49.4424570,223 6.3712440,49.4424510,223 6.3713650,49.4424750,224 6.3713830,49.4424530,224 6.3714700,49.4423910,225 6.3714900,49.4423610,225 6.3714960,49.4423210,225 6.3714790,49.4422660,225 6.3713600,49.4420900,226 6.3715310,49.4420510,228 6.3718020,49.4419700,230 6.3719560,49.4418970,232 6.3721250,49.4418540,234 6.3722130,49.4420170,232 6.3721250,49.4418540,234 6.3719600,49.4415740,236 6.3718650,49.4415380,236 6.3715480,49.4412030,236 6.3714480,49.4411040,236 6.3713350,49.4409910,236 6.3711970,49.4409360,235 6.3709360,49.4408770,234 6.3709790,49.4407950,235 6.3710620,49.4407080,236 6.3714870,49.4404370,242 6.3716880,49.4402900,244 6.3718080,49.4401730,247 6.3719120,49.4400920,249 6.3720020,49.4400590,251 6.3721250,49.4400540,252 6.3722780,49.4400700,254 6.3725020,49.4401360,256 6.3723150,49.4398000,260 6.3721350,49.4394000,267 6.3720970,49.4391770,270 6.3721240,49.4382020,277 6.3721840,49.4377510,276 6.3721740,49.4372580,278 6.3721220,49.4362280,278 6.3720360,49.4355720,278 6.3720620,49.4350480,280 6.3719720,49.4345000,279 6.3719820,49.4343510,281 6.3718790,49.4343030,279 6.3716450,49.4341800,276 6.3714410,49.4340730,276 6.3707190,49.4335810,270 6.3701660,49.4330210,264 6.3697560,49.4324890,262 6.3692570,49.4321280,258 6.3691740,49.4320390,257 6.3690900,49.4320060,256 6.3690100,49.4320150,254 6.3688090,49.4321180,250 6.3685890,49.4321790,247 6.3680940,49.4322430,239 6.3674900,49.4323850,233 6.3674810,49.4322270,234 6.3674920,49.4320550,235 6.3675740,49.4316220,237 6.3676290,49.4315060,238 6.3678070,49.4312120,238 6.3679140,49.4310840,239 6.3679990,49.4310020,240 6.3682590,49.4307340,242 6.3685100,49.4304420,244 6.3686730,49.4302040,246 6.3687430,49.4300610,246 6.3688580,49.4297890,248 6.3689870,49.4294240,249 6.3690800,49.4292330,249 6.3691270,49.4290440,249 6.3691440,49.4290080,249 6.3691710,49.4289730,249 6.3693640,49.4288360,250 6.3696050,49.4285490,248 6.3698970,49.4282860,246 6.3702830,49.4279960,244 6.3703320,49.4279470,244 6.3705510,49.4276980,243 6.3707600,49.4273430,244 6.3708700,49.4269080,244 6.3708960,49.4268310,244 6.3709440,49.4267090,246 6.3710160,49.4266140,246 6.3711620,49.4264880,247 6.3713970,49.4263010,248 6.3717890,49.4260590,247 6.3718960,49.4259850,246 6.3725210,49.4253030,240 6.3726740,49.4251560,240 6.3729130,49.4249610,240 6.3732850,49.4245240,240 6.3734490,49.4243800,240 6.3735460,49.4242820,240 6.3736550,49.4241930,239 6.3738040,49.4240940,238 6.3739890,49.4240040,238 6.3740730,49.4239640,238 6.3746020,49.4236530,238 6.3748260,49.4235100,237 6.3752150,49.4232910,236 6.3755470,49.4231400,236 6.3763970,49.4228560,235 6.3765950,49.4228000,234 6.3768740,49.4227740,234 6.3775700,49.4227240,234 6.3779150,49.4227170,234 6.3785680,49.4226820,231 6.3803510,49.4225480,225 6.3807000,49.4225570,223 6.3809680,49.4225260,222 6.3809780,49.4225880,222 6.3813750,49.4225630,220 6.3816000,49.4225400,217 6.3819540,49.4224540,213 6.3822650,49.4222720,209 6.3823660,49.4221850,208 6.3823960,49.4221600,208 6.3824350,49.4221280,208 6.3825140,49.4220630,207 6.3824430,49.4220100,207 6.3823120,49.4218040,206 6.3819200,49.4216160,206 6.3818420,49.4215790,206 6.3817240,49.4214800,205 6.3815670,49.4213160,204 6.3814020,49.4211450,203 6.3811980,49.4209150,202 6.3808590,49.4205340,201 6.3809610,49.4204920,201 6.3812180,49.4204540,201 6.3809610,49.4204920,201 6.3808590,49.4205340,201 6.3808200,49.4204970,201 6.3808030,49.4204800,200 6.3807740,49.4204900,200 6.3807400,49.4204900,200 6.3807110,49.4204800,200 6.3806920,49.4204630,200 6.3806580,49.4204710,200 6.3805010,49.4205120,200 6.3801850,49.4205810,200 6.3792570,49.4207680,200 6.3783760,49.4209730,199 6.3781320,49.4210170,199 6.3779350,49.4210440,198 6.3777180,49.4210640,198 6.3774900,49.4210770,198 6.3772000,49.4210830,198 6.3758600,49.4211010,196 6.3752570,49.4210790,195 6.3747720,49.4210260,194 6.3740440,49.4209080,194 6.3738450,49.4208850,194 6.3736600,49.4208850,194 6.3732150,49.4209200,195 6.3732050,49.4208470,194 6.3731580,49.4207800,194 6.3730800,49.4207260,194 6.3729800,49.4206920,194 6.3730400,49.4206100,194 6.3731900,49.4204160,193 6.3733350,49.4202460,194 6.3734150,49.4201850,194 6.3731800,49.4200740,193 6.3729920,49.4200180,192 6.3728150,49.4199860,191 6.3725530,49.4199610,191 6.3723000,49.4198960,190 6.3718770,49.4197000,192 6.3718100,49.4196410,192 6.3715690,49.4193380,195 6.3712330,49.4188290,201 6.3709400,49.4184230,205 6.3706450,49.4181290,209 6.3704150,49.4180040,212 6.3700750,49.4178950,215 6.3698290,49.4178030,218 6.3696300,49.4176960,220 6.3692190,49.4174370,224 6.3689110,49.4173180,228 6.3684790,49.4171260,234 6.3682200,49.4169860,238 6.3679210,49.4167910,241 6.3675700,49.4165170,243 6.3672740,49.4163500,246 6.3671700,49.4163250,247 6.3670700,49.4163280,249 6.3669700,49.4163690,251 6.3668190,49.4165290,255 6.3667050,49.4164990,257 6.3665880,49.4164460,260 6.3664980,49.4163630,262 6.3662620,49.4160420,266 6.3660410,49.4158560,270 6.3656930,49.4155470,275 6.3652960,49.4153020,281 6.3650910,49.4151300,282 6.3649690,49.4149760,282 6.3648850,49.4147970,282 6.3648350,49.4145480,281 6.3647170,49.4143180,282 6.3645450,49.4141300,282 6.3644700,49.4139620,283 6.3643270,49.4138640,284 6.3641670,49.4137860,286 6.3641380,49.4137340,286 6.3641520,49.4136890,286 6.3642030,49.4136420,286 6.3644650,49.4134810,286 6.3645690,49.4133930,286 6.3647600,49.4131640,286 6.3652150,49.4124650,283 6.3653040,49.4123540,282 6.3654710,49.4121750,281 6.3657230,49.4118480,279 6.3657530,49.4117910,279 6.3657390,49.4117320,279 6.3656500,49.4116880,281 6.3652540,49.4116560,285 6.3644340,49.4116420,289 6.3642250,49.4116540,289 6.3640530,49.4116430,289 6.3629570,49.4116380,293 6.3617030,49.4116400,295 6.3617900,49.4113870,294 6.3619830,49.4109400,292 6.3622190,49.4104380,292 6.3624980,49.4098100,290 6.3626370,49.4095300,289 6.3628810,49.4091200,288 6.3631370,49.4085360,287 6.3632190,49.4083890,286 6.3633590,49.4081690,286 6.3633910,49.4080460,286 6.3633950,49.4078870,286 6.3633460,49.4077430,287 6.3632490,49.4075970,288 6.3631020,49.4074590,288 6.3628570,49.4072950,289 6.3625000,49.4070690,289 6.3622500,49.4068590,288 6.3620820,49.4067040,288 6.3618100,49.4064190,288 6.3616060,49.4061780,287 6.3614870,49.4059850,287 6.3614190,49.4058590,287 6.3613620,49.4055270,286 6.3613740,49.4054030,285 6.3615160,49.4051030,285 6.3612720,49.4051870,284 6.3611720,49.4051990,283 6.3610500,49.4051800,282 6.3608470,49.4051200,281 6.3606320,49.4050220,279 6.3603500,49.4048510,278 6.3601680,49.4047060,276 6.3599700,49.4044800,275 6.3598450,49.4042920,274 6.3594570,49.4036030,271 6.3593630,49.4034880,270 6.3591930,49.4033730,270 6.3573800,49.4026150,267 6.3564600,49.4022420,269 6.3558200,49.4019320,271 6.3555810,49.4017880,272 6.3554190,49.4016380,274 6.3548460,49.4009660,282 6.3544560,49.4005510,282 6.3543060,49.4003550,281 6.3540470,49.3999780,280 6.3538360,49.3997370,278 6.3535870,49.3995010,276 6.3532780,49.3992510,274 6.3530840,49.3991180,274 6.3529620,49.3990100,273 6.3529720,49.3990000,273 6.3529940,49.3989790,273 6.3531960,49.3987720,272 6.3534860,49.3983530,271 6.3538190,49.3979950,268 6.3534860,49.3983530,271 6.3531960,49.3987720,272 6.3529940,49.3989790,273 6.3529720,49.3990000,273 6.3529620,49.3990100,273 6.3529320,49.3990830,274 6.3528190,49.3997470,277 6.3527770,49.4000660,279 6.3527610,49.4003550,280 6.3527180,49.4006780,282 6.3526590,49.4010020,283 6.3525810,49.4012960,284 6.3524820,49.4017300,284 6.3524800,49.4018890,283 6.3525990,49.4022040,281 6.3528430,49.4027200,276 6.3528600,49.4028260,275 6.3528510,49.4029200,274 6.3527990,49.4030810,272 6.3527880,49.4032830,270 6.3528320,49.4037760,267 6.3528350,49.4040810,266 6.3528520,49.4042300,265 6.3529180,49.4044980,265 6.3530230,49.4050690,266 6.3530920,49.4053480,268 6.3531330,49.4056590,270 6.3531170,49.4058550,272 6.3530680,49.4059330,272 6.3519110,49.4066310,273 6.3509720,49.4072580,272 6.3507210,49.4074880,272 6.3505240,49.4077160,272 6.3501270,49.4083030,272 6.3500450,49.4084850,272 6.3499410,49.4088500,272 6.3499490,49.4090360,272 6.3500370,49.4091520,273 6.3501020,49.4092170,274 6.3501100,49.4092970,273 6.3496780,49.4099170,269 6.3495290,49.4101020,269 6.3490340,49.4105190,269 6.3486690,49.4109880,270 6.3485690,49.4112050,271 6.3488360,49.4112580,273 6.3486440,49.4117220,272 6.3486030,49.4121600,272 6.3484440,49.4121980,270 6.3483140,49.4122820,268 6.3482420,49.4124440,268 6.3481800,49.4127990,267 6.3482280,49.4131860,267 6.3483020,49.4135900,266 6.3483650,49.4137610,265 6.3483540,49.4138250,265 6.3482600,49.4139610,262 6.3482470,49.4141600,262 6.3481530,49.4142980,260 6.3481020,49.4144410,260 6.3480940,49.4146470,259 6.3480020,49.4150900,256 6.3482260,49.4150620,258 6.3485690,49.4150860,260 6.3498300,49.4153910,264 6.3506990,49.4155730,266 6.3512000,49.4157580,266 6.3517830,49.4159430,267 6.3520160,49.4160340,268 6.3520000,49.4161270,267 6.3519970,49.4162720,267 6.3520250,49.4163790,267 6.3520330,49.4164860,268 6.3520880,49.4166280,268 6.3521070,49.4167440,269 6.3520440,49.4168630,270 6.3518870,49.4170070,272 6.3516010,49.4171910,275 6.3510590,49.4174410,281 6.3509090,49.4175910,283 6.3508000,49.4177630,285 6.3507230,49.4179750,286 6.3506920,49.4183280,286 6.3506480,49.4185330,286 6.3506490,49.4186970,286 6.3506140,49.4188130,286 6.3504970,49.4189440,286 6.3504860,49.4190230,285 6.3509320,49.4188000,288 6.3513880,49.4186220,289 6.3518560,49.4184880,291 6.3527320,49.4182590,291 6.3536190,49.4180630,288 6.3539390,49.4180250,287 6.3542790,49.4180140,286 6.3546190,49.4180400,285 6.3547670,49.4180400,285 6.3550050,49.4181950,287 6.3552380,49.4183650,288 6.3556940,49.4186440,291 6.3572400,49.4194640,295 6.3589220,49.4203440,298 6.3592160,49.4204530,299 6.3594950,49.4205730,299 6.3595670,49.4206040,299 6.3596930,49.4206720,300 6.3597910,49.4207480,300 6.3598680,49.4208140,301 6.3599520,49.4208700,301 6.3601990,49.4209930,303 6.3605480,49.4211780,304 6.3606330,49.4212030,304 6.3606970,49.4212130,304 6.3609710,49.4219750,310 6.3616730,49.4222830,308 6.3620950,49.4222540,306 6.3621990,49.4222490,306 6.3623060,49.4223340,302 6.3623880,49.4223620,301 6.3624750,49.4223650,300 6.3627680,49.4223070,297 6.3630720,49.4221460,294 6.3632000,49.4221000,292 6.3632140,49.4221320,290 6.3632080,49.4221760,288 6.3631640,49.4222380,288 6.3631450,49.4222930,286 6.3630090,49.4224730,283 6.3628500,49.4226070,282 6.3627800,49.4226400,282 6.3626180,49.4226410,286 6.3624410,49.4226540,290 6.3622700,49.4227670,288 6.3621960,49.4228940,284 6.3621900,49.4229510,281 6.3621880,49.4229690,280 6.3621840,49.4230220,278 6.3621820,49.4230410,276 6.3621700,49.4231630,271 6.3621120,49.4233020,266 6.3618910,49.4235320,264 6.3619110,49.4236220,260 6.3617290,49.4237690,260 6.3616310,49.4239290,258 6.3615090,49.4240500,258 6.3610990,49.4243860,258 6.3608750,49.4246210,258 6.3606430,49.4249150,257 6.3604660,49.4250650,258 6.3603530,49.4251310,259 6.3599990,49.4254520,261 6.3598330,49.4256680,262 6.3597740,49.4257840,262 6.3597420,49.4258940,262 6.3596660,49.4259920,262 6.3594960,49.4261650,263 6.3594880,49.4263260,262 6.3594960,49.4264550,260 6.3594400,49.4266090,260 6.3593890,49.4266990,260 6.3593750,49.4268150,259 6.3594440,49.4269140,257 6.3594810,49.4270140,256 6.3594600,49.4271950,255 6.3595280,49.4273250,253 6.3595300,49.4274580,252 6.3594960,49.4275560,252 6.3594960,49.4276300,252 6.3595470,49.4276570,250 6.3594990,49.4278230,250 6.3593780,49.4281070,252 6.3592980,49.4285430,253 6.3592150,49.4287630,254 6.3591840,49.4289050,254 6.3591840,49.4290880,254 6.3591500,49.4293200,254 6.3590800,49.4296270,254 6.3588870,49.4303190,250 6.3588380,49.4304000,250 6.3590900,49.4305380,246 6.3593630,49.4306990,242 6.3594770,49.4308030,240 6.3595360,49.4309340,238 6.3595500,49.4310520,236 6.3595430,49.4312420,234 6.3595440,49.4315440,230 6.3595270,49.4317140,228 6.3594980,49.4319170,226 6.3595960,49.4319240,225 6.3596820,49.4319540,224 6.3597430,49.4320050,223 6.3597700,49.4320660,222 6.3597580,49.4321300,222 6.3596210,49.4323320,222 6.3595660,49.4324650,221 6.3595390,49.4326620,220 6.3595690,49.4331860,215 6.3596030,49.4333130,214 6.3597060,49.4334870,212 6.3601160,49.4342300,205 6.3602000,49.4344030,203 6.3603670,49.4348180,198 6.3604750,49.4351990,194 6.3604950,49.4353010,192 6.3605030,49.4354080,192 6.3604860,49.4355170,191 6.3604520,49.4356470,190 6.3601690,49.4367560,181 6.3601570,49.4368970,179 6.3601640,49.4369970,178 6.3601870,49.4370860,177 6.3603560,49.4375070,174 6.3604090,49.4376330,172 6.3604250,49.4376830,172 6.3604360,49.4377270,172 6.3605220,49.4382750,168 6.3605150,49.4383300,167 6.3604990,49.4383840,167 6.3601240,49.4389370,170 6.3601060,49.4389630,170 6.3597170,49.4393560,167 6.3595830,49.4395400,165 6.3594300,49.4398210,166 6.3594140,49.4399400,166 6.3594150,49.4401370,165 6.3596840,49.4408800,163 6.3598870,49.4408570,155 6.3598320,49.4406780,154 6.3597340,49.4403610,154 6.3596930,49.4402550,154</coordinates></LineString></Placemark>
</Document></kml>