<?xml version="1.0" encoding="UTF-8"?>
<kml xmlns="http://www.opengis.net/kml/2.2"><Document>
  <name>Le tour du Mont Saint-Quentin</name><description>10.0 km. D+ 273 m. 53 % de chemins. Depart : Parking de l'eglise fortifiee, Scy-Chazelles (15 min de Metz). Le sommet et son fort en ruine, puis Plappeville et son fort, et le retour en balcon par Lessy.</description>
  <Style id="depart"><IconStyle><scale>1.2</scale><Icon><href>http://maps.google.com/mapfiles/kml/paddle/grn-circle.png</href></Icon></IconStyle></Style>
  <Style id="etape"><IconStyle><Icon><href>http://maps.google.com/mapfiles/kml/paddle/wht-blank.png</href></Icon></IconStyle></Style>
    <Placemark><name>Depart : Eglise fortifiee Saint-Quentin, Scy-Chazelles</name><description>Eglise fortifiee du XIIe siecle, tombe de Robert Schuman a l'interieur, sa maison a 200 m. C'est ici que commence la montee.</description><styleUrl>#depart</styleUrl><Point><coordinates>6.1113370,49.1110920,0</coordinates></Point></Placemark>
    <Placemark><name>1. Mont Saint-Quentin, sommet</name><description>358 m, ancien complexe fortifie en partie ruine, bois et prairies, panorama sur toute la vallee. Les batiments sont interdits d'acces.</description><styleUrl>#etape</styleUrl><Point><coordinates>6.1273020,49.1212250,0</coordinates></Point></Placemark>
    <Placemark><name>2. Plappeville</name><description>Village vigneron du versant nord, ruelles et maisons de maitre.</description><styleUrl>#etape</styleUrl><Point><coordinates>6.1250130,49.1310140,0</coordinates></Point></Placemark>
    <Placemark><name>3. Fort de Plappeville</name><description></description><styleUrl>#etape</styleUrl><Point><coordinates>6.1162800,49.1336400,0</coordinates></Point></Placemark>
    <Placemark><name>4. Lessy</name><description>Village blotti dans le cirque, au pied du versant sud du Saint-Quentin.</description><styleUrl>#etape</styleUrl><Point><coordinates>6.0955820,49.1201680,0</coordinates></Point></Placemark>
    <Style id="t1"><LineStyle><color>ff8C4A2F</color><width>4</width></LineStyle></Style>
    <Placemark><name>Le tour du Mont Saint-Quentin</name><description>10.0 km. D+ 273 m. 53 % de chemins. Depart : Parking de l'eglise fortifiee, Scy-Chazelles (15 min de Metz). Le sommet et son fort en ruine, puis Plappeville et son fort, et le retour en balcon par Lessy.</description><styleUrl>#t1</styleUrl><LineString><tessellate>1</tessellate><coordinates>6.1112620,49.1109820,222 6.1111790,49.1110070,222 6.1111040,49.1110450,221 6.1110680,49.1110610,221 6.1111720,49.1111950,222 6.1112380,49.1112820,223 6.1113060,49.1113550,223 6.1118550,49.1118660,226 6.1120030,49.1120540,227 6.1121860,49.1123840,229 6.1123830,49.1127410,233 6.1126190,49.1131840,238 6.1126620,49.1132920,238 6.1126820,49.1133980,239 6.1126890,49.1134530,239 6.1127330,49.1136460,241 6.1127860,49.1136680,242 6.1129290,49.1136920,243 6.1130350,49.1137690,244 6.1136310,49.1140580,249 6.1136970,49.1141030,250 6.1135680,49.1141570,250 6.1135840,49.1141940,250 6.1137220,49.1145180,254 6.1137840,49.1145810,254 6.1137650,49.1146430,254 6.1137650,49.1147410,254 6.1137330,49.1148960,254 6.1139460,49.1149230,254 6.1138430,49.1152200,254 6.1138490,49.1152610,254 6.1138920,49.1153390,255 6.1140470,49.1153060,255 6.1141470,49.1152370,256 6.1145090,49.1159920,262 6.1145740,49.1160560,263 6.1146190,49.1161220,264 6.1146350,49.1161960,264 6.1146380,49.1163720,266 6.1148220,49.1163250,266 6.1155640,49.1160110,265 6.1162900,49.1158160,264 6.1163590,49.1158570,265 6.1163560,49.1159680,266 6.1167020,49.1159910,267 6.1169370,49.1160490,268 6.1171660,49.1161480,268 6.1171960,49.1161890,269 6.1172770,49.1167110,278 6.1173940,49.1170220,282 6.1174770,49.1173360,290 6.1179260,49.1173860,292 6.1179910,49.1174070,293 6.1181040,49.1174440,294 6.1183090,49.1175400,297 6.1184180,49.1175420,298 6.1185050,49.1175690,299 6.1189330,49.1176950,304 6.1194530,49.1178350,308 6.1196810,49.1179090,311 6.1199060,49.1179980,312 6.1202020,49.1181530,316 6.1206510,49.1184260,322 6.1209300,49.1185720,325 6.1212320,49.1187030,327 6.1221510,49.1190810,330 6.1220120,49.1192310,334 6.1219950,49.1192950,336 6.1220520,49.1193060,336 6.1221020,49.1193390,336 6.1221610,49.1193430,335 6.1221470,49.1194180,336 6.1229360,49.1196370,336 6.1230670,49.1196540,334 6.1231050,49.1197900,338 6.1230930,49.1198590,341 6.1231190,49.1199320,343 6.1230900,49.1199640,345 6.1230760,49.1200270,347 6.1229950,49.1200450,347 6.1228680,49.1201170,347 6.1230920,49.1202050,347 6.1232360,49.1202450,346 6.1237850,49.1203540,348 6.1246080,49.1205070,346 6.1254870,49.1205580,348 6.1256530,49.1205590,348 6.1258560,49.1205370,347 6.1265090,49.1205440,349 6.1267490,49.1205750,348 6.1269060,49.1206100,349 6.1276060,49.1208670,348 6.1269060,49.1206100,349 6.1267490,49.1205750,348 6.1265090,49.1205440,349 6.1265110,49.1205750,350 6.1265300,49.1205950,349 6.1265330,49.1210470,350 6.1265680,49.1212990,352 6.1265560,49.1216060,352 6.1265800,49.1216540,351 6.1264570,49.1223310,351 6.1264320,49.1223600,351 6.1264300,49.1225050,350 6.1263770,49.1226390,342 6.1263450,49.1226880,340 6.1264270,49.1227000,338 6.1265280,49.1227830,332 6.1266190,49.1228370,328 6.1236250,49.1236940,312 6.1228580,49.1239100,309 6.1220660,49.1241680,306 6.1212550,49.1244360,302 6.1211360,49.1244820,300 6.1210860,49.1245170,300 6.1210720,49.1245530,300 6.1211030,49.1246110,298 6.1209140,49.1246600,300 6.1207630,49.1247530,300 6.1208220,49.1248880,294 6.1207900,49.1249920,291 6.1205190,49.1251300,287 6.1203180,49.1253850,279 6.1202510,49.1256480,272 6.1200780,49.1258250,268 6.1199670,49.1260460,266 6.1199540,49.1260710,266 6.1204310,49.1262990,262 6.1207430,49.1264290,260 6.1209320,49.1265610,258 6.1210910,49.1266720,256 6.1212420,49.1267360,256 6.1214610,49.1267970,255 6.1215540,49.1268320,254 6.1220270,49.1271000,251 6.1221780,49.1271870,250 6.1222970,49.1272660,248 6.1227100,49.1276410,246 6.1228740,49.1278060,245 6.1230560,49.1280200,243 6.1231840,49.1281470,242 6.1232870,49.1282220,241 6.1234380,49.1283160,239 6.1234840,49.1283550,239 6.1235860,49.1284590,238 6.1237380,49.1287460,237 6.1238270,49.1288480,236 6.1236200,49.1289770,238 6.1237960,49.1292090,236 6.1239590,49.1293650,236 6.1245360,49.1298170,234 6.1248810,49.1302420,231 6.1245090,49.1304060,234 6.1243740,49.1304500,235 6.1244410,49.1304950,234 6.1246090,49.1306870,232 6.1247830,49.1309450,231 6.1247980,49.1309890,231 6.1248130,49.1310620,231 6.1248320,49.1312030,232 6.1249100,49.1312060,232 6.1249230,49.1311940,232 6.1249370,49.1312140,232 6.1250240,49.1312220,232 6.1251650,49.1311600,231 6.1250020,49.1310180,230 6.1251650,49.1311600,231 6.1250240,49.1312220,232 6.1249370,49.1312140,232 6.1249230,49.1311940,232 6.1249100,49.1312060,232 6.1248320,49.1312030,232 6.1248130,49.1310620,231 6.1247980,49.1309890,231 6.1246870,49.1309990,232 6.1244930,49.1310050,233 6.1242730,49.1309600,234 6.1241230,49.1310030,235 6.1238250,49.1308350,238 6.1235160,49.1305500,242 6.1233250,49.1306170,243 6.1232360,49.1306360,243 6.1231140,49.1306330,244 6.1230810,49.1306370,244 6.1228500,49.1307200,245 6.1226160,49.1308070,248 6.1212700,49.1312460,261 6.1211700,49.1310980,261 6.1210130,49.1308120,262 6.1209420,49.1307070,262 6.1209320,49.1306760,262 6.1209430,49.1306420,262 6.1206280,49.1307820,266 6.1203380,49.1308770,269 6.1199520,49.1309620,276 6.1196800,49.1309960,280 6.1193820,49.1310030,285 6.1190940,49.1309600,289 6.1189330,49.1308600,291 6.1186930,49.1307240,294 6.1185260,49.1305810,296 6.1185170,49.1305150,296 6.1185370,49.1304580,295 6.1183230,49.1303460,298 6.1182660,49.1303170,300 6.1181660,49.1304290,302 6.1181090,49.1305420,304 6.1180770,49.1306220,306 6.1180680,49.1306940,306 6.1180890,49.1307380,306 6.1180920,49.1307950,306 6.1180180,49.1309260,309 6.1179980,49.1310670,310 6.1179310,49.1311960,314 6.1178390,49.1313040,317 6.1177310,49.1312820,320 6.1176320,49.1313450,323 6.1176250,49.1313790,323 6.1176080,49.1314060,324 6.1176130,49.1315990,325 6.1176020,49.1317290,326 6.1176320,49.1317700,326 6.1176530,49.1318370,326 6.1178870,49.1321910,327 6.1179260,49.1322450,327 6.1180170,49.1323420,327 6.1181890,49.1325710,326 6.1182740,49.1326970,326 6.1183370,49.1328590,328 6.1183630,49.1329840,328 6.1180620,49.1329370,332 6.1180040,49.1329240,333 6.1178390,49.1329380,334 6.1176080,49.1328920,335 6.1175980,49.1329420,335 6.1175710,49.1330140,335 6.1175040,49.1330830,335 6.1174050,49.1331260,334 6.1172420,49.1331740,333 6.1171570,49.1331880,334 6.1170690,49.1331780,336 6.1170040,49.1331330,338 6.1169680,49.1330690,338 6.1169080,49.1330170,338 6.1168100,49.1329880,339 6.1166740,49.1329910,340 6.1165550,49.1330440,340 6.1164710,49.1331200,340 6.1164320,49.1332210,340 6.1164490,49.1333710,340 6.1165710,49.1335560,340 6.1164490,49.1333710,340 6.1164320,49.1332210,340 6.1164710,49.1331200,340 6.1165550,49.1330440,340 6.1166740,49.1329910,340 6.1168100,49.1329880,339 6.1169080,49.1330170,338 6.1169680,49.1330690,338 6.1170040,49.1331330,338 6.1170690,49.1331780,336 6.1171570,49.1331880,334 6.1172420,49.1331740,333 6.1174050,49.1331260,334 6.1175040,49.1330830,335 6.1175710,49.1330140,335 6.1175980,49.1329420,335 6.1176080,49.1328920,335 6.1175970,49.1328060,334 6.1175180,49.1327410,335 6.1173100,49.1326410,334 6.1171880,49.1325400,335 6.1167600,49.1314680,333 6.1168100,49.1313970,333 6.1167890,49.1313880,333 6.1167270,49.1313990,334 6.1166600,49.1313020,334 6.1165970,49.1311540,334 6.1165620,49.1309900,334 6.1165700,49.1308250,333 6.1167540,49.1299340,326 6.1167620,49.1297210,325 6.1167780,49.1293900,323 6.1166530,49.1285240,322 6.1166000,49.1281510,322 6.1165710,49.1278770,321 6.1162970,49.1277910,322 6.1162350,49.1278050,323 6.1161920,49.1277310,323 6.1161420,49.1276900,323 6.1161300,49.1276530,323 6.1161420,49.1276140,322 6.1161100,49.1275230,322 6.1161130,49.1273820,322 6.1160370,49.1271560,320 6.1160330,49.1270410,320 6.1159990,49.1266810,316 6.1160050,49.1265720,316 6.1159620,49.1263000,314 6.1159780,49.1261970,313 6.1158600,49.1260620,312 6.1157740,49.1258170,312 6.1156370,49.1256160,308 6.1156220,49.1255770,308 6.1155320,49.1255890,308 6.1153450,49.1255460,308 6.1152810,49.1254870,308 6.1152350,49.1254410,307 6.1151280,49.1252110,306 6.1150830,49.1250260,306 6.1150930,49.1249110,308 6.1150850,49.1248390,309 6.1146910,49.1246800,307 6.1144680,49.1246610,304 6.1143580,49.1246160,306 6.1141760,49.1245860,306 6.1136690,49.1245490,303 6.1133580,49.1244790,303 6.1132690,49.1244740,303 6.1131300,49.1244230,304 6.1125130,49.1243540,302 6.1122770,49.1243440,301 6.1120840,49.1243580,301 6.1118720,49.1244090,300 6.1117410,49.1244120,300 6.1116040,49.1244320,299 6.1115020,49.1244830,298 6.1113220,49.1244850,298 6.1111440,49.1245010,298 6.1107860,49.1244910,300 6.1106510,49.1245050,300 6.1103380,49.1245400,300 6.1097340,49.1247370,296 6.1093750,49.1247670,296 6.1089780,49.1247560,294 6.1086260,49.1246910,294 6.1079670,49.1245110,294 6.1076990,49.1244660,294 6.1070650,49.1243600,293 6.1068050,49.1243070,293 6.1064240,49.1241890,294 6.1057190,49.1240740,292 6.1048630,49.1238420,290 6.1046230,49.1238130,288 6.1043860,49.1237490,288 6.1041100,49.1235680,289 6.1038210,49.1233210,289 6.1036430,49.1232200,289 6.1035730,49.1231070,290 6.1035810,49.1230050,291 6.1033990,49.1228500,289 6.1033290,49.1227500,288 6.1033170,49.1226290,286 6.1032780,49.1223740,282 6.1031360,49.1222850,278 6.1031250,49.1222620,278 6.1031390,49.1222270,277 6.1029920,49.1221040,273 6.1029260,49.1220300,270 6.1029030,49.1219640,269 6.1029160,49.1218940,268 6.1026970,49.1218280,265 6.1025190,49.1218020,262 6.1020980,49.1216720,257 6.1018890,49.1216270,255 6.1013030,49.1214360,248 6.1011980,49.1213880,247 6.1011020,49.1213620,246 6.1007760,49.1213370,243 6.1006300,49.1211820,242 6.1004360,49.1211070,240 6.1002670,49.1210720,238 6.1000430,49.1210480,236 6.0997770,49.1209990,234 6.0995040,49.1209640,231 6.0991320,49.1209330,227 6.0990240,49.1207630,226 6.0989500,49.1207090,225 6.0989000,49.1207210,224 6.0984000,49.1207890,221 6.0982440,49.1208450,221 6.0980640,49.1209290,221 6.0979390,49.1210060,221 6.0978320,49.1210750,222 6.0976830,49.1211400,222 6.0975270,49.1211850,223 6.0973360,49.1212140,224 6.0964150,49.1212930,234 6.0962310,49.1212620,237 6.0962050,49.1211650,236 6.0961490,49.1210180,236 6.0960860,49.1209390,236 6.0959300,49.1208250,237 6.0956300,49.1206710,238 6.0954140,49.1204910,239 6.0953930,49.1204050,238 6.0954350,49.1202580,238 6.0955220,49.1201470,235 6.0956340,49.1200070,235 6.0956590,49.1199870,235 6.0956740,49.1199740,234 6.0957970,49.1198750,233 6.0958600,49.1198100,232 6.0960220,49.1196430,231 6.0961720,49.1194510,229 6.0964610,49.1190310,227 6.0966050,49.1187840,226 6.0966100,49.1187540,226 6.0966710,49.1187490,226 6.0968800,49.1187950,223 6.0969140,49.1188150,222 6.0969950,49.1188320,221 6.0978290,49.1189980,213 6.0978550,49.1190790,214 6.0986310,49.1193370,217 6.0986720,49.1194140,218 6.0987330,49.1194110,218 6.0988740,49.1194240,219 6.0991400,49.1193960,220 6.0991610,49.1192080,219 6.0992590,49.1190090,218 6.0993460,49.1188820,219 6.0997000,49.1189160,222 6.0997420,49.1189620,222 6.1000550,49.1190340,225 6.1002090,49.1190900,226 6.1002890,49.1190430,226 6.1006720,49.1188450,229 6.1007180,49.1188220,230 6.1012600,49.1185710,234 6.1012170,49.1185040,232 6.1013800,49.1182090,232 6.1014030,49.1180700,230 6.1015740,49.1178470,230 6.1015530,49.1176150,228 6.1016230,49.1174870,227 6.1018700,49.1173060,228 6.1020710,49.1170750,227 6.1022350,49.1166780,223 6.1027190,49.1168570,229 6.1033880,49.1170710,236 6.1034400,49.1170000,236 6.1040800,49.1162540,237 6.1041410,49.1161930,237 6.1042120,49.1161460,237 6.1044340,49.1160260,238 6.1039670,49.1156210,234 6.1037310,49.1152330,232 6.1035250,49.1149290,230 6.1038540,49.1146820,230 6.1038920,49.1146540,231 6.1043990,49.1142730,230 6.1044290,49.1141080,228 6.1046610,49.1138300,228 6.1048020,49.1137630,229 6.1051040,49.1136990,230 6.1051410,49.1137260,230 6.1052070,49.1137350,230 6.1053480,49.1137250,230 6.1054620,49.1137360,231 6.1055740,49.1137560,232 6.1057000,49.1135040,230 6.1059580,49.1129810,228 6.1061450,49.1130140,228 6.1067510,49.1128860,228 6.1067780,49.1128790,228 6.1069740,49.1125500,225 6.1072020,49.1123940,224 6.1077060,49.1123110,224 6.1079460,49.1122760,224 6.1082920,49.1121950,223 6.1082660,49.1121410,222 6.1080700,49.1117430,220 6.1081390,49.1117400,220 6.1082920,49.1116940,221 6.1086440,49.1115280,221 6.1088630,49.1114540,221 6.1092930,49.1113120,221 6.1095530,49.1112500,220 6.1101510,49.1111790,221 6.1108290,49.1110640,221 6.1109040,49.1110440,221 6.1109630,49.1110200,221 6.1109980,49.1110030,221 6.1110680,49.1110610,221 6.1111040,49.1110450,221 6.1111790,49.1110070,222 6.1112620,49.1109820,222</coordinates></LineString></Placemark>
</Document></kml>