<?xml version="1.0" encoding="UTF-8"?>
<kml xmlns="http://www.opengis.net/kml/2.2"><Document>
  <name>La Moselle et les deux iles</name><description>5.5 km. D+ 19 m. 35 % de chemins. Le grand tour de l'eau : l'Esplanade, le lac aux Cygnes, la rive ouest du plan d'eau, la promenade du Grand Patural, et le retour par le Saulcy et le port Saint-Marcel. Pas un metre refait.</description>
  <Style id="depart"><IconStyle><scale>1.2</scale><Icon><href>http://maps.google.com/mapfiles/kml/paddle/grn-circle.png</href></Icon></IconStyle></Style>
  <Style id="etape"><IconStyle><Icon><href>http://maps.google.com/mapfiles/kml/paddle/wht-blank.png</href></Icon></IconStyle></Style>
    <Placemark><name>Depart : Rue des Parmentiers, Metz</name><description>Depart des deux boucles vers Borny, dans la Nouvelle Ville. A dix minutes a pied de la gare, dont il partage les commodites.</description><styleUrl>#depart</styleUrl><Point><coordinates>6.1768700,49.1153870,0</coordinates></Point></Placemark>
    <Placemark><name>1. Jardin de l'Esplanade</name><description>Terrasse au-dessus de la Moselle, vue sur le Mont Saint-Quentin.</description><styleUrl>#etape</styleUrl><Point><coordinates>6.1705190,49.1159680,0</coordinates></Point></Placemark>
    <Placemark><name>2. Parc du Lac aux Cygnes</name><description>Rive du plan d'eau sous l'Esplanade, cygnes et saules.</description><styleUrl>#etape</styleUrl><Point><coordinates>6.1673270,49.1161600,0</coordinates></Point></Placemark>
    <Placemark><name>3. Base de loisirs de l'Esplanade</name><description>Rive ouest du plan d'eau, face au Saulcy. Buvette l'ete.</description><styleUrl>#etape</styleUrl><Point><coordinates>6.1631070,49.1158530,0</coordinates></Point></Placemark>
    <Placemark><name>4. Le Grand Patural, Ban-Saint-Martin</name><description>Prairie et promenade au bord de la Moselle, juste avant de quitter la ville.</description><styleUrl>#etape</styleUrl><Point><coordinates>6.1510520,49.1179290,0</coordinates></Point></Placemark>
    <Placemark><name>5. Ile du Saulcy</name><description>Ile universitaire, tres calme hors semestre. Cygnes sur les deux bras.</description><styleUrl>#etape</styleUrl><Point><coordinates>6.1612490,49.1201090,0</coordinates></Point></Placemark>
    <Placemark><name>6. Port Saint-Marcel</name><description>Petit port de plaisance au nord de l'ile, peniches a quai.</description><styleUrl>#etape</styleUrl><Point><coordinates>6.1713120,49.1216350,0</coordinates></Point></Placemark>
    <Placemark><name>7. Temple Neuf et le Moyen Pont</name><description>Pointe de l'ile du Petit-Saulcy, entre les deux bras de la Moselle ; la vue sur la cathedrale et le plan d'eau.</description><styleUrl>#etape</styleUrl><Point><coordinates>6.1703820,49.1197430,0</coordinates></Point></Placemark>
    <Style id="t1"><LineStyle><color>ff4F7CAC</color><width>4</width></LineStyle></Style>
    <Placemark><name>La Moselle et les deux iles</name><description>5.5 km. D+ 19 m. 35 % de chemins. Le grand tour de l'eau : l'Esplanade, le lac aux Cygnes, la rive ouest du plan d'eau, la promenade du Grand Patural, et le retour par le Saulcy et le port Saint-Marcel. Pas un metre refait.</description><styleUrl>#t1</styleUrl><LineString><tessellate>1</tessellate><coordinates>6.1768670,49.1153870,174 6.1766270,49.1151930,174 6.1763740,49.1150400,174 6.1761790,49.1149300,174 6.1761630,49.1149200,174 6.1759210,49.1147900,174 6.1758600,49.1148100,174 6.1757900,49.1148400,174 6.1756540,49.1148970,174 6.1753530,49.1150280,175 6.1752220,49.1150830,175 6.1750010,49.1151570,175 6.1748990,49.1151860,175 6.1745290,49.1153320,176 6.1741900,49.1154570,177 6.1740920,49.1154990,177 6.1740250,49.1155380,177 6.1740090,49.1155540,177 6.1740510,49.1156050,177 6.1738750,49.1157030,177 6.1731540,49.1160400,178 6.1728450,49.1161960,179 6.1727720,49.1162270,179 6.1724170,49.1163850,180 6.1718220,49.1166550,182 6.1713770,49.1168540,184 6.1713610,49.1168380,184 6.1713030,49.1168550,184 6.1712460,49.1168730,184 6.1711830,49.1168310,184 6.1710660,49.1166490,184 6.1708900,49.1164880,183 6.1706320,49.1162500,182 6.1705340,49.1161620,181 6.1705010,49.1161330,181 6.1705480,49.1161050,181 6.1705790,49.1160690,181 6.1705890,49.1160280,181 6.1705780,49.1159870,181 6.1705520,49.1159550,181 6.1705780,49.1159870,181 6.1705890,49.1160280,181 6.1705790,49.1160690,181 6.1705480,49.1161050,181 6.1705010,49.1161330,181 6.1705340,49.1161620,181 6.1706320,49.1162500,182 6.1701230,49.1164970,182 6.1695730,49.1167630,180 6.1694930,49.1168050,179 6.1693770,49.1168320,178 6.1693100,49.1168390,178 6.1690950,49.1168510,177 6.1688200,49.1167950,176 6.1687900,49.1168000,176 6.1687060,49.1168130,176 6.1686460,49.1168250,176 6.1685320,49.1168470,174 6.1684590,49.1168590,172 6.1683910,49.1168710,172 6.1682370,49.1168760,170 6.1680530,49.1168490,168 6.1679080,49.1167840,168 6.1677890,49.1166960,168 6.1677680,49.1166360,169 6.1675660,49.1165940,167 6.1674750,49.1166120,167 6.1670360,49.1161370,167 6.1671560,49.1160810,167 6.1671560,49.1160810,167 6.1670360,49.1161370,167 6.1664490,49.1155630,169 6.1664240,49.1155160,169 6.1662560,49.1154800,168 6.1661920,49.1154710,168 6.1653460,49.1155090,169 6.1652720,49.1155290,170 6.1652540,49.1154730,169 6.1652340,49.1153570,168 6.1652400,49.1152870,168 6.1653050,49.1150160,167 6.1650560,49.1150270,167 6.1649000,49.1149870,167 6.1647060,49.1149550,167 6.1643200,49.1149230,166 6.1642460,49.1149240,166 6.1635940,49.1150220,167 6.1632470,49.1150950,166 6.1627130,49.1152430,167 6.1625090,49.1153000,167 6.1623900,49.1153470,167 6.1623260,49.1153920,167 6.1622690,49.1154420,167 6.1621180,49.1156350,167 6.1614550,49.1156280,168 6.1613440,49.1155890,168 6.1612120,49.1155490,168 6.1610720,49.1155070,168 6.1610330,49.1155240,168 6.1604110,49.1159510,170 6.1600410,49.1161620,168 6.1598330,49.1162470,170 6.1597420,49.1162680,170 6.1595710,49.1162890,169 6.1594740,49.1162950,168 6.1593550,49.1162880,168 6.1591050,49.1162550,167 6.1589270,49.1162010,168 6.1587450,49.1161100,168 6.1586300,49.1160240,168 6.1585190,49.1159150,168 6.1584040,49.1157130,168 6.1583580,49.1156940,168 6.1579730,49.1156260,168 6.1578630,49.1155680,168 6.1576840,49.1156980,168 6.1574240,49.1158830,168 6.1567840,49.1163100,168 6.1562120,49.1166770,168 6.1558450,49.1168560,167 6.1549190,49.1173060,168 6.1546540,49.1174130,168 6.1545130,49.1174500,168 6.1543340,49.1174890,168 6.1529120,49.1176830,168 6.1528610,49.1176890,168 6.1529020,49.1178190,168 6.1526330,49.1178560,168 6.1522690,49.1178930,168 6.1519000,49.1179380,167 6.1516560,49.1179630,167 6.1512970,49.1179490,167 6.1511750,49.1179340,167 6.1510580,49.1179120,168 6.1511750,49.1179340,167 6.1512970,49.1179490,167 6.1516560,49.1179630,167 6.1519000,49.1179380,167 6.1522690,49.1178930,168 6.1526330,49.1178560,168 6.1529020,49.1178190,168 6.1535600,49.1177530,167 6.1541800,49.1177120,167 6.1543170,49.1176720,167 6.1544150,49.1176580,167 6.1545830,49.1176610,167 6.1547520,49.1176760,167 6.1548610,49.1177000,167 6.1550950,49.1178060,167 6.1551300,49.1177960,167 6.1553810,49.1177960,166 6.1556250,49.1177890,166 6.1557120,49.1177760,166 6.1560450,49.1177550,166 6.1561370,49.1177690,166 6.1562090,49.1177910,166 6.1562680,49.1178020,166 6.1566650,49.1177530,167 6.1572550,49.1176590,168 6.1576990,49.1176110,167 6.1579790,49.1175980,167 6.1583190,49.1176420,167 6.1589450,49.1177680,168 6.1591480,49.1178280,168 6.1593070,49.1178830,168 6.1599080,49.1181380,168 6.1600500,49.1182070,168 6.1601360,49.1182310,168 6.1604360,49.1183120,168 6.1607530,49.1183730,168 6.1608430,49.1182340,168 6.1607770,49.1181150,170 6.1607230,49.1182470,169 6.1606150,49.1188230,168 6.1605840,49.1190320,170 6.1605930,49.1190810,170 6.1606310,49.1191400,170 6.1606800,49.1191870,170 6.1607540,49.1192360,169 6.1608110,49.1193110,168 6.1608360,49.1193830,168 6.1608890,49.1194370,168 6.1608800,49.1194620,168 6.1608030,49.1196830,167 6.1609040,49.1197000,167 6.1611120,49.1197950,168 6.1612430,49.1201090,167 6.1612450,49.1201140,167 6.1615810,49.1201620,167 6.1619570,49.1202160,167 6.1623910,49.1202790,167 6.1628100,49.1203380,167 6.1628970,49.1203660,167 6.1630360,49.1203710,167 6.1630880,49.1203720,167 6.1631110,49.1203640,167 6.1631900,49.1203880,167 6.1632550,49.1203940,167 6.1636870,49.1204150,168 6.1641210,49.1203880,167 6.1642400,49.1203630,167 6.1643110,49.1203410,168 6.1644890,49.1203080,168 6.1647530,49.1202690,168 6.1650630,49.1202330,168 6.1654300,49.1202040,168 6.1655510,49.1201850,168 6.1656830,49.1201550,168 6.1657680,49.1201160,168 6.1659190,49.1200120,168 6.1659370,49.1199840,168 6.1659350,49.1199470,168 6.1660010,49.1199260,168 6.1661250,49.1199720,168 6.1661750,49.1199910,168 6.1662610,49.1199880,168 6.1663160,49.1199800,168 6.1663850,49.1199570,168 6.1664940,49.1198980,168 6.1665620,49.1198630,168 6.1666300,49.1198260,168 6.1667070,49.1198940,168 6.1668450,49.1200160,168 6.1669530,49.1199650,168 6.1670250,49.1199400,168 6.1671220,49.1199400,168 6.1672160,49.1199490,168 6.1673200,49.1199740,168 6.1673880,49.1200110,167 6.1674380,49.1199850,167 6.1675010,49.1200240,167 6.1680210,49.1203080,166 6.1680550,49.1203120,166 6.1680840,49.1203160,166 6.1681070,49.1203080,166 6.1681300,49.1202660,166 6.1682020,49.1202850,168 6.1682660,49.1202930,168 6.1683480,49.1203120,169 6.1683220,49.1203500,168 6.1683150,49.1203940,168 6.1688400,49.1206710,169 6.1689150,49.1207570,169 6.1689680,49.1207900,169 6.1692310,49.1206230,169 6.1692460,49.1206140,169 6.1692690,49.1205970,169 6.1695720,49.1208210,170 6.1699530,49.1211240,169 6.1704470,49.1215160,168 6.1704880,49.1214950,168 6.1705150,49.1215050,168 6.1705490,49.1215030,168 6.1705610,49.1215130,168 6.1705880,49.1215290,168 6.1708880,49.1213480,167 6.1710660,49.1214260,168 6.1713880,49.1215170,166 6.1710660,49.1214260,168 6.1708880,49.1213480,167 6.1708580,49.1213260,167 6.1708770,49.1213140,167 6.1708310,49.1212570,167 6.1700220,49.1200330,169 6.1699880,49.1200060,169 6.1700170,49.1199820,169 6.1700790,49.1199310,169 6.1701490,49.1199050,169 6.1702460,49.1198490,169 6.1702950,49.1198160,169 6.1703950,49.1197510,168 6.1709210,49.1194160,168 6.1709920,49.1193840,170 6.1710220,49.1193900,170 6.1710740,49.1193520,171 6.1711350,49.1193190,171 6.1714050,49.1195320,169 6.1714690,49.1195690,169 6.1715220,49.1195940,169 6.1716300,49.1195680,170 6.1718770,49.1195100,172 6.1719990,49.1194610,173 6.1725390,49.1193330,175 6.1729180,49.1192400,177 6.1733120,49.1191420,177 6.1735250,49.1190890,178 6.1739480,49.1188890,179 6.1740430,49.1188490,180 6.1745370,49.1186870,181 6.1750450,49.1184970,180 6.1750080,49.1184610,180 6.1750530,49.1184390,180 6.1760070,49.1178570,178 6.1761170,49.1177820,178 6.1762120,49.1177270,178 6.1769650,49.1174010,176 6.1772570,49.1172750,175 6.1780060,49.1169400,173 6.1780100,49.1169380,173 6.1780910,49.1168970,173 6.1779150,49.1166880,174 6.1776850,49.1164140,174 6.1776540,49.1163770,174 6.1776130,49.1163200,174 6.1775060,49.1161750,174 6.1774070,49.1160140,174 6.1772820,49.1158090,174 6.1770330,49.1155220,175 6.1768670,49.1153870,174</coordinates></LineString></Placemark>
</Document></kml>