<?xml version="1.0" encoding="UTF-8"?>
<gpx version="1.1" creator="olifant"
     xmlns="http://www.topografix.com/GPX/1/1"
     xmlns:xsi="http://www.w3.org/2001/XMLSchema-instance"
     xsi:schemaLocation="http://www.topografix.com/GPX/1/1 http://www.topografix.com/GPX/1/1/gpx.xsd">
  <metadata><name>La Moselle et les deux iles</name><desc>5.5 km. D+ 19 m. 35 % de chemins. Le grand tour de l'eau : l'Esplanade, le lac aux Cygnes, la rive ouest du plan d'eau, la promenade du Grand Patural, et le retour par le Saulcy et le port Saint-Marcel. Pas un metre refait.</desc></metadata>
  <wpt lat="49.1153870" lon="6.1768700"><name>Rue des Parmentiers, Metz</name><desc>Depart des deux boucles vers Borny, dans la Nouvelle Ville. A dix minutes a pied de la gare, dont il partage les commodites.</desc></wpt>
  <wpt lat="49.1159680" lon="6.1705190"><name>Jardin de l'Esplanade</name><desc>Terrasse au-dessus de la Moselle, vue sur le Mont Saint-Quentin.</desc></wpt>
  <wpt lat="49.1161600" lon="6.1673270"><name>Parc du Lac aux Cygnes</name><desc>Rive du plan d'eau sous l'Esplanade, cygnes et saules.</desc></wpt>
  <wpt lat="49.1158530" lon="6.1631070"><name>Base de loisirs de l'Esplanade</name><desc>Rive ouest du plan d'eau, face au Saulcy. Buvette l'ete.</desc></wpt>
  <wpt lat="49.1179290" lon="6.1510520"><name>Le Grand Patural, Ban-Saint-Martin</name><desc>Prairie et promenade au bord de la Moselle, juste avant de quitter la ville.</desc></wpt>
  <wpt lat="49.1201090" lon="6.1612490"><name>Ile du Saulcy</name><desc>Ile universitaire, tres calme hors semestre. Cygnes sur les deux bras.</desc></wpt>
  <wpt lat="49.1216350" lon="6.1713120"><name>Port Saint-Marcel</name><desc>Petit port de plaisance au nord de l'ile, peniches a quai.</desc></wpt>
  <wpt lat="49.1197430" lon="6.1703820"><name>Temple Neuf et le Moyen Pont</name><desc>Pointe de l'ile du Petit-Saulcy, entre les deux bras de la Moselle ; la vue sur la cathedrale et le plan d'eau.</desc></wpt>
  <trk><name>La Moselle et les deux iles</name><trkseg>
    <trkpt lat="49.1153870" lon="6.1768670"><ele>174.5</ele></trkpt>
    <trkpt lat="49.1151930" lon="6.1766270"><ele>174.0</ele></trkpt>
    <trkpt lat="49.1150400" lon="6.1763740"><ele>174.0</ele></trkpt>
    <trkpt lat="49.1149300" lon="6.1761790"><ele>174.0</ele></trkpt>
    <trkpt lat="49.1149200" lon="6.1761630"><ele>174.0</ele></trkpt>
    <trkpt lat="49.1147900" lon="6.1759210"><ele>174.0</ele></trkpt>
    <trkpt lat="49.1148100" lon="6.1758600"><ele>174.0</ele></trkpt>
    <trkpt lat="49.1148400" lon="6.1757900"><ele>174.0</ele></trkpt>
    <trkpt lat="49.1148970" lon="6.1756540"><ele>174.0</ele></trkpt>
    <trkpt lat="49.1150280" lon="6.1753530"><ele>174.8</ele></trkpt>
    <trkpt lat="49.1150830" lon="6.1752220"><ele>175.0</ele></trkpt>
    <trkpt lat="49.1151570" lon="6.1750010"><ele>175.0</ele></trkpt>
    <trkpt lat="49.1151860" lon="6.1748990"><ele>175.0</ele></trkpt>
    <trkpt lat="49.1153320" lon="6.1745290"><ele>175.8</ele></trkpt>
    <trkpt lat="49.1154570" lon="6.1741900"><ele>176.8</ele></trkpt>
    <trkpt lat="49.1154990" lon="6.1740920"><ele>177.0</ele></trkpt>
    <trkpt lat="49.1155380" lon="6.1740250"><ele>177.0</ele></trkpt>
    <trkpt lat="49.1155540" lon="6.1740090"><ele>177.0</ele></trkpt>
    <trkpt lat="49.1156050" lon="6.1740510"><ele>177.0</ele></trkpt>
    <trkpt lat="49.1157030" lon="6.1738750"><ele>177.0</ele></trkpt>
    <trkpt lat="49.1160400" lon="6.1731540"><ele>178.2</ele></trkpt>
    <trkpt lat="49.1161960" lon="6.1728450"><ele>179.0</ele></trkpt>
    <trkpt lat="49.1162270" lon="6.1727720"><ele>179.0</ele></trkpt>
    <trkpt lat="49.1163850" lon="6.1724170"><ele>180.2</ele></trkpt>
    <trkpt lat="49.1166550" lon="6.1718220"><ele>182.2</ele></trkpt>
    <trkpt lat="49.1168540" lon="6.1713770"><ele>184.0</ele></trkpt>
    <trkpt lat="49.1168380" lon="6.1713610"><ele>184.0</ele></trkpt>
    <trkpt lat="49.1168550" lon="6.1713030"><ele>184.0</ele></trkpt>
    <trkpt lat="49.1168730" lon="6.1712460"><ele>184.0</ele></trkpt>
    <trkpt lat="49.1168310" lon="6.1711830"><ele>184.0</ele></trkpt>
    <trkpt lat="49.1166490" lon="6.1710660"><ele>183.8</ele></trkpt>
    <trkpt lat="49.1164880" lon="6.1708900"><ele>182.8</ele></trkpt>
    <trkpt lat="49.1162500" lon="6.1706320"><ele>181.5</ele></trkpt>
    <trkpt lat="49.1161620" lon="6.1705340"><ele>181.0</ele></trkpt>
    <trkpt lat="49.1161330" lon="6.1705010"><ele>181.0</ele></trkpt>
    <trkpt lat="49.1161050" lon="6.1705480"><ele>181.0</ele></trkpt>
    <trkpt lat="49.1160690" lon="6.1705790"><ele>181.0</ele></trkpt>
    <trkpt lat="49.1160280" lon="6.1705890"><ele>181.0</ele></trkpt>
    <trkpt lat="49.1159870" lon="6.1705780"><ele>181.0</ele></trkpt>
    <trkpt lat="49.1159550" lon="6.1705520"><ele>181.0</ele></trkpt>
    <trkpt lat="49.1159870" lon="6.1705780"><ele>181.0</ele></trkpt>
    <trkpt lat="49.1160280" lon="6.1705890"><ele>181.0</ele></trkpt>
    <trkpt lat="49.1160690" lon="6.1705790"><ele>181.0</ele></trkpt>
    <trkpt lat="49.1161050" lon="6.1705480"><ele>181.0</ele></trkpt>
    <trkpt lat="49.1161330" lon="6.1705010"><ele>181.0</ele></trkpt>
    <trkpt lat="49.1161620" lon="6.1705340"><ele>181.0</ele></trkpt>
    <trkpt lat="49.1162500" lon="6.1706320"><ele>181.5</ele></trkpt>
    <trkpt lat="49.1164970" lon="6.1701230"><ele>181.5</ele></trkpt>
    <trkpt lat="49.1167630" lon="6.1695730"><ele>180.2</ele></trkpt>
    <trkpt lat="49.1168050" lon="6.1694930"><ele>179.2</ele></trkpt>
    <trkpt lat="49.1168320" lon="6.1693770"><ele>178.2</ele></trkpt>
    <trkpt lat="49.1168390" lon="6.1693100"><ele>178.0</ele></trkpt>
    <trkpt lat="49.1168510" lon="6.1690950"><ele>177.2</ele></trkpt>
    <trkpt lat="49.1167950" lon="6.1688200"><ele>176.0</ele></trkpt>
    <trkpt lat="49.1168000" lon="6.1687900"><ele>176.0</ele></trkpt>
    <trkpt lat="49.1168130" lon="6.1687060"><ele>175.8</ele></trkpt>
    <trkpt lat="49.1168250" lon="6.1686460"><ele>175.5</ele></trkpt>
    <trkpt lat="49.1168470" lon="6.1685320"><ele>173.8</ele></trkpt>
    <trkpt lat="49.1168590" lon="6.1684590"><ele>172.5</ele></trkpt>
    <trkpt lat="49.1168710" lon="6.1683910"><ele>171.5</ele></trkpt>
    <trkpt lat="49.1168760" lon="6.1682370"><ele>169.8</ele></trkpt>
    <trkpt lat="49.1168490" lon="6.1680530"><ele>168.2</ele></trkpt>
    <trkpt lat="49.1167840" lon="6.1679080"><ele>168.0</ele></trkpt>
    <trkpt lat="49.1166960" lon="6.1677890"><ele>168.5</ele></trkpt>
    <trkpt lat="49.1166360" lon="6.1677680"><ele>168.8</ele></trkpt>
    <trkpt lat="49.1165940" lon="6.1675660"><ele>167.2</ele></trkpt>
    <trkpt lat="49.1166120" lon="6.1674750"><ele>167.0</ele></trkpt>
    <trkpt lat="49.1161370" lon="6.1670360"><ele>167.0</ele></trkpt>
    <trkpt lat="49.1160810" lon="6.1671560"><ele>167.0</ele></trkpt>
    <trkpt lat="49.1160810" lon="6.1671560"><ele>167.0</ele></trkpt>
    <trkpt lat="49.1161370" lon="6.1670360"><ele>167.0</ele></trkpt>
    <trkpt lat="49.1155630" lon="6.1664490"><ele>168.8</ele></trkpt>
    <trkpt lat="49.1155160" lon="6.1664240"><ele>169.2</ele></trkpt>
    <trkpt lat="49.1154800" lon="6.1662560"><ele>168.2</ele></trkpt>
    <trkpt lat="49.1154710" lon="6.1661920"><ele>167.8</ele></trkpt>
    <trkpt lat="49.1155090" lon="6.1653460"><ele>168.8</ele></trkpt>
    <trkpt lat="49.1155290" lon="6.1652720"><ele>169.8</ele></trkpt>
    <trkpt lat="49.1154730" lon="6.1652540"><ele>169.2</ele></trkpt>
    <trkpt lat="49.1153570" lon="6.1652340"><ele>168.2</ele></trkpt>
    <trkpt lat="49.1152870" lon="6.1652400"><ele>167.8</ele></trkpt>
    <trkpt lat="49.1150160" lon="6.1653050"><ele>166.8</ele></trkpt>
    <trkpt lat="49.1150270" lon="6.1650560"><ele>167.0</ele></trkpt>
    <trkpt lat="49.1149870" lon="6.1649000"><ele>167.0</ele></trkpt>
    <trkpt lat="49.1149550" lon="6.1647060"><ele>167.0</ele></trkpt>
    <trkpt lat="49.1149230" lon="6.1643200"><ele>166.5</ele></trkpt>
    <trkpt lat="49.1149240" lon="6.1642460"><ele>166.2</ele></trkpt>
    <trkpt lat="49.1150220" lon="6.1635940"><ele>166.8</ele></trkpt>
    <trkpt lat="49.1150950" lon="6.1632470"><ele>166.5</ele></trkpt>
    <trkpt lat="49.1152430" lon="6.1627130"><ele>166.8</ele></trkpt>
    <trkpt lat="49.1153000" lon="6.1625090"><ele>166.8</ele></trkpt>
    <trkpt lat="49.1153470" lon="6.1623900"><ele>166.8</ele></trkpt>
    <trkpt lat="49.1153920" lon="6.1623260"><ele>166.8</ele></trkpt>
    <trkpt lat="49.1154420" lon="6.1622690"><ele>166.8</ele></trkpt>
    <trkpt lat="49.1156350" lon="6.1621180"><ele>166.8</ele></trkpt>
    <trkpt lat="49.1156280" lon="6.1614550"><ele>168.0</ele></trkpt>
    <trkpt lat="49.1155890" lon="6.1613440"><ele>168.0</ele></trkpt>
    <trkpt lat="49.1155490" lon="6.1612120"><ele>168.0</ele></trkpt>
    <trkpt lat="49.1155070" lon="6.1610720"><ele>168.5</ele></trkpt>
    <trkpt lat="49.1155240" lon="6.1610330"><ele>168.5</ele></trkpt>
    <trkpt lat="49.1159510" lon="6.1604110"><ele>169.8</ele></trkpt>
    <trkpt lat="49.1161620" lon="6.1600410"><ele>168.2</ele></trkpt>
    <trkpt lat="49.1162470" lon="6.1598330"><ele>169.5</ele></trkpt>
    <trkpt lat="49.1162680" lon="6.1597420"><ele>169.8</ele></trkpt>
    <trkpt lat="49.1162890" lon="6.1595710"><ele>168.8</ele></trkpt>
    <trkpt lat="49.1162950" lon="6.1594740"><ele>168.2</ele></trkpt>
    <trkpt lat="49.1162880" lon="6.1593550"><ele>168.0</ele></trkpt>
    <trkpt lat="49.1162550" lon="6.1591050"><ele>167.2</ele></trkpt>
    <trkpt lat="49.1162010" lon="6.1589270"><ele>167.5</ele></trkpt>
    <trkpt lat="49.1161100" lon="6.1587450"><ele>168.0</ele></trkpt>
    <trkpt lat="49.1160240" lon="6.1586300"><ele>168.2</ele></trkpt>
    <trkpt lat="49.1159150" lon="6.1585190"><ele>168.0</ele></trkpt>
    <trkpt lat="49.1157130" lon="6.1584040"><ele>168.0</ele></trkpt>
    <trkpt lat="49.1156940" lon="6.1583580"><ele>168.0</ele></trkpt>
    <trkpt lat="49.1156260" lon="6.1579730"><ele>167.5</ele></trkpt>
    <trkpt lat="49.1155680" lon="6.1578630"><ele>167.8</ele></trkpt>
    <trkpt lat="49.1156980" lon="6.1576840"><ele>167.5</ele></trkpt>
    <trkpt lat="49.1158830" lon="6.1574240"><ele>167.8</ele></trkpt>
    <trkpt lat="49.1163100" lon="6.1567840"><ele>167.8</ele></trkpt>
    <trkpt lat="49.1166770" lon="6.1562120"><ele>167.5</ele></trkpt>
    <trkpt lat="49.1168560" lon="6.1558450"><ele>167.2</ele></trkpt>
    <trkpt lat="49.1173060" lon="6.1549190"><ele>167.8</ele></trkpt>
    <trkpt lat="49.1174130" lon="6.1546540"><ele>168.0</ele></trkpt>
    <trkpt lat="49.1174500" lon="6.1545130"><ele>168.0</ele></trkpt>
    <trkpt lat="49.1174890" lon="6.1543340"><ele>168.0</ele></trkpt>
    <trkpt lat="49.1176830" lon="6.1529120"><ele>168.0</ele></trkpt>
    <trkpt lat="49.1176890" lon="6.1528610"><ele>168.0</ele></trkpt>
    <trkpt lat="49.1178190" lon="6.1529020"><ele>167.8</ele></trkpt>
    <trkpt lat="49.1178560" lon="6.1526330"><ele>167.5</ele></trkpt>
    <trkpt lat="49.1178930" lon="6.1522690"><ele>167.5</ele></trkpt>
    <trkpt lat="49.1179380" lon="6.1519000"><ele>167.2</ele></trkpt>
    <trkpt lat="49.1179630" lon="6.1516560"><ele>167.2</ele></trkpt>
    <trkpt lat="49.1179490" lon="6.1512970"><ele>167.2</ele></trkpt>
    <trkpt lat="49.1179340" lon="6.1511750"><ele>167.2</ele></trkpt>
    <trkpt lat="49.1179120" lon="6.1510580"><ele>167.5</ele></trkpt>
    <trkpt lat="49.1179340" lon="6.1511750"><ele>167.2</ele></trkpt>
    <trkpt lat="49.1179490" lon="6.1512970"><ele>167.2</ele></trkpt>
    <trkpt lat="49.1179630" lon="6.1516560"><ele>167.2</ele></trkpt>
    <trkpt lat="49.1179380" lon="6.1519000"><ele>167.2</ele></trkpt>
    <trkpt lat="49.1178930" lon="6.1522690"><ele>167.5</ele></trkpt>
    <trkpt lat="49.1178560" lon="6.1526330"><ele>167.5</ele></trkpt>
    <trkpt lat="49.1178190" lon="6.1529020"><ele>167.8</ele></trkpt>
    <trkpt lat="49.1177530" lon="6.1535600"><ele>167.0</ele></trkpt>
    <trkpt lat="49.1177120" lon="6.1541800"><ele>167.0</ele></trkpt>
    <trkpt lat="49.1176720" lon="6.1543170"><ele>167.2</ele></trkpt>
    <trkpt lat="49.1176580" lon="6.1544150"><ele>167.2</ele></trkpt>
    <trkpt lat="49.1176610" lon="6.1545830"><ele>167.2</ele></trkpt>
    <trkpt lat="49.1176760" lon="6.1547520"><ele>167.2</ele></trkpt>
    <trkpt lat="49.1177000" lon="6.1548610"><ele>167.0</ele></trkpt>
    <trkpt lat="49.1178060" lon="6.1550950"><ele>166.8</ele></trkpt>
    <trkpt lat="49.1177960" lon="6.1551300"><ele>166.8</ele></trkpt>
    <trkpt lat="49.1177960" lon="6.1553810"><ele>166.5</ele></trkpt>
    <trkpt lat="49.1177890" lon="6.1556250"><ele>166.0</ele></trkpt>
    <trkpt lat="49.1177760" lon="6.1557120"><ele>166.0</ele></trkpt>
    <trkpt lat="49.1177550" lon="6.1560450"><ele>166.0</ele></trkpt>
    <trkpt lat="49.1177690" lon="6.1561370"><ele>166.0</ele></trkpt>
    <trkpt lat="49.1177910" lon="6.1562090"><ele>166.0</ele></trkpt>
    <trkpt lat="49.1178020" lon="6.1562680"><ele>165.8</ele></trkpt>
    <trkpt lat="49.1177530" lon="6.1566650"><ele>166.8</ele></trkpt>
    <trkpt lat="49.1176590" lon="6.1572550"><ele>167.5</ele></trkpt>
    <trkpt lat="49.1176110" lon="6.1576990"><ele>167.0</ele></trkpt>
    <trkpt lat="49.1175980" lon="6.1579790"><ele>167.2</ele></trkpt>
    <trkpt lat="49.1176420" lon="6.1583190"><ele>167.2</ele></trkpt>
    <trkpt lat="49.1177680" lon="6.1589450"><ele>168.0</ele></trkpt>
    <trkpt lat="49.1178280" lon="6.1591480"><ele>168.2</ele></trkpt>
    <trkpt lat="49.1178830" lon="6.1593070"><ele>167.5</ele></trkpt>
    <trkpt lat="49.1181380" lon="6.1599080"><ele>167.8</ele></trkpt>
    <trkpt lat="49.1182070" lon="6.1600500"><ele>167.5</ele></trkpt>
    <trkpt lat="49.1182310" lon="6.1601360"><ele>167.8</ele></trkpt>
    <trkpt lat="49.1183120" lon="6.1604360"><ele>167.8</ele></trkpt>
    <trkpt lat="49.1183730" lon="6.1607530"><ele>167.5</ele></trkpt>
    <trkpt lat="49.1182340" lon="6.1608430"><ele>168.5</ele></trkpt>
    <trkpt lat="49.1181150" lon="6.1607770"><ele>169.8</ele></trkpt>
    <trkpt lat="49.1182470" lon="6.1607230"><ele>168.8</ele></trkpt>
    <trkpt lat="49.1188230" lon="6.1606150"><ele>168.5</ele></trkpt>
    <trkpt lat="49.1190320" lon="6.1605840"><ele>170.2</ele></trkpt>
    <trkpt lat="49.1190810" lon="6.1605930"><ele>170.2</ele></trkpt>
    <trkpt lat="49.1191400" lon="6.1606310"><ele>170.2</ele></trkpt>
    <trkpt lat="49.1191870" lon="6.1606800"><ele>170.0</ele></trkpt>
    <trkpt lat="49.1192360" lon="6.1607540"><ele>169.2</ele></trkpt>
    <trkpt lat="49.1193110" lon="6.1608110"><ele>168.5</ele></trkpt>
    <trkpt lat="49.1193830" lon="6.1608360"><ele>168.0</ele></trkpt>
    <trkpt lat="49.1194370" lon="6.1608890"><ele>168.0</ele></trkpt>
    <trkpt lat="49.1194620" lon="6.1608800"><ele>167.8</ele></trkpt>
    <trkpt lat="49.1196830" lon="6.1608030"><ele>167.2</ele></trkpt>
    <trkpt lat="49.1197000" lon="6.1609040"><ele>167.2</ele></trkpt>
    <trkpt lat="49.1197950" lon="6.1611120"><ele>167.5</ele></trkpt>
    <trkpt lat="49.1201090" lon="6.1612430"><ele>167.0</ele></trkpt>
    <trkpt lat="49.1201140" lon="6.1612450"><ele>167.0</ele></trkpt>
    <trkpt lat="49.1201620" lon="6.1615810"><ele>167.0</ele></trkpt>
    <trkpt lat="49.1202160" lon="6.1619570"><ele>167.0</ele></trkpt>
    <trkpt lat="49.1202790" lon="6.1623910"><ele>166.8</ele></trkpt>
    <trkpt lat="49.1203380" lon="6.1628100"><ele>167.0</ele></trkpt>
    <trkpt lat="49.1203660" lon="6.1628970"><ele>167.0</ele></trkpt>
    <trkpt lat="49.1203710" lon="6.1630360"><ele>167.0</ele></trkpt>
    <trkpt lat="49.1203720" lon="6.1630880"><ele>167.0</ele></trkpt>
    <trkpt lat="49.1203640" lon="6.1631110"><ele>167.0</ele></trkpt>
    <trkpt lat="49.1203880" lon="6.1631900"><ele>167.0</ele></trkpt>
    <trkpt lat="49.1203940" lon="6.1632550"><ele>167.0</ele></trkpt>
    <trkpt lat="49.1204150" lon="6.1636870"><ele>167.5</ele></trkpt>
    <trkpt lat="49.1203880" lon="6.1641210"><ele>167.2</ele></trkpt>
    <trkpt lat="49.1203630" lon="6.1642400"><ele>167.2</ele></trkpt>
    <trkpt lat="49.1203410" lon="6.1643110"><ele>167.5</ele></trkpt>
    <trkpt lat="49.1203080" lon="6.1644890"><ele>168.0</ele></trkpt>
    <trkpt lat="49.1202690" lon="6.1647530"><ele>167.8</ele></trkpt>
    <trkpt lat="49.1202330" lon="6.1650630"><ele>167.8</ele></trkpt>
    <trkpt lat="49.1202040" lon="6.1654300"><ele>167.5</ele></trkpt>
    <trkpt lat="49.1201850" lon="6.1655510"><ele>167.5</ele></trkpt>
    <trkpt lat="49.1201550" lon="6.1656830"><ele>167.8</ele></trkpt>
    <trkpt lat="49.1201160" lon="6.1657680"><ele>167.8</ele></trkpt>
    <trkpt lat="49.1200120" lon="6.1659190"><ele>168.0</ele></trkpt>
    <trkpt lat="49.1199840" lon="6.1659370"><ele>168.0</ele></trkpt>
    <trkpt lat="49.1199470" lon="6.1659350"><ele>168.0</ele></trkpt>
    <trkpt lat="49.1199260" lon="6.1660010"><ele>168.0</ele></trkpt>
    <trkpt lat="49.1199720" lon="6.1661250"><ele>168.0</ele></trkpt>
    <trkpt lat="49.1199910" lon="6.1661750"><ele>168.0</ele></trkpt>
    <trkpt lat="49.1199880" lon="6.1662610"><ele>168.0</ele></trkpt>
    <trkpt lat="49.1199800" lon="6.1663160"><ele>168.0</ele></trkpt>
    <trkpt lat="49.1199570" lon="6.1663850"><ele>168.0</ele></trkpt>
    <trkpt lat="49.1198980" lon="6.1664940"><ele>168.0</ele></trkpt>
    <trkpt lat="49.1198630" lon="6.1665620"><ele>168.0</ele></trkpt>
    <trkpt lat="49.1198260" lon="6.1666300"><ele>168.0</ele></trkpt>
    <trkpt lat="49.1198940" lon="6.1667070"><ele>168.0</ele></trkpt>
    <trkpt lat="49.1200160" lon="6.1668450"><ele>168.0</ele></trkpt>
    <trkpt lat="49.1199650" lon="6.1669530"><ele>168.0</ele></trkpt>
    <trkpt lat="49.1199400" lon="6.1670250"><ele>168.0</ele></trkpt>
    <trkpt lat="49.1199400" lon="6.1671220"><ele>168.0</ele></trkpt>
    <trkpt lat="49.1199490" lon="6.1672160"><ele>168.0</ele></trkpt>
    <trkpt lat="49.1199740" lon="6.1673200"><ele>167.5</ele></trkpt>
    <trkpt lat="49.1200110" lon="6.1673880"><ele>167.0</ele></trkpt>
    <trkpt lat="49.1199850" lon="6.1674380"><ele>167.0</ele></trkpt>
    <trkpt lat="49.1200240" lon="6.1675010"><ele>166.8</ele></trkpt>
    <trkpt lat="49.1203080" lon="6.1680210"><ele>166.5</ele></trkpt>
    <trkpt lat="49.1203120" lon="6.1680550"><ele>166.2</ele></trkpt>
    <trkpt lat="49.1203160" lon="6.1680840"><ele>166.5</ele></trkpt>
    <trkpt lat="49.1203080" lon="6.1681070"><ele>166.5</ele></trkpt>
    <trkpt lat="49.1202660" lon="6.1681300"><ele>166.5</ele></trkpt>
    <trkpt lat="49.1202850" lon="6.1682020"><ele>167.5</ele></trkpt>
    <trkpt lat="49.1202930" lon="6.1682660"><ele>168.2</ele></trkpt>
    <trkpt lat="49.1203120" lon="6.1683480"><ele>168.8</ele></trkpt>
    <trkpt lat="49.1203500" lon="6.1683220"><ele>168.5</ele></trkpt>
    <trkpt lat="49.1203940" lon="6.1683150"><ele>168.2</ele></trkpt>
    <trkpt lat="49.1206710" lon="6.1688400"><ele>168.8</ele></trkpt>
    <trkpt lat="49.1207570" lon="6.1689150"><ele>169.0</ele></trkpt>
    <trkpt lat="49.1207900" lon="6.1689680"><ele>168.8</ele></trkpt>
    <trkpt lat="49.1206230" lon="6.1692310"><ele>169.0</ele></trkpt>
    <trkpt lat="49.1206140" lon="6.1692460"><ele>169.2</ele></trkpt>
    <trkpt lat="49.1205970" lon="6.1692690"><ele>169.2</ele></trkpt>
    <trkpt lat="49.1208210" lon="6.1695720"><ele>169.5</ele></trkpt>
    <trkpt lat="49.1211240" lon="6.1699530"><ele>168.8</ele></trkpt>
    <trkpt lat="49.1215160" lon="6.1704470"><ele>168.0</ele></trkpt>
    <trkpt lat="49.1214950" lon="6.1704880"><ele>168.0</ele></trkpt>
    <trkpt lat="49.1215050" lon="6.1705150"><ele>168.0</ele></trkpt>
    <trkpt lat="49.1215030" lon="6.1705490"><ele>168.0</ele></trkpt>
    <trkpt lat="49.1215130" lon="6.1705610"><ele>167.8</ele></trkpt>
    <trkpt lat="49.1215290" lon="6.1705880"><ele>167.8</ele></trkpt>
    <trkpt lat="49.1213480" lon="6.1708880"><ele>167.0</ele></trkpt>
    <trkpt lat="49.1214260" lon="6.1710660"><ele>167.5</ele></trkpt>
    <trkpt lat="49.1215170" lon="6.1713880"><ele>166.2</ele></trkpt>
    <trkpt lat="49.1214260" lon="6.1710660"><ele>167.5</ele></trkpt>
    <trkpt lat="49.1213480" lon="6.1708880"><ele>167.0</ele></trkpt>
    <trkpt lat="49.1213260" lon="6.1708580"><ele>167.0</ele></trkpt>
    <trkpt lat="49.1213140" lon="6.1708770"><ele>167.0</ele></trkpt>
    <trkpt lat="49.1212570" lon="6.1708310"><ele>167.0</ele></trkpt>
    <trkpt lat="49.1200330" lon="6.1700220"><ele>168.8</ele></trkpt>
    <trkpt lat="49.1200060" lon="6.1699880"><ele>169.0</ele></trkpt>
    <trkpt lat="49.1199820" lon="6.1700170"><ele>168.8</ele></trkpt>
    <trkpt lat="49.1199310" lon="6.1700790"><ele>168.8</ele></trkpt>
    <trkpt lat="49.1199050" lon="6.1701490"><ele>168.8</ele></trkpt>
    <trkpt lat="49.1198490" lon="6.1702460"><ele>169.0</ele></trkpt>
    <trkpt lat="49.1198160" lon="6.1702950"><ele>169.0</ele></trkpt>
    <trkpt lat="49.1197510" lon="6.1703950"><ele>168.0</ele></trkpt>
    <trkpt lat="49.1194160" lon="6.1709210"><ele>168.0</ele></trkpt>
    <trkpt lat="49.1193840" lon="6.1709920"><ele>169.5</ele></trkpt>
    <trkpt lat="49.1193900" lon="6.1710220"><ele>169.8</ele></trkpt>
    <trkpt lat="49.1193520" lon="6.1710740"><ele>170.8</ele></trkpt>
    <trkpt lat="49.1193190" lon="6.1711350"><ele>171.2</ele></trkpt>
    <trkpt lat="49.1195320" lon="6.1714050"><ele>168.8</ele></trkpt>
    <trkpt lat="49.1195690" lon="6.1714690"><ele>169.0</ele></trkpt>
    <trkpt lat="49.1195940" lon="6.1715220"><ele>169.2</ele></trkpt>
    <trkpt lat="49.1195680" lon="6.1716300"><ele>170.5</ele></trkpt>
    <trkpt lat="49.1195100" lon="6.1718770"><ele>172.2</ele></trkpt>
    <trkpt lat="49.1194610" lon="6.1719990"><ele>173.0</ele></trkpt>
    <trkpt lat="49.1193330" lon="6.1725390"><ele>175.2</ele></trkpt>
    <trkpt lat="49.1192400" lon="6.1729180"><ele>177.0</ele></trkpt>
    <trkpt lat="49.1191420" lon="6.1733120"><ele>177.2</ele></trkpt>
    <trkpt lat="49.1190890" lon="6.1735250"><ele>178.2</ele></trkpt>
    <trkpt lat="49.1188890" lon="6.1739480"><ele>179.0</ele></trkpt>
    <trkpt lat="49.1188490" lon="6.1740430"><ele>179.8</ele></trkpt>
    <trkpt lat="49.1186870" lon="6.1745370"><ele>180.8</ele></trkpt>
    <trkpt lat="49.1184970" lon="6.1750450"><ele>180.0</ele></trkpt>
    <trkpt lat="49.1184610" lon="6.1750080"><ele>180.0</ele></trkpt>
    <trkpt lat="49.1184390" lon="6.1750530"><ele>180.0</ele></trkpt>
    <trkpt lat="49.1178570" lon="6.1760070"><ele>178.2</ele></trkpt>
    <trkpt lat="49.1177820" lon="6.1761170"><ele>178.0</ele></trkpt>
    <trkpt lat="49.1177270" lon="6.1762120"><ele>178.0</ele></trkpt>
    <trkpt lat="49.1174010" lon="6.1769650"><ele>175.5</ele></trkpt>
    <trkpt lat="49.1172750" lon="6.1772570"><ele>175.2</ele></trkpt>
    <trkpt lat="49.1169400" lon="6.1780060"><ele>173.0</ele></trkpt>
    <trkpt lat="49.1169380" lon="6.1780100"><ele>173.0</ele></trkpt>
    <trkpt lat="49.1168970" lon="6.1780910"><ele>173.0</ele></trkpt>
    <trkpt lat="49.1166880" lon="6.1779150"><ele>173.5</ele></trkpt>
    <trkpt lat="49.1164140" lon="6.1776850"><ele>173.8</ele></trkpt>
    <trkpt lat="49.1163770" lon="6.1776540"><ele>174.0</ele></trkpt>
    <trkpt lat="49.1163200" lon="6.1776130"><ele>174.0</ele></trkpt>
    <trkpt lat="49.1161750" lon="6.1775060"><ele>174.0</ele></trkpt>
    <trkpt lat="49.1160140" lon="6.1774070"><ele>174.0</ele></trkpt>
    <trkpt lat="49.1158090" lon="6.1772820"><ele>174.0</ele></trkpt>
    <trkpt lat="49.1155220" lon="6.1770330"><ele>175.0</ele></trkpt>
    <trkpt lat="49.1153870" lon="6.1768670"><ele>174.0</ele></trkpt>
  </trkseg></trk>
</gpx>