<?xml version="1.0" encoding="UTF-8"?>
<gpx version="1.1" creator="olifant"
     xmlns="http://www.topografix.com/GPX/1/1"
     xmlns:xsi="http://www.w3.org/2001/XMLSchema-instance"
     xsi:schemaLocation="http://www.topografix.com/GPX/1/1 http://www.topografix.com/GPX/1/1/gpx.xsd">
  <metadata><name>La Nouvelle Ville et l'eau</name><desc>5.9 km. D+ 21 m. 25 % de chemins. La traversee des rues allemandes, de la gare a Maud'Huy, puis le basculement vers l'Esplanade, le lac aux Cygnes et le Saulcy. Beaucoup de trottoir a l'aller, l'eau tout le retour, et rien en double.</desc></metadata>
  <wpt lat="49.1153870" lon="6.1768700"><name>Rue des Parmentiers, Metz</name><desc>Depart des deux boucles vers Borny, dans la Nouvelle Ville. A dix minutes a pied de la gare, dont il partage les commodites.</desc></wpt>
  <wpt lat="49.1092770" lon="6.1770130"><name>Gare de Metz, parvis</name><desc>Point de ralliement des boucles a pied : a moins d'un quart d'heure de marche pour tout le monde. Abrite, cafe ouvert tot, toilettes.</desc></wpt>
  <wpt lat="49.1078690" lon="6.1696860"><name>Place Jean Moulin</name><desc>Entre la gare et le Sablon, sous les platanes.</desc></wpt>
  <wpt lat="49.1089250" lon="6.1671920"><name>Place de Maud'Huy</name><desc>Sud-ouest de la Nouvelle Ville, maisons allemandes.</desc></wpt>
  <wpt lat="49.1159680" lon="6.1705190"><name>Jardin de l'Esplanade</name><desc>Terrasse au-dessus de la Moselle, vue sur le Mont Saint-Quentin.</desc></wpt>
  <wpt lat="49.1161600" lon="6.1673270"><name>Parc du Lac aux Cygnes</name><desc>Rive du plan d'eau sous l'Esplanade, cygnes et saules.</desc></wpt>
  <wpt lat="49.1201090" lon="6.1612490"><name>Ile du Saulcy</name><desc>Ile universitaire, tres calme hors semestre. Cygnes sur les deux bras.</desc></wpt>
  <trk><name>La Nouvelle Ville et l'eau</name><trkseg>
    <trkpt lat="49.1153870" lon="6.1768670"><ele>174.5</ele></trkpt>
    <trkpt lat="49.1151930" lon="6.1766270"><ele>174.0</ele></trkpt>
    <trkpt lat="49.1150400" lon="6.1763740"><ele>174.0</ele></trkpt>
    <trkpt lat="49.1149300" lon="6.1761790"><ele>174.0</ele></trkpt>
    <trkpt lat="49.1149200" lon="6.1761630"><ele>174.0</ele></trkpt>
    <trkpt lat="49.1147900" lon="6.1759210"><ele>174.0</ele></trkpt>
    <trkpt lat="49.1146430" lon="6.1763650"><ele>174.2</ele></trkpt>
    <trkpt lat="49.1145180" lon="6.1766400"><ele>174.0</ele></trkpt>
    <trkpt lat="49.1143590" lon="6.1770090"><ele>173.8</ele></trkpt>
    <trkpt lat="49.1143230" lon="6.1769710"><ele>173.8</ele></trkpt>
    <trkpt lat="49.1143010" lon="6.1769480"><ele>173.8</ele></trkpt>
    <trkpt lat="49.1142300" lon="6.1768800"><ele>174.0</ele></trkpt>
    <trkpt lat="49.1141940" lon="6.1768190"><ele>173.8</ele></trkpt>
    <trkpt lat="49.1140080" lon="6.1764480"><ele>174.0</ele></trkpt>
    <trkpt lat="49.1139730" lon="6.1763770"><ele>174.0</ele></trkpt>
    <trkpt lat="49.1139380" lon="6.1764170"><ele>174.0</ele></trkpt>
    <trkpt lat="49.1138400" lon="6.1765460"><ele>173.8</ele></trkpt>
    <trkpt lat="49.1137550" lon="6.1766900"><ele>173.2</ele></trkpt>
    <trkpt lat="49.1134950" lon="6.1771290"><ele>172.5</ele></trkpt>
    <trkpt lat="49.1134340" lon="6.1772320"><ele>172.2</ele></trkpt>
    <trkpt lat="49.1134190" lon="6.1772110"><ele>172.2</ele></trkpt>
    <trkpt lat="49.1133810" lon="6.1771580"><ele>172.2</ele></trkpt>
    <trkpt lat="49.1133110" lon="6.1770930"><ele>172.5</ele></trkpt>
    <trkpt lat="49.1131200" lon="6.1770840"><ele>172.8</ele></trkpt>
    <trkpt lat="49.1128790" lon="6.1770730"><ele>172.5</ele></trkpt>
    <trkpt lat="49.1128480" lon="6.1770910"><ele>172.5</ele></trkpt>
    <trkpt lat="49.1127910" lon="6.1771630"><ele>172.2</ele></trkpt>
    <trkpt lat="49.1126890" lon="6.1771240"><ele>172.0</ele></trkpt>
    <trkpt lat="49.1126360" lon="6.1771060"><ele>172.0</ele></trkpt>
    <trkpt lat="49.1123240" lon="6.1770810"><ele>172.5</ele></trkpt>
    <trkpt lat="49.1123020" lon="6.1771020"><ele>172.5</ele></trkpt>
    <trkpt lat="49.1122290" lon="6.1770720"><ele>172.8</ele></trkpt>
    <trkpt lat="49.1121780" lon="6.1770620"><ele>173.0</ele></trkpt>
    <trkpt lat="49.1121110" lon="6.1770570"><ele>173.0</ele></trkpt>
    <trkpt lat="49.1120240" lon="6.1770450"><ele>173.0</ele></trkpt>
    <trkpt lat="49.1118110" lon="6.1770250"><ele>173.2</ele></trkpt>
    <trkpt lat="49.1117780" lon="6.1770220"><ele>173.2</ele></trkpt>
    <trkpt lat="49.1117430" lon="6.1770240"><ele>173.5</ele></trkpt>
    <trkpt lat="49.1117400" lon="6.1770900"><ele>173.2</ele></trkpt>
    <trkpt lat="49.1117280" lon="6.1771600"><ele>173.0</ele></trkpt>
    <trkpt lat="49.1116960" lon="6.1771580"><ele>173.0</ele></trkpt>
    <trkpt lat="49.1116650" lon="6.1771560"><ele>173.0</ele></trkpt>
    <trkpt lat="49.1116320" lon="6.1771560"><ele>173.2</ele></trkpt>
    <trkpt lat="49.1115790" lon="6.1771550"><ele>173.2</ele></trkpt>
    <trkpt lat="49.1114960" lon="6.1771530"><ele>173.5</ele></trkpt>
    <trkpt lat="49.1114620" lon="6.1771520"><ele>173.8</ele></trkpt>
    <trkpt lat="49.1114050" lon="6.1771540"><ele>173.8</ele></trkpt>
    <trkpt lat="49.1113850" lon="6.1771150"><ele>174.0</ele></trkpt>
    <trkpt lat="49.1113740" lon="6.1771080"><ele>174.0</ele></trkpt>
    <trkpt lat="49.1109830" lon="6.1771340"><ele>174.0</ele></trkpt>
    <trkpt lat="49.1107120" lon="6.1771360"><ele>174.0</ele></trkpt>
    <trkpt lat="49.1106040" lon="6.1771460"><ele>174.0</ele></trkpt>
    <trkpt lat="49.1105950" lon="6.1771470"><ele>173.8</ele></trkpt>
    <trkpt lat="49.1105680" lon="6.1771500"><ele>174.0</ele></trkpt>
    <trkpt lat="49.1105310" lon="6.1770570"><ele>173.8</ele></trkpt>
    <trkpt lat="49.1104880" lon="6.1769460"><ele>173.8</ele></trkpt>
    <trkpt lat="49.1104060" lon="6.1769440"><ele>174.0</ele></trkpt>
    <trkpt lat="49.1102540" lon="6.1766380"><ele>174.0</ele></trkpt>
    <trkpt lat="49.1102330" lon="6.1766610"><ele>174.0</ele></trkpt>
    <trkpt lat="49.1101660" lon="6.1767370"><ele>174.0</ele></trkpt>
    <trkpt lat="49.1101280" lon="6.1767800"><ele>174.0</ele></trkpt>
    <trkpt lat="49.1100150" lon="6.1769620"><ele>173.8</ele></trkpt>
    <trkpt lat="49.1099770" lon="6.1770100"><ele>174.2</ele></trkpt>
    <trkpt lat="49.1099000" lon="6.1770060"><ele>175.5</ele></trkpt>
    <trkpt lat="49.1098720" lon="6.1770370"><ele>176.0</ele></trkpt>
    <trkpt lat="49.1097880" lon="6.1771340"><ele>178.0</ele></trkpt>
    <trkpt lat="49.1096300" lon="6.1773040"><ele>179.8</ele></trkpt>
    <trkpt lat="49.1095730" lon="6.1773630"><ele>179.5</ele></trkpt>
    <trkpt lat="49.1095400" lon="6.1773130"><ele>179.8</ele></trkpt>
    <trkpt lat="49.1095290" lon="6.1772910"><ele>179.8</ele></trkpt>
    <trkpt lat="49.1094690" lon="6.1771660"><ele>179.8</ele></trkpt>
    <trkpt lat="49.1094370" lon="6.1771030"><ele>179.8</ele></trkpt>
    <trkpt lat="49.1093930" lon="6.1771540"><ele>179.8</ele></trkpt>
    <trkpt lat="49.1093080" lon="6.1769770"><ele>179.2</ele></trkpt>
    <trkpt lat="49.1091220" lon="6.1765920"><ele>179.2</ele></trkpt>
    <trkpt lat="49.1091670" lon="6.1765400"><ele>179.8</ele></trkpt>
    <trkpt lat="49.1091390" lon="6.1764790"><ele>180.0</ele></trkpt>
    <trkpt lat="49.1090450" lon="6.1762850"><ele>178.8</ele></trkpt>
    <trkpt lat="49.1090320" lon="6.1762620"><ele>178.5</ele></trkpt>
    <trkpt lat="49.1090190" lon="6.1762350"><ele>178.2</ele></trkpt>
    <trkpt lat="49.1090760" lon="6.1761690"><ele>177.0</ele></trkpt>
    <trkpt lat="49.1091370" lon="6.1760960"><ele>175.2</ele></trkpt>
    <trkpt lat="49.1091610" lon="6.1760650"><ele>174.8</ele></trkpt>
    <trkpt lat="49.1091720" lon="6.1760490"><ele>174.8</ele></trkpt>
    <trkpt lat="49.1091660" lon="6.1759730"><ele>174.5</ele></trkpt>
    <trkpt lat="49.1092560" lon="6.1758440"><ele>174.0</ele></trkpt>
    <trkpt lat="49.1092890" lon="6.1758030"><ele>174.0</ele></trkpt>
    <trkpt lat="49.1093300" lon="6.1757580"><ele>174.0</ele></trkpt>
    <trkpt lat="49.1093560" lon="6.1757300"><ele>174.0</ele></trkpt>
    <trkpt lat="49.1094440" lon="6.1756340"><ele>174.0</ele></trkpt>
    <trkpt lat="49.1094570" lon="6.1756210"><ele>174.0</ele></trkpt>
    <trkpt lat="49.1093130" lon="6.1753340"><ele>173.5</ele></trkpt>
    <trkpt lat="49.1093750" lon="6.1752600"><ele>173.8</ele></trkpt>
    <trkpt lat="49.1094030" lon="6.1752270"><ele>173.8</ele></trkpt>
    <trkpt lat="49.1094540" lon="6.1751360"><ele>174.0</ele></trkpt>
    <trkpt lat="49.1094600" lon="6.1751030"><ele>174.0</ele></trkpt>
    <trkpt lat="49.1095390" lon="6.1750130"><ele>174.0</ele></trkpt>
    <trkpt lat="49.1095960" lon="6.1750190"><ele>174.0</ele></trkpt>
    <trkpt lat="49.1096070" lon="6.1749180"><ele>174.0</ele></trkpt>
    <trkpt lat="49.1096290" lon="6.1748670"><ele>174.0</ele></trkpt>
    <trkpt lat="49.1096440" lon="6.1748320"><ele>174.0</ele></trkpt>
    <trkpt lat="49.1097500" lon="6.1747000"><ele>173.8</ele></trkpt>
    <trkpt lat="49.1096860" lon="6.1745680"><ele>174.5</ele></trkpt>
    <trkpt lat="49.1096790" lon="6.1745530"><ele>174.5</ele></trkpt>
    <trkpt lat="49.1096410" lon="6.1744660"><ele>174.8</ele></trkpt>
    <trkpt lat="49.1096880" lon="6.1744130"><ele>175.0</ele></trkpt>
    <trkpt lat="49.1099240" lon="6.1741380"><ele>175.8</ele></trkpt>
    <trkpt lat="49.1099470" lon="6.1741120"><ele>175.8</ele></trkpt>
    <trkpt lat="49.1100180" lon="6.1740600"><ele>176.0</ele></trkpt>
    <trkpt lat="49.1100630" lon="6.1740290"><ele>176.0</ele></trkpt>
    <trkpt lat="49.1099000" lon="6.1735790"><ele>177.0</ele></trkpt>
    <trkpt lat="49.1098310" lon="6.1733500"><ele>177.0</ele></trkpt>
    <trkpt lat="49.1096810" lon="6.1729210"><ele>177.0</ele></trkpt>
    <trkpt lat="49.1094780" lon="6.1723610"><ele>178.0</ele></trkpt>
    <trkpt lat="49.1094480" lon="6.1722980"><ele>178.0</ele></trkpt>
    <trkpt lat="49.1094090" lon="6.1722150"><ele>178.0</ele></trkpt>
    <trkpt lat="49.1092860" lon="6.1720080"><ele>178.2</ele></trkpt>
    <trkpt lat="49.1092630" lon="6.1719840"><ele>178.2</ele></trkpt>
    <trkpt lat="49.1091960" lon="6.1719040"><ele>178.0</ele></trkpt>
    <trkpt lat="49.1091630" lon="6.1718670"><ele>178.2</ele></trkpt>
    <trkpt lat="49.1089980" lon="6.1716300"><ele>178.2</ele></trkpt>
    <trkpt lat="49.1089750" lon="6.1715880"><ele>178.5</ele></trkpt>
    <trkpt lat="49.1089240" lon="6.1714790"><ele>178.5</ele></trkpt>
    <trkpt lat="49.1088790" lon="6.1714090"><ele>178.8</ele></trkpt>
    <trkpt lat="49.1081770" lon="6.1704250"><ele>179.2</ele></trkpt>
    <trkpt lat="49.1079630" lon="6.1701330"><ele>179.8</ele></trkpt>
    <trkpt lat="49.1079070" lon="6.1700720"><ele>179.8</ele></trkpt>
    <trkpt lat="49.1078770" lon="6.1699800"><ele>180.0</ele></trkpt>
    <trkpt lat="49.1078380" lon="6.1700040"><ele>179.8</ele></trkpt>
    <trkpt lat="49.1078210" lon="6.1699340"><ele>180.0</ele></trkpt>
    <trkpt lat="49.1078500" lon="6.1698820"><ele>180.0</ele></trkpt>
    <trkpt lat="49.1078950" lon="6.1697010"><ele>180.5</ele></trkpt>
    <trkpt lat="49.1079310" lon="6.1695600"><ele>180.5</ele></trkpt>
    <trkpt lat="49.1080020" lon="6.1695660"><ele>180.5</ele></trkpt>
    <trkpt lat="49.1080020" lon="6.1695210"><ele>180.5</ele></trkpt>
    <trkpt lat="49.1080020" lon="6.1694600"><ele>180.8</ele></trkpt>
    <trkpt lat="49.1080040" lon="6.1693940"><ele>181.0</ele></trkpt>
    <trkpt lat="49.1080150" lon="6.1693550"><ele>181.0</ele></trkpt>
    <trkpt lat="49.1080310" lon="6.1692980"><ele>181.0</ele></trkpt>
    <trkpt lat="49.1080430" lon="6.1692530"><ele>181.0</ele></trkpt>
    <trkpt lat="49.1080520" lon="6.1692100"><ele>181.0</ele></trkpt>
    <trkpt lat="49.1080170" lon="6.1691860"><ele>181.0</ele></trkpt>
    <trkpt lat="49.1080250" lon="6.1691550"><ele>181.0</ele></trkpt>
    <trkpt lat="49.1080300" lon="6.1691360"><ele>181.0</ele></trkpt>
    <trkpt lat="49.1080380" lon="6.1691060"><ele>181.0</ele></trkpt>
    <trkpt lat="49.1080120" lon="6.1690490"><ele>181.0</ele></trkpt>
    <trkpt lat="49.1082660" lon="6.1681440"><ele>181.5</ele></trkpt>
    <trkpt lat="49.1083730" lon="6.1678020"><ele>182.0</ele></trkpt>
    <trkpt lat="49.1084550" lon="6.1675630"><ele>182.0</ele></trkpt>
    <trkpt lat="49.1084810" lon="6.1674820"><ele>182.0</ele></trkpt>
    <trkpt lat="49.1085020" lon="6.1674150"><ele>182.2</ele></trkpt>
    <trkpt lat="49.1085330" lon="6.1673190"><ele>182.5</ele></trkpt>
    <trkpt lat="49.1086730" lon="6.1674210"><ele>182.2</ele></trkpt>
    <trkpt lat="49.1089710" lon="6.1676300"><ele>182.2</ele></trkpt>
    <trkpt lat="49.1090660" lon="6.1672820"><ele>183.0</ele></trkpt>
    <trkpt lat="49.1091520" lon="6.1669740"><ele>183.0</ele></trkpt>
    <trkpt lat="49.1091830" lon="6.1668620"><ele>183.0</ele></trkpt>
    <trkpt lat="49.1091980" lon="6.1668130"><ele>183.0</ele></trkpt>
    <trkpt lat="49.1093380" lon="6.1669130"><ele>183.0</ele></trkpt>
    <trkpt lat="49.1099400" lon="6.1672490"><ele>182.8</ele></trkpt>
    <trkpt lat="49.1099880" lon="6.1672760"><ele>182.8</ele></trkpt>
    <trkpt lat="49.1100210" lon="6.1672940"><ele>182.8</ele></trkpt>
    <trkpt lat="49.1101540" lon="6.1673670"><ele>182.8</ele></trkpt>
    <trkpt lat="49.1102140" lon="6.1673810"><ele>182.8</ele></trkpt>
    <trkpt lat="49.1102660" lon="6.1673870"><ele>182.8</ele></trkpt>
    <trkpt lat="49.1102800" lon="6.1673890"><ele>183.0</ele></trkpt>
    <trkpt lat="49.1103200" lon="6.1674010"><ele>183.0</ele></trkpt>
    <trkpt lat="49.1104100" lon="6.1674520"><ele>183.0</ele></trkpt>
    <trkpt lat="49.1104230" lon="6.1674860"><ele>183.0</ele></trkpt>
    <trkpt lat="49.1107260" lon="6.1676730"><ele>182.8</ele></trkpt>
    <trkpt lat="49.1114110" lon="6.1680830"><ele>183.0</ele></trkpt>
    <trkpt lat="49.1114840" lon="6.1681270"><ele>183.0</ele></trkpt>
    <trkpt lat="49.1119230" lon="6.1683900"><ele>183.0</ele></trkpt>
    <trkpt lat="49.1119480" lon="6.1683990"><ele>183.0</ele></trkpt>
    <trkpt lat="49.1119910" lon="6.1683850"><ele>183.0</ele></trkpt>
    <trkpt lat="49.1121500" lon="6.1684810"><ele>183.0</ele></trkpt>
    <trkpt lat="49.1121890" lon="6.1685240"><ele>183.0</ele></trkpt>
    <trkpt lat="49.1122170" lon="6.1685740"><ele>183.0</ele></trkpt>
    <trkpt lat="49.1122340" lon="6.1686170"><ele>182.8</ele></trkpt>
    <trkpt lat="49.1122500" lon="6.1686460"><ele>182.5</ele></trkpt>
    <trkpt lat="49.1122660" lon="6.1686410"><ele>182.5</ele></trkpt>
    <trkpt lat="49.1122960" lon="6.1686330"><ele>182.5</ele></trkpt>
    <trkpt lat="49.1123220" lon="6.1686380"><ele>182.5</ele></trkpt>
    <trkpt lat="49.1124130" lon="6.1687270"><ele>182.5</ele></trkpt>
    <trkpt lat="49.1124280" lon="6.1687500"><ele>182.8</ele></trkpt>
    <trkpt lat="49.1124430" lon="6.1688350"><ele>182.8</ele></trkpt>
    <trkpt lat="49.1124660" lon="6.1688810"><ele>183.2</ele></trkpt>
    <trkpt lat="49.1124990" lon="6.1688840"><ele>183.8</ele></trkpt>
    <trkpt lat="49.1125120" lon="6.1688950"><ele>184.0</ele></trkpt>
    <trkpt lat="49.1125620" lon="6.1689380"><ele>184.0</ele></trkpt>
    <trkpt lat="49.1125860" lon="6.1688840"><ele>183.8</ele></trkpt>
    <trkpt lat="49.1126130" lon="6.1688520"><ele>183.8</ele></trkpt>
    <trkpt lat="49.1126470" lon="6.1688300"><ele>183.8</ele></trkpt>
    <trkpt lat="49.1127010" lon="6.1688090"><ele>183.8</ele></trkpt>
    <trkpt lat="49.1127270" lon="6.1688760"><ele>183.8</ele></trkpt>
    <trkpt lat="49.1130790" lon="6.1693990"><ele>184.0</ele></trkpt>
    <trkpt lat="49.1132100" lon="6.1695740"><ele>184.2</ele></trkpt>
    <trkpt lat="49.1132960" lon="6.1696630"><ele>184.0</ele></trkpt>
    <trkpt lat="49.1133520" lon="6.1697070"><ele>184.0</ele></trkpt>
    <trkpt lat="49.1134710" lon="6.1698290"><ele>184.2</ele></trkpt>
    <trkpt lat="49.1136280" lon="6.1699850"><ele>184.0</ele></trkpt>
    <trkpt lat="49.1137230" lon="6.1700850"><ele>183.8</ele></trkpt>
    <trkpt lat="49.1137830" lon="6.1701490"><ele>183.8</ele></trkpt>
    <trkpt lat="49.1138720" lon="6.1702220"><ele>183.8</ele></trkpt>
    <trkpt lat="49.1139140" lon="6.1702640"><ele>183.8</ele></trkpt>
    <trkpt lat="49.1141240" lon="6.1704740"><ele>183.0</ele></trkpt>
    <trkpt lat="49.1141330" lon="6.1704820"><ele>183.0</ele></trkpt>
    <trkpt lat="49.1141350" lon="6.1704760"><ele>183.0</ele></trkpt>
    <trkpt lat="49.1148170" lon="6.1711700"><ele>182.8</ele></trkpt>
    <trkpt lat="49.1150760" lon="6.1705820"><ele>183.5</ele></trkpt>
    <trkpt lat="49.1151270" lon="6.1704660"><ele>184.5</ele></trkpt>
    <trkpt lat="49.1151720" lon="6.1705130"><ele>183.8</ele></trkpt>
    <trkpt lat="49.1153780" lon="6.1707310"><ele>182.0</ele></trkpt>
    <trkpt lat="49.1154460" lon="6.1708020"><ele>182.0</ele></trkpt>
    <trkpt lat="49.1157780" lon="6.1701110"><ele>181.8</ele></trkpt>
    <trkpt lat="49.1158950" lon="6.1702420"><ele>181.0</ele></trkpt>
    <trkpt lat="49.1159310" lon="6.1702820"><ele>181.0</ele></trkpt>
    <trkpt lat="49.1159120" lon="6.1703340"><ele>181.0</ele></trkpt>
    <trkpt lat="49.1159050" lon="6.1703910"><ele>181.0</ele></trkpt>
    <trkpt lat="49.1159090" lon="6.1704500"><ele>181.0</ele></trkpt>
    <trkpt lat="49.1159250" lon="6.1705030"><ele>181.0</ele></trkpt>
    <trkpt lat="49.1159500" lon="6.1705470"><ele>181.0</ele></trkpt>
    <trkpt lat="49.1159550" lon="6.1705520"><ele>181.0</ele></trkpt>
    <trkpt lat="49.1159870" lon="6.1705780"><ele>181.0</ele></trkpt>
    <trkpt lat="49.1160280" lon="6.1705890"><ele>181.0</ele></trkpt>
    <trkpt lat="49.1160690" lon="6.1705790"><ele>181.0</ele></trkpt>
    <trkpt lat="49.1161050" lon="6.1705480"><ele>181.0</ele></trkpt>
    <trkpt lat="49.1161330" lon="6.1705010"><ele>181.0</ele></trkpt>
    <trkpt lat="49.1161620" lon="6.1705340"><ele>181.0</ele></trkpt>
    <trkpt lat="49.1162500" lon="6.1706320"><ele>181.5</ele></trkpt>
    <trkpt lat="49.1164970" lon="6.1701230"><ele>181.5</ele></trkpt>
    <trkpt lat="49.1167630" lon="6.1695730"><ele>180.2</ele></trkpt>
    <trkpt lat="49.1168050" lon="6.1694930"><ele>179.2</ele></trkpt>
    <trkpt lat="49.1168320" lon="6.1693770"><ele>178.2</ele></trkpt>
    <trkpt lat="49.1168390" lon="6.1693100"><ele>178.0</ele></trkpt>
    <trkpt lat="49.1168510" lon="6.1690950"><ele>177.2</ele></trkpt>
    <trkpt lat="49.1167950" lon="6.1688200"><ele>176.0</ele></trkpt>
    <trkpt lat="49.1168000" lon="6.1687900"><ele>176.0</ele></trkpt>
    <trkpt lat="49.1168130" lon="6.1687060"><ele>175.8</ele></trkpt>
    <trkpt lat="49.1168250" lon="6.1686460"><ele>175.5</ele></trkpt>
    <trkpt lat="49.1168470" lon="6.1685320"><ele>173.8</ele></trkpt>
    <trkpt lat="49.1168590" lon="6.1684590"><ele>172.5</ele></trkpt>
    <trkpt lat="49.1168710" lon="6.1683910"><ele>171.5</ele></trkpt>
    <trkpt lat="49.1168760" lon="6.1682370"><ele>169.8</ele></trkpt>
    <trkpt lat="49.1168490" lon="6.1680530"><ele>168.2</ele></trkpt>
    <trkpt lat="49.1167840" lon="6.1679080"><ele>168.0</ele></trkpt>
    <trkpt lat="49.1166960" lon="6.1677890"><ele>168.5</ele></trkpt>
    <trkpt lat="49.1166360" lon="6.1677680"><ele>168.8</ele></trkpt>
    <trkpt lat="49.1165940" lon="6.1675660"><ele>167.2</ele></trkpt>
    <trkpt lat="49.1166120" lon="6.1674750"><ele>167.0</ele></trkpt>
    <trkpt lat="49.1161370" lon="6.1670360"><ele>167.0</ele></trkpt>
    <trkpt lat="49.1160810" lon="6.1671560"><ele>167.0</ele></trkpt>
    <trkpt lat="49.1160810" lon="6.1671560"><ele>167.0</ele></trkpt>
    <trkpt lat="49.1161370" lon="6.1670360"><ele>167.0</ele></trkpt>
    <trkpt lat="49.1155630" lon="6.1664490"><ele>168.8</ele></trkpt>
    <trkpt lat="49.1155160" lon="6.1664240"><ele>169.2</ele></trkpt>
    <trkpt lat="49.1154800" lon="6.1662560"><ele>168.2</ele></trkpt>
    <trkpt lat="49.1154710" lon="6.1661920"><ele>167.8</ele></trkpt>
    <trkpt lat="49.1155090" lon="6.1653460"><ele>168.8</ele></trkpt>
    <trkpt lat="49.1155290" lon="6.1652720"><ele>169.8</ele></trkpt>
    <trkpt lat="49.1154730" lon="6.1652540"><ele>169.2</ele></trkpt>
    <trkpt lat="49.1153570" lon="6.1652340"><ele>168.2</ele></trkpt>
    <trkpt lat="49.1152870" lon="6.1652400"><ele>167.8</ele></trkpt>
    <trkpt lat="49.1150160" lon="6.1653050"><ele>166.8</ele></trkpt>
    <trkpt lat="49.1150270" lon="6.1650560"><ele>167.0</ele></trkpt>
    <trkpt lat="49.1149870" lon="6.1649000"><ele>167.0</ele></trkpt>
    <trkpt lat="49.1149550" lon="6.1647060"><ele>167.0</ele></trkpt>
    <trkpt lat="49.1149230" lon="6.1643200"><ele>166.5</ele></trkpt>
    <trkpt lat="49.1149240" lon="6.1642460"><ele>166.2</ele></trkpt>
    <trkpt lat="49.1150220" lon="6.1635940"><ele>166.8</ele></trkpt>
    <trkpt lat="49.1150950" lon="6.1632470"><ele>166.5</ele></trkpt>
    <trkpt lat="49.1153000" lon="6.1625090"><ele>166.8</ele></trkpt>
    <trkpt lat="49.1153470" lon="6.1623900"><ele>166.8</ele></trkpt>
    <trkpt lat="49.1153920" lon="6.1623260"><ele>166.8</ele></trkpt>
    <trkpt lat="49.1154420" lon="6.1622690"><ele>166.8</ele></trkpt>
    <trkpt lat="49.1156350" lon="6.1621180"><ele>166.8</ele></trkpt>
    <trkpt lat="49.1163920" lon="6.1618060"><ele>166.2</ele></trkpt>
    <trkpt lat="49.1165810" lon="6.1617400"><ele>166.5</ele></trkpt>
    <trkpt lat="49.1167750" lon="6.1616910"><ele>166.8</ele></trkpt>
    <trkpt lat="49.1174180" lon="6.1616350"><ele>167.0</ele></trkpt>
    <trkpt lat="49.1176880" lon="6.1615620"><ele>167.0</ele></trkpt>
    <trkpt lat="49.1179060" lon="6.1615020"><ele>166.8</ele></trkpt>
    <trkpt lat="49.1179410" lon="6.1614810"><ele>166.8</ele></trkpt>
    <trkpt lat="49.1179230" lon="6.1613890"><ele>167.2</ele></trkpt>
    <trkpt lat="49.1179160" lon="6.1612090"><ele>168.0</ele></trkpt>
    <trkpt lat="49.1179340" lon="6.1610430"><ele>168.8</ele></trkpt>
    <trkpt lat="49.1179710" lon="6.1608600"><ele>170.0</ele></trkpt>
    <trkpt lat="49.1180300" lon="6.1608170"><ele>170.0</ele></trkpt>
    <trkpt lat="49.1181150" lon="6.1607770"><ele>169.8</ele></trkpt>
    <trkpt lat="49.1182470" lon="6.1607230"><ele>168.8</ele></trkpt>
    <trkpt lat="49.1188230" lon="6.1606150"><ele>168.5</ele></trkpt>
    <trkpt lat="49.1190320" lon="6.1605840"><ele>170.2</ele></trkpt>
    <trkpt lat="49.1190810" lon="6.1605930"><ele>170.2</ele></trkpt>
    <trkpt lat="49.1191400" lon="6.1606310"><ele>170.2</ele></trkpt>
    <trkpt lat="49.1191870" lon="6.1606800"><ele>170.0</ele></trkpt>
    <trkpt lat="49.1192360" lon="6.1607540"><ele>169.2</ele></trkpt>
    <trkpt lat="49.1193110" lon="6.1608110"><ele>168.5</ele></trkpt>
    <trkpt lat="49.1193830" lon="6.1608360"><ele>168.0</ele></trkpt>
    <trkpt lat="49.1194370" lon="6.1608890"><ele>168.0</ele></trkpt>
    <trkpt lat="49.1194620" lon="6.1608800"><ele>167.8</ele></trkpt>
    <trkpt lat="49.1196830" lon="6.1608030"><ele>167.2</ele></trkpt>
    <trkpt lat="49.1197000" lon="6.1609040"><ele>167.2</ele></trkpt>
    <trkpt lat="49.1197950" lon="6.1611120"><ele>167.5</ele></trkpt>
    <trkpt lat="49.1201090" lon="6.1612430"><ele>167.0</ele></trkpt>
    <trkpt lat="49.1201140" lon="6.1612450"><ele>167.0</ele></trkpt>
    <trkpt lat="49.1201620" lon="6.1615810"><ele>167.0</ele></trkpt>
    <trkpt lat="49.1202160" lon="6.1619570"><ele>167.0</ele></trkpt>
    <trkpt lat="49.1202790" lon="6.1623910"><ele>166.8</ele></trkpt>
    <trkpt lat="49.1203380" lon="6.1628100"><ele>167.0</ele></trkpt>
    <trkpt lat="49.1203660" lon="6.1628970"><ele>167.0</ele></trkpt>
    <trkpt lat="49.1203710" lon="6.1630360"><ele>167.0</ele></trkpt>
    <trkpt lat="49.1203720" lon="6.1630880"><ele>167.0</ele></trkpt>
    <trkpt lat="49.1203640" lon="6.1631110"><ele>167.0</ele></trkpt>
    <trkpt lat="49.1203880" lon="6.1631900"><ele>167.0</ele></trkpt>
    <trkpt lat="49.1203940" lon="6.1632550"><ele>167.0</ele></trkpt>
    <trkpt lat="49.1204150" lon="6.1636870"><ele>167.5</ele></trkpt>
    <trkpt lat="49.1203880" lon="6.1641210"><ele>167.2</ele></trkpt>
    <trkpt lat="49.1203630" lon="6.1642400"><ele>167.2</ele></trkpt>
    <trkpt lat="49.1203410" lon="6.1643110"><ele>167.5</ele></trkpt>
    <trkpt lat="49.1203080" lon="6.1644890"><ele>168.0</ele></trkpt>
    <trkpt lat="49.1202690" lon="6.1647530"><ele>167.8</ele></trkpt>
    <trkpt lat="49.1202330" lon="6.1650630"><ele>167.8</ele></trkpt>
    <trkpt lat="49.1202040" lon="6.1654300"><ele>167.5</ele></trkpt>
    <trkpt lat="49.1201850" lon="6.1655510"><ele>167.5</ele></trkpt>
    <trkpt lat="49.1201550" lon="6.1656830"><ele>167.8</ele></trkpt>
    <trkpt lat="49.1201160" lon="6.1657680"><ele>167.8</ele></trkpt>
    <trkpt lat="49.1200120" lon="6.1659190"><ele>168.0</ele></trkpt>
    <trkpt lat="49.1199840" lon="6.1659370"><ele>168.0</ele></trkpt>
    <trkpt lat="49.1199470" lon="6.1659350"><ele>168.0</ele></trkpt>
    <trkpt lat="49.1199260" lon="6.1660010"><ele>168.0</ele></trkpt>
    <trkpt lat="49.1199720" lon="6.1661250"><ele>168.0</ele></trkpt>
    <trkpt lat="49.1199910" lon="6.1661750"><ele>168.0</ele></trkpt>
    <trkpt lat="49.1199880" lon="6.1662610"><ele>168.0</ele></trkpt>
    <trkpt lat="49.1199800" lon="6.1663160"><ele>168.0</ele></trkpt>
    <trkpt lat="49.1199570" lon="6.1663850"><ele>168.0</ele></trkpt>
    <trkpt lat="49.1198980" lon="6.1664940"><ele>168.0</ele></trkpt>
    <trkpt lat="49.1198630" lon="6.1665620"><ele>168.0</ele></trkpt>
    <trkpt lat="49.1198260" lon="6.1666300"><ele>168.0</ele></trkpt>
    <trkpt lat="49.1198940" lon="6.1667070"><ele>168.0</ele></trkpt>
    <trkpt lat="49.1200160" lon="6.1668450"><ele>168.0</ele></trkpt>
    <trkpt lat="49.1199650" lon="6.1669530"><ele>168.0</ele></trkpt>
    <trkpt lat="49.1199400" lon="6.1670250"><ele>168.0</ele></trkpt>
    <trkpt lat="49.1199400" lon="6.1671220"><ele>168.0</ele></trkpt>
    <trkpt lat="49.1199490" lon="6.1672160"><ele>168.0</ele></trkpt>
    <trkpt lat="49.1199740" lon="6.1673200"><ele>167.5</ele></trkpt>
    <trkpt lat="49.1200110" lon="6.1673880"><ele>167.0</ele></trkpt>
    <trkpt lat="49.1199850" lon="6.1674380"><ele>167.0</ele></trkpt>
    <trkpt lat="49.1200240" lon="6.1675010"><ele>166.8</ele></trkpt>
    <trkpt lat="49.1203080" lon="6.1680210"><ele>166.5</ele></trkpt>
    <trkpt lat="49.1203120" lon="6.1680550"><ele>166.2</ele></trkpt>
    <trkpt lat="49.1203160" lon="6.1680840"><ele>166.5</ele></trkpt>
    <trkpt lat="49.1203080" lon="6.1681070"><ele>166.5</ele></trkpt>
    <trkpt lat="49.1202660" lon="6.1681300"><ele>166.5</ele></trkpt>
    <trkpt lat="49.1202850" lon="6.1682020"><ele>167.5</ele></trkpt>
    <trkpt lat="49.1202930" lon="6.1682660"><ele>168.2</ele></trkpt>
    <trkpt lat="49.1203120" lon="6.1683480"><ele>168.8</ele></trkpt>
    <trkpt lat="49.1202220" lon="6.1684710"><ele>168.5</ele></trkpt>
    <trkpt lat="49.1201110" lon="6.1686800"><ele>169.0</ele></trkpt>
    <trkpt lat="49.1200430" lon="6.1688330"><ele>169.0</ele></trkpt>
    <trkpt lat="49.1199170" lon="6.1692060"><ele>168.2</ele></trkpt>
    <trkpt lat="49.1198990" lon="6.1693690"><ele>168.5</ele></trkpt>
    <trkpt lat="49.1198930" lon="6.1694780"><ele>168.5</ele></trkpt>
    <trkpt lat="49.1198900" lon="6.1698120"><ele>168.5</ele></trkpt>
    <trkpt lat="49.1198760" lon="6.1699170"><ele>168.8</ele></trkpt>
    <trkpt lat="49.1198800" lon="6.1699810"><ele>168.8</ele></trkpt>
    <trkpt lat="49.1199030" lon="6.1700890"><ele>168.8</ele></trkpt>
    <trkpt lat="49.1199310" lon="6.1700790"><ele>168.8</ele></trkpt>
    <trkpt lat="49.1199050" lon="6.1701490"><ele>168.8</ele></trkpt>
    <trkpt lat="49.1198490" lon="6.1702460"><ele>169.0</ele></trkpt>
    <trkpt lat="49.1198160" lon="6.1702950"><ele>169.0</ele></trkpt>
    <trkpt lat="49.1194160" lon="6.1709210"><ele>168.0</ele></trkpt>
    <trkpt lat="49.1193840" lon="6.1709920"><ele>169.5</ele></trkpt>
    <trkpt lat="49.1193900" lon="6.1710220"><ele>169.8</ele></trkpt>
    <trkpt lat="49.1193520" lon="6.1710740"><ele>170.8</ele></trkpt>
    <trkpt lat="49.1193190" lon="6.1711350"><ele>171.2</ele></trkpt>
    <trkpt lat="49.1195320" lon="6.1714050"><ele>168.8</ele></trkpt>
    <trkpt lat="49.1195690" lon="6.1714690"><ele>169.0</ele></trkpt>
    <trkpt lat="49.1195940" lon="6.1715220"><ele>169.2</ele></trkpt>
    <trkpt lat="49.1195680" lon="6.1716300"><ele>170.5</ele></trkpt>
    <trkpt lat="49.1195100" lon="6.1718770"><ele>172.2</ele></trkpt>
    <trkpt lat="49.1194610" lon="6.1719990"><ele>173.0</ele></trkpt>
    <trkpt lat="49.1193330" lon="6.1725390"><ele>175.2</ele></trkpt>
    <trkpt lat="49.1192400" lon="6.1729180"><ele>177.0</ele></trkpt>
    <trkpt lat="49.1191420" lon="6.1733120"><ele>177.2</ele></trkpt>
    <trkpt lat="49.1190890" lon="6.1735250"><ele>178.2</ele></trkpt>
    <trkpt lat="49.1188890" lon="6.1739480"><ele>179.0</ele></trkpt>
    <trkpt lat="49.1188490" lon="6.1740430"><ele>179.8</ele></trkpt>
    <trkpt lat="49.1186870" lon="6.1745370"><ele>180.8</ele></trkpt>
    <trkpt lat="49.1184970" lon="6.1750450"><ele>180.0</ele></trkpt>
    <trkpt lat="49.1184610" lon="6.1750080"><ele>180.0</ele></trkpt>
    <trkpt lat="49.1184390" lon="6.1750530"><ele>180.0</ele></trkpt>
    <trkpt lat="49.1178570" lon="6.1760070"><ele>178.2</ele></trkpt>
    <trkpt lat="49.1177820" lon="6.1761170"><ele>178.0</ele></trkpt>
    <trkpt lat="49.1177270" lon="6.1762120"><ele>178.0</ele></trkpt>
    <trkpt lat="49.1174010" lon="6.1769650"><ele>175.5</ele></trkpt>
    <trkpt lat="49.1172750" lon="6.1772570"><ele>175.2</ele></trkpt>
    <trkpt lat="49.1169400" lon="6.1780060"><ele>173.0</ele></trkpt>
    <trkpt lat="49.1168970" lon="6.1780910"><ele>173.0</ele></trkpt>
    <trkpt lat="49.1166880" lon="6.1779150"><ele>173.5</ele></trkpt>
    <trkpt lat="49.1164140" lon="6.1776850"><ele>173.8</ele></trkpt>
    <trkpt lat="49.1163770" lon="6.1776540"><ele>174.0</ele></trkpt>
    <trkpt lat="49.1163200" lon="6.1776130"><ele>174.0</ele></trkpt>
    <trkpt lat="49.1161750" lon="6.1775060"><ele>174.0</ele></trkpt>
    <trkpt lat="49.1160140" lon="6.1774070"><ele>174.0</ele></trkpt>
    <trkpt lat="49.1158090" lon="6.1772820"><ele>174.0</ele></trkpt>
    <trkpt lat="49.1155220" lon="6.1770330"><ele>175.0</ele></trkpt>
    <trkpt lat="49.1153870" lon="6.1768670"><ele>174.0</ele></trkpt>
  </trkseg></trk>
</gpx>