<?xml version="1.0" encoding="UTF-8"?>
<kml xmlns="http://www.opengis.net/kml/2.2"><Document>
  <name>La Nouvelle Ville et l'eau</name><description>5.9 km. D+ 21 m. 25 % de chemins. La traversee des rues allemandes, de la gare a Maud'Huy, puis le basculement vers l'Esplanade, le lac aux Cygnes et le Saulcy. Beaucoup de trottoir a l'aller, l'eau tout le retour, et rien en double.</description>
  <Style id="depart"><IconStyle><scale>1.2</scale><Icon><href>http://maps.google.com/mapfiles/kml/paddle/grn-circle.png</href></Icon></IconStyle></Style>
  <Style id="etape"><IconStyle><Icon><href>http://maps.google.com/mapfiles/kml/paddle/wht-blank.png</href></Icon></IconStyle></Style>
    <Placemark><name>Depart : Rue des Parmentiers, Metz</name><description>Depart des deux boucles vers Borny, dans la Nouvelle Ville. A dix minutes a pied de la gare, dont il partage les commodites.</description><styleUrl>#depart</styleUrl><Point><coordinates>6.1768700,49.1153870,0</coordinates></Point></Placemark>
    <Placemark><name>1. Gare de Metz, parvis</name><description>Point de ralliement des boucles a pied : a moins d'un quart d'heure de marche pour tout le monde. Abrite, cafe ouvert tot, toilettes.</description><styleUrl>#etape</styleUrl><Point><coordinates>6.1770130,49.1092770,0</coordinates></Point></Placemark>
    <Placemark><name>2. Place Jean Moulin</name><description>Entre la gare et le Sablon, sous les platanes.</description><styleUrl>#etape</styleUrl><Point><coordinates>6.1696860,49.1078690,0</coordinates></Point></Placemark>
    <Placemark><name>3. Place de Maud'Huy</name><description>Sud-ouest de la Nouvelle Ville, maisons allemandes.</description><styleUrl>#etape</styleUrl><Point><coordinates>6.1671920,49.1089250,0</coordinates></Point></Placemark>
    <Placemark><name>4. Jardin de l'Esplanade</name><description>Terrasse au-dessus de la Moselle, vue sur le Mont Saint-Quentin.</description><styleUrl>#etape</styleUrl><Point><coordinates>6.1705190,49.1159680,0</coordinates></Point></Placemark>
    <Placemark><name>5. Parc du Lac aux Cygnes</name><description>Rive du plan d'eau sous l'Esplanade, cygnes et saules.</description><styleUrl>#etape</styleUrl><Point><coordinates>6.1673270,49.1161600,0</coordinates></Point></Placemark>
    <Placemark><name>6. Ile du Saulcy</name><description>Ile universitaire, tres calme hors semestre. Cygnes sur les deux bras.</description><styleUrl>#etape</styleUrl><Point><coordinates>6.1612490,49.1201090,0</coordinates></Point></Placemark>
    <Style id="t1"><LineStyle><color>ffC2703D</color><width>4</width></LineStyle></Style>
    <Placemark><name>La Nouvelle Ville et l'eau</name><description>5.9 km. D+ 21 m. 25 % de chemins. La traversee des rues allemandes, de la gare a Maud'Huy, puis le basculement vers l'Esplanade, le lac aux Cygnes et le Saulcy. Beaucoup de trottoir a l'aller, l'eau tout le retour, et rien en double.</description><styleUrl>#t1</styleUrl><LineString><tessellate>1</tessellate><coordinates>6.1768670,49.1153870,174 6.1766270,49.1151930,174 6.1763740,49.1150400,174 6.1761790,49.1149300,174 6.1761630,49.1149200,174 6.1759210,49.1147900,174 6.1763650,49.1146430,174 6.1766400,49.1145180,174 6.1770090,49.1143590,174 6.1769710,49.1143230,174 6.1769480,49.1143010,174 6.1768800,49.1142300,174 6.1768190,49.1141940,174 6.1764480,49.1140080,174 6.1763770,49.1139730,174 6.1764170,49.1139380,174 6.1765460,49.1138400,174 6.1766900,49.1137550,173 6.1771290,49.1134950,172 6.1772320,49.1134340,172 6.1772110,49.1134190,172 6.1771580,49.1133810,172 6.1770930,49.1133110,172 6.1770840,49.1131200,173 6.1770730,49.1128790,172 6.1770910,49.1128480,172 6.1771630,49.1127910,172 6.1771240,49.1126890,172 6.1771060,49.1126360,172 6.1770810,49.1123240,172 6.1771020,49.1123020,172 6.1770720,49.1122290,173 6.1770620,49.1121780,173 6.1770570,49.1121110,173 6.1770450,49.1120240,173 6.1770250,49.1118110,173 6.1770220,49.1117780,173 6.1770240,49.1117430,174 6.1770900,49.1117400,173 6.1771600,49.1117280,173 6.1771580,49.1116960,173 6.1771560,49.1116650,173 6.1771560,49.1116320,173 6.1771550,49.1115790,173 6.1771530,49.1114960,174 6.1771520,49.1114620,174 6.1771540,49.1114050,174 6.1771150,49.1113850,174 6.1771080,49.1113740,174 6.1771340,49.1109830,174 6.1771360,49.1107120,174 6.1771460,49.1106040,174 6.1771470,49.1105950,174 6.1771500,49.1105680,174 6.1770570,49.1105310,174 6.1769460,49.1104880,174 6.1769440,49.1104060,174 6.1766380,49.1102540,174 6.1766610,49.1102330,174 6.1767370,49.1101660,174 6.1767800,49.1101280,174 6.1769620,49.1100150,174 6.1770100,49.1099770,174 6.1770060,49.1099000,176 6.1770370,49.1098720,176 6.1771340,49.1097880,178 6.1773040,49.1096300,180 6.1773630,49.1095730,180 6.1773130,49.1095400,180 6.1772910,49.1095290,180 6.1771660,49.1094690,180 6.1771030,49.1094370,180 6.1771540,49.1093930,180 6.1769770,49.1093080,179 6.1765920,49.1091220,179 6.1765400,49.1091670,180 6.1764790,49.1091390,180 6.1762850,49.1090450,179 6.1762620,49.1090320,178 6.1762350,49.1090190,178 6.1761690,49.1090760,177 6.1760960,49.1091370,175 6.1760650,49.1091610,175 6.1760490,49.1091720,175 6.1759730,49.1091660,174 6.1758440,49.1092560,174 6.1758030,49.1092890,174 6.1757580,49.1093300,174 6.1757300,49.1093560,174 6.1756340,49.1094440,174 6.1756210,49.1094570,174 6.1753340,49.1093130,174 6.1752600,49.1093750,174 6.1752270,49.1094030,174 6.1751360,49.1094540,174 6.1751030,49.1094600,174 6.1750130,49.1095390,174 6.1750190,49.1095960,174 6.1749180,49.1096070,174 6.1748670,49.1096290,174 6.1748320,49.1096440,174 6.1747000,49.1097500,174 6.1745680,49.1096860,174 6.1745530,49.1096790,174 6.1744660,49.1096410,175 6.1744130,49.1096880,175 6.1741380,49.1099240,176 6.1741120,49.1099470,176 6.1740600,49.1100180,176 6.1740290,49.1100630,176 6.1735790,49.1099000,177 6.1733500,49.1098310,177 6.1729210,49.1096810,177 6.1723610,49.1094780,178 6.1722980,49.1094480,178 6.1722150,49.1094090,178 6.1720080,49.1092860,178 6.1719840,49.1092630,178 6.1719040,49.1091960,178 6.1718670,49.1091630,178 6.1716300,49.1089980,178 6.1715880,49.1089750,178 6.1714790,49.1089240,178 6.1714090,49.1088790,179 6.1704250,49.1081770,179 6.1701330,49.1079630,180 6.1700720,49.1079070,180 6.1699800,49.1078770,180 6.1700040,49.1078380,180 6.1699340,49.1078210,180 6.1698820,49.1078500,180 6.1697010,49.1078950,180 6.1695600,49.1079310,180 6.1695660,49.1080020,180 6.1695210,49.1080020,180 6.1694600,49.1080020,181 6.1693940,49.1080040,181 6.1693550,49.1080150,181 6.1692980,49.1080310,181 6.1692530,49.1080430,181 6.1692100,49.1080520,181 6.1691860,49.1080170,181 6.1691550,49.1080250,181 6.1691360,49.1080300,181 6.1691060,49.1080380,181 6.1690490,49.1080120,181 6.1681440,49.1082660,182 6.1678020,49.1083730,182 6.1675630,49.1084550,182 6.1674820,49.1084810,182 6.1674150,49.1085020,182 6.1673190,49.1085330,182 6.1674210,49.1086730,182 6.1676300,49.1089710,182 6.1672820,49.1090660,183 6.1669740,49.1091520,183 6.1668620,49.1091830,183 6.1668130,49.1091980,183 6.1669130,49.1093380,183 6.1672490,49.1099400,183 6.1672760,49.1099880,183 6.1672940,49.1100210,183 6.1673670,49.1101540,183 6.1673810,49.1102140,183 6.1673870,49.1102660,183 6.1673890,49.1102800,183 6.1674010,49.1103200,183 6.1674520,49.1104100,183 6.1674860,49.1104230,183 6.1676730,49.1107260,183 6.1680830,49.1114110,183 6.1681270,49.1114840,183 6.1683900,49.1119230,183 6.1683990,49.1119480,183 6.1683850,49.1119910,183 6.1684810,49.1121500,183 6.1685240,49.1121890,183 6.1685740,49.1122170,183 6.1686170,49.1122340,183 6.1686460,49.1122500,182 6.1686410,49.1122660,182 6.1686330,49.1122960,182 6.1686380,49.1123220,182 6.1687270,49.1124130,182 6.1687500,49.1124280,183 6.1688350,49.1124430,183 6.1688810,49.1124660,183 6.1688840,49.1124990,184 6.1688950,49.1125120,184 6.1689380,49.1125620,184 6.1688840,49.1125860,184 6.1688520,49.1126130,184 6.1688300,49.1126470,184 6.1688090,49.1127010,184 6.1688760,49.1127270,184 6.1693990,49.1130790,184 6.1695740,49.1132100,184 6.1696630,49.1132960,184 6.1697070,49.1133520,184 6.1698290,49.1134710,184 6.1699850,49.1136280,184 6.1700850,49.1137230,184 6.1701490,49.1137830,184 6.1702220,49.1138720,184 6.1702640,49.1139140,184 6.1704740,49.1141240,183 6.1704820,49.1141330,183 6.1704760,49.1141350,183 6.1711700,49.1148170,183 6.1705820,49.1150760,184 6.1704660,49.1151270,184 6.1705130,49.1151720,184 6.1707310,49.1153780,182 6.1708020,49.1154460,182 6.1701110,49.1157780,182 6.1702420,49.1158950,181 6.1702820,49.1159310,181 6.1703340,49.1159120,181 6.1703910,49.1159050,181 6.1704500,49.1159090,181 6.1705030,49.1159250,181 6.1705470,49.1159500,181 6.1705520,49.1159550,181 6.1705780,49.1159870,181 6.1705890,49.1160280,181 6.1705790,49.1160690,181 6.1705480,49.1161050,181 6.1705010,49.1161330,181 6.1705340,49.1161620,181 6.1706320,49.1162500,182 6.1701230,49.1164970,182 6.1695730,49.1167630,180 6.1694930,49.1168050,179 6.1693770,49.1168320,178 6.1693100,49.1168390,178 6.1690950,49.1168510,177 6.1688200,49.1167950,176 6.1687900,49.1168000,176 6.1687060,49.1168130,176 6.1686460,49.1168250,176 6.1685320,49.1168470,174 6.1684590,49.1168590,172 6.1683910,49.1168710,172 6.1682370,49.1168760,170 6.1680530,49.1168490,168 6.1679080,49.1167840,168 6.1677890,49.1166960,168 6.1677680,49.1166360,169 6.1675660,49.1165940,167 6.1674750,49.1166120,167 6.1670360,49.1161370,167 6.1671560,49.1160810,167 6.1671560,49.1160810,167 6.1670360,49.1161370,167 6.1664490,49.1155630,169 6.1664240,49.1155160,169 6.1662560,49.1154800,168 6.1661920,49.1154710,168 6.1653460,49.1155090,169 6.1652720,49.1155290,170 6.1652540,49.1154730,169 6.1652340,49.1153570,168 6.1652400,49.1152870,168 6.1653050,49.1150160,167 6.1650560,49.1150270,167 6.1649000,49.1149870,167 6.1647060,49.1149550,167 6.1643200,49.1149230,166 6.1642460,49.1149240,166 6.1635940,49.1150220,167 6.1632470,49.1150950,166 6.1625090,49.1153000,167 6.1623900,49.1153470,167 6.1623260,49.1153920,167 6.1622690,49.1154420,167 6.1621180,49.1156350,167 6.1618060,49.1163920,166 6.1617400,49.1165810,166 6.1616910,49.1167750,167 6.1616350,49.1174180,167 6.1615620,49.1176880,167 6.1615020,49.1179060,167 6.1614810,49.1179410,167 6.1613890,49.1179230,167 6.1612090,49.1179160,168 6.1610430,49.1179340,169 6.1608600,49.1179710,170 6.1608170,49.1180300,170 6.1607770,49.1181150,170 6.1607230,49.1182470,169 6.1606150,49.1188230,168 6.1605840,49.1190320,170 6.1605930,49.1190810,170 6.1606310,49.1191400,170 6.1606800,49.1191870,170 6.1607540,49.1192360,169 6.1608110,49.1193110,168 6.1608360,49.1193830,168 6.1608890,49.1194370,168 6.1608800,49.1194620,168 6.1608030,49.1196830,167 6.1609040,49.1197000,167 6.1611120,49.1197950,168 6.1612430,49.1201090,167 6.1612450,49.1201140,167 6.1615810,49.1201620,167 6.1619570,49.1202160,167 6.1623910,49.1202790,167 6.1628100,49.1203380,167 6.1628970,49.1203660,167 6.1630360,49.1203710,167 6.1630880,49.1203720,167 6.1631110,49.1203640,167 6.1631900,49.1203880,167 6.1632550,49.1203940,167 6.1636870,49.1204150,168 6.1641210,49.1203880,167 6.1642400,49.1203630,167 6.1643110,49.1203410,168 6.1644890,49.1203080,168 6.1647530,49.1202690,168 6.1650630,49.1202330,168 6.1654300,49.1202040,168 6.1655510,49.1201850,168 6.1656830,49.1201550,168 6.1657680,49.1201160,168 6.1659190,49.1200120,168 6.1659370,49.1199840,168 6.1659350,49.1199470,168 6.1660010,49.1199260,168 6.1661250,49.1199720,168 6.1661750,49.1199910,168 6.1662610,49.1199880,168 6.1663160,49.1199800,168 6.1663850,49.1199570,168 6.1664940,49.1198980,168 6.1665620,49.1198630,168 6.1666300,49.1198260,168 6.1667070,49.1198940,168 6.1668450,49.1200160,168 6.1669530,49.1199650,168 6.1670250,49.1199400,168 6.1671220,49.1199400,168 6.1672160,49.1199490,168 6.1673200,49.1199740,168 6.1673880,49.1200110,167 6.1674380,49.1199850,167 6.1675010,49.1200240,167 6.1680210,49.1203080,166 6.1680550,49.1203120,166 6.1680840,49.1203160,166 6.1681070,49.1203080,166 6.1681300,49.1202660,166 6.1682020,49.1202850,168 6.1682660,49.1202930,168 6.1683480,49.1203120,169 6.1684710,49.1202220,168 6.1686800,49.1201110,169 6.1688330,49.1200430,169 6.1692060,49.1199170,168 6.1693690,49.1198990,168 6.1694780,49.1198930,168 6.1698120,49.1198900,168 6.1699170,49.1198760,169 6.1699810,49.1198800,169 6.1700890,49.1199030,169 6.1700790,49.1199310,169 6.1701490,49.1199050,169 6.1702460,49.1198490,169 6.1702950,49.1198160,169 6.1709210,49.1194160,168 6.1709920,49.1193840,170 6.1710220,49.1193900,170 6.1710740,49.1193520,171 6.1711350,49.1193190,171 6.1714050,49.1195320,169 6.1714690,49.1195690,169 6.1715220,49.1195940,169 6.1716300,49.1195680,170 6.1718770,49.1195100,172 6.1719990,49.1194610,173 6.1725390,49.1193330,175 6.1729180,49.1192400,177 6.1733120,49.1191420,177 6.1735250,49.1190890,178 6.1739480,49.1188890,179 6.1740430,49.1188490,180 6.1745370,49.1186870,181 6.1750450,49.1184970,180 6.1750080,49.1184610,180 6.1750530,49.1184390,180 6.1760070,49.1178570,178 6.1761170,49.1177820,178 6.1762120,49.1177270,178 6.1769650,49.1174010,176 6.1772570,49.1172750,175 6.1780060,49.1169400,173 6.1780910,49.1168970,173 6.1779150,49.1166880,174 6.1776850,49.1164140,174 6.1776540,49.1163770,174 6.1776130,49.1163200,174 6.1775060,49.1161750,174 6.1774070,49.1160140,174 6.1772820,49.1158090,174 6.1770330,49.1155220,175 6.1768670,49.1153870,174</coordinates></LineString></Placemark>
</Document></kml>