<?xml version="1.0" encoding="UTF-8"?>
<gpx version="1.1" creator="olifant"
     xmlns="http://www.topografix.com/GPX/1/1"
     xmlns:xsi="http://www.w3.org/2001/XMLSchema-instance"
     xsi:schemaLocation="http://www.topografix.com/GPX/1/1 http://www.topografix.com/GPX/1/1/gpx.xsd">
  <metadata><name>Les parcs de Montigny et le chateau de Courcelles</name><desc>10.1 km. D+ 31 m. 16 % de chemins. Une boucle de petites rues qui saute de parc en parc : Sainte-Chretienne, Prevert, la Clairiere, la Vacquiniere, le chateau de Courcelles et le jardin botanique. Plus de rues que de chemins, mais aucune grande avenue.</desc></metadata>
  <wpt lat="49.1084000" lon="6.1811000"><name>Centre Pompidou-Metz, parvis</name><desc>Point de rendez-vous, sur le parvis des Droits de l'Homme, a deux pas de la gare.</desc></wpt>
  <wpt lat="49.0962100" lon="6.1734500"><name>Parc Sainte-Chretienne</name></wpt>
  <wpt lat="49.0941500" lon="6.1549000"><name>Parc Jacques Prevert, Montigny</name></wpt>
  <wpt lat="49.1002500" lon="6.1528200"><name>La Clairiere, Montigny</name></wpt>
  <wpt lat="49.1054300" lon="6.1560100"><name>Plaine de la Vacquiniere</name></wpt>
  <wpt lat="49.1033700" lon="6.1573100"><name>Parc du chateau de Courcelles</name></wpt>
  <wpt lat="49.1046800" lon="6.1606400"><name>Jardin botanique de Metz</name></wpt>
  <trk><name>Les parcs de Montigny et le chateau de Courcelles</name><trkseg>
    <trkpt lat="49.1084250" lon="6.1810500"><ele>171.0</ele></trkpt>
    <trkpt lat="49.1082740" lon="6.1808640"><ele>171.5</ele></trkpt>
    <trkpt lat="49.1080510" lon="6.1809960"><ele>171.0</ele></trkpt>
    <trkpt lat="49.1078390" lon="6.1811220"><ele>171.0</ele></trkpt>
    <trkpt lat="49.1077440" lon="6.1809290"><ele>171.0</ele></trkpt>
    <trkpt lat="49.1077200" lon="6.1808780"><ele>171.0</ele></trkpt>
    <trkpt lat="49.1076940" lon="6.1808270"><ele>171.0</ele></trkpt>
    <trkpt lat="49.1076660" lon="6.1807700"><ele>171.0</ele></trkpt>
    <trkpt lat="49.1075710" lon="6.1808140"><ele>171.0</ele></trkpt>
    <trkpt lat="49.1075190" lon="6.1807860"><ele>171.0</ele></trkpt>
    <trkpt lat="49.1074900" lon="6.1807200"><ele>171.0</ele></trkpt>
    <trkpt lat="49.1074320" lon="6.1798630"><ele>171.8</ele></trkpt>
    <trkpt lat="49.1074290" lon="6.1798140"><ele>171.5</ele></trkpt>
    <trkpt lat="49.1073940" lon="6.1793030"><ele>172.0</ele></trkpt>
    <trkpt lat="49.1073610" lon="6.1793070"><ele>171.5</ele></trkpt>
    <trkpt lat="49.1073310" lon="6.1793120"><ele>171.2</ele></trkpt>
    <trkpt lat="49.1072870" lon="6.1793180"><ele>170.8</ele></trkpt>
    <trkpt lat="49.1072750" lon="6.1793190"><ele>170.5</ele></trkpt>
    <trkpt lat="49.1072430" lon="6.1792880"><ele>170.2</ele></trkpt>
    <trkpt lat="49.1072120" lon="6.1792830"><ele>170.0</ele></trkpt>
    <trkpt lat="49.1072110" lon="6.1792680"><ele>170.0</ele></trkpt>
    <trkpt lat="49.1072090" lon="6.1792250"><ele>170.0</ele></trkpt>
    <trkpt lat="49.1072070" lon="6.1791730"><ele>170.0</ele></trkpt>
    <trkpt lat="49.1072050" lon="6.1791320"><ele>170.0</ele></trkpt>
    <trkpt lat="49.1071530" lon="6.1791450"><ele>170.0</ele></trkpt>
    <trkpt lat="49.1071560" lon="6.1791200"><ele>170.0</ele></trkpt>
    <trkpt lat="49.1071570" lon="6.1790740"><ele>170.0</ele></trkpt>
    <trkpt lat="49.1071240" lon="6.1785570"><ele>170.0</ele></trkpt>
    <trkpt lat="49.1071130" lon="6.1784740"><ele>170.0</ele></trkpt>
    <trkpt lat="49.1070880" lon="6.1784050"><ele>170.0</ele></trkpt>
    <trkpt lat="49.1070150" lon="6.1782550"><ele>169.8</ele></trkpt>
    <trkpt lat="49.1069090" lon="6.1780970"><ele>170.0</ele></trkpt>
    <trkpt lat="49.1064410" lon="6.1789090"><ele>169.0</ele></trkpt>
    <trkpt lat="49.1064140" lon="6.1789310"><ele>169.0</ele></trkpt>
    <trkpt lat="49.1059670" lon="6.1789930"><ele>169.0</ele></trkpt>
    <trkpt lat="49.1059530" lon="6.1789410"><ele>169.0</ele></trkpt>
    <trkpt lat="49.1059190" lon="6.1788870"><ele>168.8</ele></trkpt>
    <trkpt lat="49.1056310" lon="6.1786500"><ele>169.0</ele></trkpt>
    <trkpt lat="49.1055780" lon="6.1786180"><ele>169.0</ele></trkpt>
    <trkpt lat="49.1055450" lon="6.1785940"><ele>169.0</ele></trkpt>
    <trkpt lat="49.1054960" lon="6.1785480"><ele>169.2</ele></trkpt>
    <trkpt lat="49.1054540" lon="6.1785180"><ele>169.5</ele></trkpt>
    <trkpt lat="49.1054230" lon="6.1784870"><ele>169.5</ele></trkpt>
    <trkpt lat="49.1053480" lon="6.1784140"><ele>169.8</ele></trkpt>
    <trkpt lat="49.1051920" lon="6.1783100"><ele>170.0</ele></trkpt>
    <trkpt lat="49.1050560" lon="6.1782230"><ele>170.0</ele></trkpt>
    <trkpt lat="49.1049330" lon="6.1781960"><ele>170.0</ele></trkpt>
    <trkpt lat="49.1048840" lon="6.1781740"><ele>170.0</ele></trkpt>
    <trkpt lat="49.1047660" lon="6.1781140"><ele>170.0</ele></trkpt>
    <trkpt lat="49.1047120" lon="6.1780890"><ele>170.0</ele></trkpt>
    <trkpt lat="49.1046950" lon="6.1780570"><ele>170.0</ele></trkpt>
    <trkpt lat="49.1046760" lon="6.1780210"><ele>170.0</ele></trkpt>
    <trkpt lat="49.1046160" lon="6.1779900"><ele>170.0</ele></trkpt>
    <trkpt lat="49.1044620" lon="6.1779200"><ele>170.0</ele></trkpt>
    <trkpt lat="49.1044200" lon="6.1778990"><ele>170.0</ele></trkpt>
    <trkpt lat="49.1043880" lon="6.1778950"><ele>170.0</ele></trkpt>
    <trkpt lat="49.1043410" lon="6.1778780"><ele>170.0</ele></trkpt>
    <trkpt lat="49.1043220" lon="6.1778640"><ele>170.0</ele></trkpt>
    <trkpt lat="49.1041410" lon="6.1777970"><ele>170.0</ele></trkpt>
    <trkpt lat="49.1040230" lon="6.1777560"><ele>170.0</ele></trkpt>
    <trkpt lat="49.1038950" lon="6.1777200"><ele>170.0</ele></trkpt>
    <trkpt lat="49.1037880" lon="6.1776890"><ele>170.0</ele></trkpt>
    <trkpt lat="49.1036890" lon="6.1776620"><ele>170.2</ele></trkpt>
    <trkpt lat="49.1035970" lon="6.1776350"><ele>170.5</ele></trkpt>
    <trkpt lat="49.1035040" lon="6.1776090"><ele>170.5</ele></trkpt>
    <trkpt lat="49.1033650" lon="6.1775870"><ele>170.8</ele></trkpt>
    <trkpt lat="49.1033310" lon="6.1775940"><ele>171.0</ele></trkpt>
    <trkpt lat="49.1032330" lon="6.1775570"><ele>171.0</ele></trkpt>
    <trkpt lat="49.1031910" lon="6.1775410"><ele>171.0</ele></trkpt>
    <trkpt lat="49.1031830" lon="6.1775380"><ele>171.0</ele></trkpt>
    <trkpt lat="49.1031510" lon="6.1775290"><ele>171.0</ele></trkpt>
    <trkpt lat="49.1031000" lon="6.1775140"><ele>171.0</ele></trkpt>
    <trkpt lat="49.1030750" lon="6.1774970"><ele>171.0</ele></trkpt>
    <trkpt lat="49.1030510" lon="6.1774810"><ele>171.0</ele></trkpt>
    <trkpt lat="49.1027580" lon="6.1774270"><ele>171.0</ele></trkpt>
    <trkpt lat="49.1023890" lon="6.1773860"><ele>171.0</ele></trkpt>
    <trkpt lat="49.1023550" lon="6.1774400"><ele>171.0</ele></trkpt>
    <trkpt lat="49.1018030" lon="6.1774300"><ele>171.0</ele></trkpt>
    <trkpt lat="49.1016370" lon="6.1774260"><ele>171.0</ele></trkpt>
    <trkpt lat="49.1016160" lon="6.1774260"><ele>171.0</ele></trkpt>
    <trkpt lat="49.1016020" lon="6.1773840"><ele>171.0</ele></trkpt>
    <trkpt lat="49.1015520" lon="6.1773810"><ele>171.0</ele></trkpt>
    <trkpt lat="49.1015010" lon="6.1773780"><ele>171.0</ele></trkpt>
    <trkpt lat="49.1012010" lon="6.1773800"><ele>171.0</ele></trkpt>
    <trkpt lat="49.1011490" lon="6.1773960"><ele>170.8</ele></trkpt>
    <trkpt lat="49.1011020" lon="6.1773890"><ele>171.0</ele></trkpt>
    <trkpt lat="49.1009100" lon="6.1774080"><ele>171.0</ele></trkpt>
    <trkpt lat="49.1008100" lon="6.1774380"><ele>171.0</ele></trkpt>
    <trkpt lat="49.1006770" lon="6.1774370"><ele>171.0</ele></trkpt>
    <trkpt lat="49.1005910" lon="6.1774280"><ele>171.0</ele></trkpt>
    <trkpt lat="49.1005370" lon="6.1774230"><ele>171.0</ele></trkpt>
    <trkpt lat="49.1002970" lon="6.1774540"><ele>171.8</ele></trkpt>
    <trkpt lat="49.1001210" lon="6.1774790"><ele>172.0</ele></trkpt>
    <trkpt lat="49.1000730" lon="6.1774910"><ele>172.0</ele></trkpt>
    <trkpt lat="49.1000350" lon="6.1775010"><ele>171.8</ele></trkpt>
    <trkpt lat="49.0999900" lon="6.1775140"><ele>171.8</ele></trkpt>
    <trkpt lat="49.0999720" lon="6.1775200"><ele>171.8</ele></trkpt>
    <trkpt lat="49.0999380" lon="6.1771850"><ele>172.0</ele></trkpt>
    <trkpt lat="49.0997970" lon="6.1760440"><ele>175.2</ele></trkpt>
    <trkpt lat="49.0997760" lon="6.1759640"><ele>175.8</ele></trkpt>
    <trkpt lat="49.0997620" lon="6.1759750"><ele>175.8</ele></trkpt>
    <trkpt lat="49.0997320" lon="6.1759490"><ele>176.0</ele></trkpt>
    <trkpt lat="49.0996630" lon="6.1759520"><ele>176.0</ele></trkpt>
    <trkpt lat="49.0996250" lon="6.1759370"><ele>176.2</ele></trkpt>
    <trkpt lat="49.0996030" lon="6.1759380"><ele>176.0</ele></trkpt>
    <trkpt lat="49.0995790" lon="6.1758950"><ele>176.5</ele></trkpt>
    <trkpt lat="49.0995550" lon="6.1758510"><ele>176.8</ele></trkpt>
    <trkpt lat="49.0995660" lon="6.1758160"><ele>177.0</ele></trkpt>
    <trkpt lat="49.0995660" lon="6.1757940"><ele>177.0</ele></trkpt>
    <trkpt lat="49.0995590" lon="6.1757620"><ele>177.2</ele></trkpt>
    <trkpt lat="49.0995440" lon="6.1757390"><ele>177.2</ele></trkpt>
    <trkpt lat="49.0995470" lon="6.1756830"><ele>177.5</ele></trkpt>
    <trkpt lat="49.0994230" lon="6.1756750"><ele>177.5</ele></trkpt>
    <trkpt lat="49.0990510" lon="6.1756880"><ele>178.2</ele></trkpt>
    <trkpt lat="49.0989690" lon="6.1756750"><ele>178.2</ele></trkpt>
    <trkpt lat="49.0989050" lon="6.1756490"><ele>178.2</ele></trkpt>
    <trkpt lat="49.0986400" lon="6.1754920"><ele>179.0</ele></trkpt>
    <trkpt lat="49.0985110" lon="6.1753880"><ele>179.0</ele></trkpt>
    <trkpt lat="49.0983900" lon="6.1752780"><ele>179.0</ele></trkpt>
    <trkpt lat="49.0981420" lon="6.1750190"><ele>180.0</ele></trkpt>
    <trkpt lat="49.0979710" lon="6.1747830"><ele>180.0</ele></trkpt>
    <trkpt lat="49.0979260" lon="6.1746810"><ele>180.0</ele></trkpt>
    <trkpt lat="49.0978270" lon="6.1745590"><ele>179.8</ele></trkpt>
    <trkpt lat="49.0977110" lon="6.1744750"><ele>179.0</ele></trkpt>
    <trkpt lat="49.0977410" lon="6.1744010"><ele>179.8</ele></trkpt>
    <trkpt lat="49.0976940" lon="6.1743240"><ele>179.5</ele></trkpt>
    <trkpt lat="49.0976530" lon="6.1742620"><ele>179.2</ele></trkpt>
    <trkpt lat="49.0976570" lon="6.1741760"><ele>179.5</ele></trkpt>
    <trkpt lat="49.0976390" lon="6.1738660"><ele>180.0</ele></trkpt>
    <trkpt lat="49.0976280" lon="6.1737730"><ele>180.0</ele></trkpt>
    <trkpt lat="49.0975600" lon="6.1736700"><ele>180.0</ele></trkpt>
    <trkpt lat="49.0974550" lon="6.1729480"><ele>182.0</ele></trkpt>
    <trkpt lat="49.0973750" lon="6.1723210"><ele>182.8</ele></trkpt>
    <trkpt lat="49.0973710" lon="6.1722430"><ele>182.8</ele></trkpt>
    <trkpt lat="49.0973400" lon="6.1722530"><ele>182.8</ele></trkpt>
    <trkpt lat="49.0973310" lon="6.1722560"><ele>182.8</ele></trkpt>
    <trkpt lat="49.0973110" lon="6.1722500"><ele>182.8</ele></trkpt>
    <trkpt lat="49.0972060" lon="6.1722800"><ele>182.8</ele></trkpt>
    <trkpt lat="49.0971360" lon="6.1722850"><ele>182.8</ele></trkpt>
    <trkpt lat="49.0968300" lon="6.1723870"><ele>182.5</ele></trkpt>
    <trkpt lat="49.0967990" lon="6.1724110"><ele>182.5</ele></trkpt>
    <trkpt lat="49.0964250" lon="6.1725330"><ele>182.8</ele></trkpt>
    <trkpt lat="49.0964350" lon="6.1726460"><ele>182.2</ele></trkpt>
    <trkpt lat="49.0963900" lon="6.1726820"><ele>182.2</ele></trkpt>
    <trkpt lat="49.0963240" lon="6.1726960"><ele>182.2</ele></trkpt>
    <trkpt lat="49.0961860" lon="6.1727480"><ele>182.0</ele></trkpt>
    <trkpt lat="49.0961420" lon="6.1727500"><ele>182.0</ele></trkpt>
    <trkpt lat="49.0961560" lon="6.1728980"><ele>181.0</ele></trkpt>
    <trkpt lat="49.0962640" lon="6.1730120"><ele>180.8</ele></trkpt>
    <trkpt lat="49.0963070" lon="6.1730720"><ele>180.5</ele></trkpt>
    <trkpt lat="49.0963270" lon="6.1731380"><ele>180.0</ele></trkpt>
    <trkpt lat="49.0963180" lon="6.1732070"><ele>179.8</ele></trkpt>
    <trkpt lat="49.0962570" lon="6.1733370"><ele>178.8</ele></trkpt>
    <trkpt lat="49.0962060" lon="6.1733900"><ele>178.8</ele></trkpt>
    <trkpt lat="49.0961360" lon="6.1734240"><ele>178.5</ele></trkpt>
    <trkpt lat="49.0962020" lon="6.1734710"><ele>178.2</ele></trkpt>
    <trkpt lat="49.0961360" lon="6.1734240"><ele>178.5</ele></trkpt>
    <trkpt lat="49.0962060" lon="6.1733900"><ele>178.8</ele></trkpt>
    <trkpt lat="49.0962570" lon="6.1733370"><ele>178.8</ele></trkpt>
    <trkpt lat="49.0963180" lon="6.1732070"><ele>179.8</ele></trkpt>
    <trkpt lat="49.0963270" lon="6.1731380"><ele>180.0</ele></trkpt>
    <trkpt lat="49.0963070" lon="6.1730720"><ele>180.5</ele></trkpt>
    <trkpt lat="49.0962640" lon="6.1730120"><ele>180.8</ele></trkpt>
    <trkpt lat="49.0961560" lon="6.1728980"><ele>181.0</ele></trkpt>
    <trkpt lat="49.0961420" lon="6.1727500"><ele>182.0</ele></trkpt>
    <trkpt lat="49.0961290" lon="6.1725850"><ele>182.5</ele></trkpt>
    <trkpt lat="49.0961280" lon="6.1725660"><ele>182.8</ele></trkpt>
    <trkpt lat="49.0959830" lon="6.1725950"><ele>182.5</ele></trkpt>
    <trkpt lat="49.0959760" lon="6.1725370"><ele>182.8</ele></trkpt>
    <trkpt lat="49.0951180" lon="6.1728550"><ele>181.0</ele></trkpt>
    <trkpt lat="49.0950430" lon="6.1728900"><ele>181.0</ele></trkpt>
    <trkpt lat="49.0949620" lon="6.1729370"><ele>181.0</ele></trkpt>
    <trkpt lat="49.0948980" lon="6.1729770"><ele>181.2</ele></trkpt>
    <trkpt lat="49.0944910" lon="6.1732880"><ele>181.8</ele></trkpt>
    <trkpt lat="49.0944410" lon="6.1731910"><ele>181.8</ele></trkpt>
    <trkpt lat="49.0944090" lon="6.1731430"><ele>181.8</ele></trkpt>
    <trkpt lat="49.0943760" lon="6.1730950"><ele>181.8</ele></trkpt>
    <trkpt lat="49.0938190" lon="6.1740200"><ele>182.8</ele></trkpt>
    <trkpt lat="49.0934270" lon="6.1746840"><ele>186.0</ele></trkpt>
    <trkpt lat="49.0934050" lon="6.1747220"><ele>186.5</ele></trkpt>
    <trkpt lat="49.0933950" lon="6.1747390"><ele>186.5</ele></trkpt>
    <trkpt lat="49.0933560" lon="6.1746790"><ele>186.0</ele></trkpt>
    <trkpt lat="49.0932880" lon="6.1747250"><ele>185.8</ele></trkpt>
    <trkpt lat="49.0932510" lon="6.1747230"><ele>184.8</ele></trkpt>
    <trkpt lat="49.0932070" lon="6.1746850"><ele>184.8</ele></trkpt>
    <trkpt lat="49.0931050" lon="6.1745240"><ele>184.8</ele></trkpt>
    <trkpt lat="49.0929720" lon="6.1742720"><ele>185.0</ele></trkpt>
    <trkpt lat="49.0928160" lon="6.1737750"><ele>185.5</ele></trkpt>
    <trkpt lat="49.0927720" lon="6.1736550"><ele>185.5</ele></trkpt>
    <trkpt lat="49.0927340" lon="6.1736620"><ele>185.5</ele></trkpt>
    <trkpt lat="49.0927240" lon="6.1736300"><ele>185.8</ele></trkpt>
    <trkpt lat="49.0927110" lon="6.1735820"><ele>185.8</ele></trkpt>
    <trkpt lat="49.0926980" lon="6.1735380"><ele>185.8</ele></trkpt>
    <trkpt lat="49.0926500" lon="6.1733800"><ele>185.8</ele></trkpt>
    <trkpt lat="49.0926060" lon="6.1732920"><ele>185.8</ele></trkpt>
    <trkpt lat="49.0926480" lon="6.1732000"><ele>185.5</ele></trkpt>
    <trkpt lat="49.0926740" lon="6.1731530"><ele>185.5</ele></trkpt>
    <trkpt lat="49.0927430" lon="6.1730750"><ele>185.0</ele></trkpt>
    <trkpt lat="49.0928980" lon="6.1729180"><ele>185.2</ele></trkpt>
    <trkpt lat="49.0932940" lon="6.1725180"><ele>184.0</ele></trkpt>
    <trkpt lat="49.0934880" lon="6.1723110"><ele>183.8</ele></trkpt>
    <trkpt lat="49.0936480" lon="6.1721250"><ele>183.8</ele></trkpt>
    <trkpt lat="49.0936720" lon="6.1720980"><ele>183.8</ele></trkpt>
    <trkpt lat="49.0936940" lon="6.1720730"><ele>183.5</ele></trkpt>
    <trkpt lat="49.0937140" lon="6.1720480"><ele>183.5</ele></trkpt>
    <trkpt lat="49.0939670" lon="6.1717500"><ele>182.8</ele></trkpt>
    <trkpt lat="49.0940910" lon="6.1716050"><ele>183.0</ele></trkpt>
    <trkpt lat="49.0941270" lon="6.1715580"><ele>183.0</ele></trkpt>
    <trkpt lat="49.0941750" lon="6.1714770"><ele>182.8</ele></trkpt>
    <trkpt lat="49.0942100" lon="6.1713980"><ele>182.5</ele></trkpt>
    <trkpt lat="49.0942370" lon="6.1713190"><ele>182.2</ele></trkpt>
    <trkpt lat="49.0942640" lon="6.1712070"><ele>182.2</ele></trkpt>
    <trkpt lat="49.0942740" lon="6.1711370"><ele>182.5</ele></trkpt>
    <trkpt lat="49.0942720" lon="6.1710020"><ele>182.8</ele></trkpt>
    <trkpt lat="49.0942650" lon="6.1709270"><ele>183.0</ele></trkpt>
    <trkpt lat="49.0942370" lon="6.1707850"><ele>183.5</ele></trkpt>
    <trkpt lat="49.0941810" lon="6.1705040"><ele>184.8</ele></trkpt>
    <trkpt lat="49.0941700" lon="6.1704470"><ele>184.8</ele></trkpt>
    <trkpt lat="49.0941440" lon="6.1703120"><ele>184.8</ele></trkpt>
    <trkpt lat="49.0940800" lon="6.1699270"><ele>184.0</ele></trkpt>
    <trkpt lat="49.0940650" lon="6.1697800"><ele>183.8</ele></trkpt>
    <trkpt lat="49.0939610" lon="6.1686390"><ele>184.2</ele></trkpt>
    <trkpt lat="49.0940330" lon="6.1686250"><ele>182.8</ele></trkpt>
    <trkpt lat="49.0941170" lon="6.1686160"><ele>181.0</ele></trkpt>
    <trkpt lat="49.0941540" lon="6.1686130"><ele>180.2</ele></trkpt>
    <trkpt lat="49.0942870" lon="6.1686050"><ele>180.0</ele></trkpt>
    <trkpt lat="49.0944040" lon="6.1685980"><ele>180.0</ele></trkpt>
    <trkpt lat="49.0943890" lon="6.1679130"><ele>180.5</ele></trkpt>
    <trkpt lat="49.0943900" lon="6.1676590"><ele>180.8</ele></trkpt>
    <trkpt lat="49.0943900" lon="6.1672200"><ele>180.8</ele></trkpt>
    <trkpt lat="49.0943900" lon="6.1670900"><ele>180.8</ele></trkpt>
    <trkpt lat="49.0943940" lon="6.1668180"><ele>180.5</ele></trkpt>
    <trkpt lat="49.0944090" lon="6.1661550"><ele>180.0</ele></trkpt>
    <trkpt lat="49.0944300" lon="6.1655930"><ele>180.0</ele></trkpt>
    <trkpt lat="49.0944440" lon="6.1655140"><ele>180.0</ele></trkpt>
    <trkpt lat="49.0945040" lon="6.1652680"><ele>180.0</ele></trkpt>
    <trkpt lat="49.0945690" lon="6.1649890"><ele>180.0</ele></trkpt>
    <trkpt lat="49.0946170" lon="6.1647870"><ele>180.2</ele></trkpt>
    <trkpt lat="49.0947410" lon="6.1642640"><ele>181.0</ele></trkpt>
    <trkpt lat="49.0947880" lon="6.1639300"><ele>181.0</ele></trkpt>
    <trkpt lat="49.0948010" lon="6.1637790"><ele>181.2</ele></trkpt>
    <trkpt lat="49.0948020" lon="6.1636290"><ele>181.5</ele></trkpt>
    <trkpt lat="49.0947810" lon="6.1634710"><ele>182.0</ele></trkpt>
    <trkpt lat="49.0947540" lon="6.1633800"><ele>182.5</ele></trkpt>
    <trkpt lat="49.0947020" lon="6.1632650"><ele>183.0</ele></trkpt>
    <trkpt lat="49.0946460" lon="6.1631670"><ele>183.5</ele></trkpt>
    <trkpt lat="49.0945840" lon="6.1630880"><ele>184.2</ele></trkpt>
    <trkpt lat="49.0942820" lon="6.1627370"><ele>187.5</ele></trkpt>
    <trkpt lat="49.0942620" lon="6.1627140"><ele>187.5</ele></trkpt>
    <trkpt lat="49.0942470" lon="6.1626970"><ele>187.8</ele></trkpt>
    <trkpt lat="49.0941850" lon="6.1626290"><ele>187.8</ele></trkpt>
    <trkpt lat="49.0942150" lon="6.1625200"><ele>187.8</ele></trkpt>
    <trkpt lat="49.0942210" lon="6.1624990"><ele>188.0</ele></trkpt>
    <trkpt lat="49.0942320" lon="6.1624560"><ele>188.0</ele></trkpt>
    <trkpt lat="49.0946110" lon="6.1609800"><ele>188.5</ele></trkpt>
    <trkpt lat="49.0951270" lon="6.1591250"><ele>188.2</ele></trkpt>
    <trkpt lat="49.0951470" lon="6.1590530"><ele>188.5</ele></trkpt>
    <trkpt lat="49.0952670" lon="6.1586300"><ele>188.8</ele></trkpt>
    <trkpt lat="49.0952940" lon="6.1585360"><ele>188.5</ele></trkpt>
    <trkpt lat="49.0953240" lon="6.1584410"><ele>188.2</ele></trkpt>
    <trkpt lat="49.0951410" lon="6.1582890"><ele>188.0</ele></trkpt>
    <trkpt lat="49.0951760" lon="6.1582040"><ele>188.2</ele></trkpt>
    <trkpt lat="49.0953310" lon="6.1578130"><ele>188.2</ele></trkpt>
    <trkpt lat="49.0955490" lon="6.1572980"><ele>188.0</ele></trkpt>
    <trkpt lat="49.0949230" lon="6.1566890"><ele>188.0</ele></trkpt>
    <trkpt lat="49.0948300" lon="6.1565990"><ele>188.0</ele></trkpt>
    <trkpt lat="49.0944580" lon="6.1561800"><ele>188.0</ele></trkpt>
    <trkpt lat="49.0940370" lon="6.1557090"><ele>188.0</ele></trkpt>
    <trkpt lat="49.0942090" lon="6.1553330"><ele>188.0</ele></trkpt>
    <trkpt lat="49.0939410" lon="6.1550140"><ele>188.0</ele></trkpt>
    <trkpt lat="49.0940430" lon="6.1547880"><ele>188.0</ele></trkpt>
    <trkpt lat="49.0941610" lon="6.1545270"><ele>188.0</ele></trkpt>
    <trkpt lat="49.0944380" lon="6.1548480"><ele>188.0</ele></trkpt>
    <trkpt lat="49.0947530" lon="6.1541980"><ele>188.0</ele></trkpt>
    <trkpt lat="49.0950720" lon="6.1535310"><ele>188.8</ele></trkpt>
    <trkpt lat="49.0953030" lon="6.1538100"><ele>188.2</ele></trkpt>
    <trkpt lat="49.0954870" lon="6.1540170"><ele>188.0</ele></trkpt>
    <trkpt lat="49.0956950" lon="6.1542090"><ele>186.2</ele></trkpt>
    <trkpt lat="49.0957560" lon="6.1542650"><ele>185.5</ele></trkpt>
    <trkpt lat="49.0957950" lon="6.1542900"><ele>185.0</ele></trkpt>
    <trkpt lat="49.0958500" lon="6.1543110"><ele>184.0</ele></trkpt>
    <trkpt lat="49.0963560" lon="6.1543830"><ele>185.2</ele></trkpt>
    <trkpt lat="49.0964310" lon="6.1544130"><ele>186.2</ele></trkpt>
    <trkpt lat="49.0965510" lon="6.1545450"><ele>186.5</ele></trkpt>
    <trkpt lat="49.0966730" lon="6.1546780"><ele>188.0</ele></trkpt>
    <trkpt lat="49.0967370" lon="6.1547510"><ele>188.0</ele></trkpt>
    <trkpt lat="49.0967560" lon="6.1547160"><ele>188.0</ele></trkpt>
    <trkpt lat="49.0967910" lon="6.1546570"><ele>188.0</ele></trkpt>
    <trkpt lat="49.0968320" lon="6.1545820"><ele>188.0</ele></trkpt>
    <trkpt lat="49.0972150" lon="6.1538880"><ele>188.0</ele></trkpt>
    <trkpt lat="49.0973440" lon="6.1536090"><ele>187.8</ele></trkpt>
    <trkpt lat="49.0974880" lon="6.1532910"><ele>187.0</ele></trkpt>
    <trkpt lat="49.0975180" lon="6.1531890"><ele>187.0</ele></trkpt>
    <trkpt lat="49.0977640" lon="6.1526280"><ele>185.2</ele></trkpt>
    <trkpt lat="49.0978380" lon="6.1526990"><ele>185.5</ele></trkpt>
    <trkpt lat="49.0979670" lon="6.1528410"><ele>186.0</ele></trkpt>
    <trkpt lat="49.0985350" lon="6.1534610"><ele>185.5</ele></trkpt>
    <trkpt lat="49.0985880" lon="6.1535180"><ele>185.5</ele></trkpt>
    <trkpt lat="49.0986570" lon="6.1535920"><ele>185.8</ele></trkpt>
    <trkpt lat="49.0990290" lon="6.1539980"><ele>185.2</ele></trkpt>
    <trkpt lat="49.0996870" lon="6.1547160"><ele>185.0</ele></trkpt>
    <trkpt lat="49.0997480" lon="6.1547820"><ele>184.8</ele></trkpt>
    <trkpt lat="49.0997970" lon="6.1548360"><ele>184.8</ele></trkpt>
    <trkpt lat="49.0999130" lon="6.1549630"><ele>184.8</ele></trkpt>
    <trkpt lat="49.0999450" lon="6.1549980"><ele>184.8</ele></trkpt>
    <trkpt lat="49.0999680" lon="6.1550240"><ele>185.0</ele></trkpt>
    <trkpt lat="49.1000250" lon="6.1547000"><ele>184.0</ele></trkpt>
    <trkpt lat="49.1001310" lon="6.1540900"><ele>183.8</ele></trkpt>
    <trkpt lat="49.1001720" lon="6.1539340"><ele>183.5</ele></trkpt>
    <trkpt lat="49.1001570" lon="6.1537960"><ele>183.2</ele></trkpt>
    <trkpt lat="49.1000940" lon="6.1534490"><ele>182.0</ele></trkpt>
    <trkpt lat="49.1000930" lon="6.1533920"><ele>181.8</ele></trkpt>
    <trkpt lat="49.1001090" lon="6.1533360"><ele>181.5</ele></trkpt>
    <trkpt lat="49.1001320" lon="6.1532890"><ele>181.5</ele></trkpt>
    <trkpt lat="49.1001630" lon="6.1532480"><ele>181.2</ele></trkpt>
    <trkpt lat="49.1002140" lon="6.1531870"><ele>181.0</ele></trkpt>
    <trkpt lat="49.1002630" lon="6.1531220"><ele>181.0</ele></trkpt>
    <trkpt lat="49.1003170" lon="6.1530160"><ele>180.8</ele></trkpt>
    <trkpt lat="49.1002350" lon="6.1529020"><ele>180.8</ele></trkpt>
    <trkpt lat="49.1002640" lon="6.1528340"><ele>180.8</ele></trkpt>
    <trkpt lat="49.1002350" lon="6.1529020"><ele>180.8</ele></trkpt>
    <trkpt lat="49.1003170" lon="6.1530160"><ele>180.8</ele></trkpt>
    <trkpt lat="49.1002630" lon="6.1531220"><ele>181.0</ele></trkpt>
    <trkpt lat="49.1002140" lon="6.1531870"><ele>181.0</ele></trkpt>
    <trkpt lat="49.1001630" lon="6.1532480"><ele>181.2</ele></trkpt>
    <trkpt lat="49.1001320" lon="6.1532890"><ele>181.5</ele></trkpt>
    <trkpt lat="49.1001090" lon="6.1533360"><ele>181.5</ele></trkpt>
    <trkpt lat="49.1000930" lon="6.1533920"><ele>181.8</ele></trkpt>
    <trkpt lat="49.1000940" lon="6.1534490"><ele>182.0</ele></trkpt>
    <trkpt lat="49.1001570" lon="6.1537960"><ele>183.2</ele></trkpt>
    <trkpt lat="49.1001720" lon="6.1539340"><ele>183.5</ele></trkpt>
    <trkpt lat="49.1002770" lon="6.1540250"><ele>183.8</ele></trkpt>
    <trkpt lat="49.1005690" lon="6.1543520"><ele>184.0</ele></trkpt>
    <trkpt lat="49.1006680" lon="6.1544660"><ele>183.8</ele></trkpt>
    <trkpt lat="49.1007220" lon="6.1543560"><ele>184.0</ele></trkpt>
    <trkpt lat="49.1007920" lon="6.1542130"><ele>184.0</ele></trkpt>
    <trkpt lat="49.1008720" lon="6.1543000"><ele>183.5</ele></trkpt>
    <trkpt lat="49.1008870" lon="6.1542660"><ele>183.5</ele></trkpt>
    <trkpt lat="49.1009060" lon="6.1542860"><ele>183.2</ele></trkpt>
    <trkpt lat="49.1009480" lon="6.1541950"><ele>182.8</ele></trkpt>
    <trkpt lat="49.1009210" lon="6.1541640"><ele>183.0</ele></trkpt>
    <trkpt lat="49.1009420" lon="6.1541180"><ele>182.2</ele></trkpt>
    <trkpt lat="49.1009470" lon="6.1541080"><ele>182.2</ele></trkpt>
    <trkpt lat="49.1010020" lon="6.1541760"><ele>182.0</ele></trkpt>
    <trkpt lat="49.1010400" lon="6.1540940"><ele>181.2</ele></trkpt>
    <trkpt lat="49.1010910" lon="6.1539910"><ele>180.2</ele></trkpt>
    <trkpt lat="49.1011180" lon="6.1539440"><ele>180.0</ele></trkpt>
    <trkpt lat="49.1012820" lon="6.1536590"><ele>179.0</ele></trkpt>
    <trkpt lat="49.1013070" lon="6.1536150"><ele>178.8</ele></trkpt>
    <trkpt lat="49.1013530" lon="6.1535370"><ele>178.0</ele></trkpt>
    <trkpt lat="49.1014390" lon="6.1533860"><ele>176.5</ele></trkpt>
    <trkpt lat="49.1016100" lon="6.1531020"><ele>173.5</ele></trkpt>
    <trkpt lat="49.1020670" lon="6.1523330"><ele>169.2</ele></trkpt>
    <trkpt lat="49.1024040" lon="6.1518080"><ele>169.0</ele></trkpt>
    <trkpt lat="49.1026140" lon="6.1515190"><ele>169.0</ele></trkpt>
    <trkpt lat="49.1026430" lon="6.1514790"><ele>169.0</ele></trkpt>
    <trkpt lat="49.1026750" lon="6.1515410"><ele>169.0</ele></trkpt>
    <trkpt lat="49.1027050" lon="6.1515860"><ele>169.0</ele></trkpt>
    <trkpt lat="49.1029110" lon="6.1512970"><ele>168.8</ele></trkpt>
    <trkpt lat="49.1033590" lon="6.1505880"><ele>168.0</ele></trkpt>
    <trkpt lat="49.1033940" lon="6.1505440"><ele>168.0</ele></trkpt>
    <trkpt lat="49.1034290" lon="6.1505820"><ele>168.0</ele></trkpt>
    <trkpt lat="49.1034710" lon="6.1505830"><ele>168.0</ele></trkpt>
    <trkpt lat="49.1035240" lon="6.1505430"><ele>168.0</ele></trkpt>
    <trkpt lat="49.1038880" lon="6.1500450"><ele>167.8</ele></trkpt>
    <trkpt lat="49.1039080" lon="6.1500180"><ele>168.0</ele></trkpt>
    <trkpt lat="49.1039300" lon="6.1499860"><ele>168.0</ele></trkpt>
    <trkpt lat="49.1039470" lon="6.1499450"><ele>168.0</ele></trkpt>
    <trkpt lat="49.1040420" lon="6.1501000"><ele>168.2</ele></trkpt>
    <trkpt lat="49.1041400" lon="6.1502660"><ele>168.0</ele></trkpt>
    <trkpt lat="49.1042190" lon="6.1504010"><ele>168.5</ele></trkpt>
    <trkpt lat="49.1042320" lon="6.1504250"><ele>168.8</ele></trkpt>
    <trkpt lat="49.1042650" lon="6.1504750"><ele>168.8</ele></trkpt>
    <trkpt lat="49.1043330" lon="6.1505640"><ele>168.8</ele></trkpt>
    <trkpt lat="49.1043550" lon="6.1505940"><ele>168.8</ele></trkpt>
    <trkpt lat="49.1043760" lon="6.1506270"><ele>168.8</ele></trkpt>
    <trkpt lat="49.1044020" lon="6.1506680"><ele>168.8</ele></trkpt>
    <trkpt lat="49.1043190" lon="6.1507830"><ele>168.5</ele></trkpt>
    <trkpt lat="49.1043370" lon="6.1508320"><ele>168.5</ele></trkpt>
    <trkpt lat="49.1043520" lon="6.1508740"><ele>168.5</ele></trkpt>
    <trkpt lat="49.1043760" lon="6.1509530"><ele>168.2</ele></trkpt>
    <trkpt lat="49.1044820" lon="6.1517920"><ele>167.8</ele></trkpt>
    <trkpt lat="49.1044880" lon="6.1518890"><ele>167.8</ele></trkpt>
    <trkpt lat="49.1045040" lon="6.1521280"><ele>167.8</ele></trkpt>
    <trkpt lat="49.1045210" lon="6.1523740"><ele>167.5</ele></trkpt>
    <trkpt lat="49.1045400" lon="6.1525150"><ele>167.5</ele></trkpt>
    <trkpt lat="49.1046350" lon="6.1532190"><ele>167.2</ele></trkpt>
    <trkpt lat="49.1047920" lon="6.1543920"><ele>167.0</ele></trkpt>
    <trkpt lat="49.1048000" lon="6.1544030"><ele>167.0</ele></trkpt>
    <trkpt lat="49.1048860" lon="6.1551230"><ele>167.2</ele></trkpt>
    <trkpt lat="49.1051170" lon="6.1551720"><ele>167.0</ele></trkpt>
    <trkpt lat="49.1051840" lon="6.1552480"><ele>167.0</ele></trkpt>
    <trkpt lat="49.1052230" lon="6.1553360"><ele>167.0</ele></trkpt>
    <trkpt lat="49.1052580" lon="6.1553850"><ele>167.0</ele></trkpt>
    <trkpt lat="49.1053390" lon="6.1554720"><ele>167.0</ele></trkpt>
    <trkpt lat="49.1054110" lon="6.1556070"><ele>167.0</ele></trkpt>
    <trkpt lat="49.1054720" lon="6.1556780"><ele>167.0</ele></trkpt>
    <trkpt lat="49.1054130" lon="6.1557440"><ele>167.0</ele></trkpt>
    <trkpt lat="49.1053770" lon="6.1557730"><ele>167.0</ele></trkpt>
    <trkpt lat="49.1053780" lon="6.1558380"><ele>167.0</ele></trkpt>
    <trkpt lat="49.1053770" lon="6.1557730"><ele>167.0</ele></trkpt>
    <trkpt lat="49.1054130" lon="6.1557440"><ele>167.0</ele></trkpt>
    <trkpt lat="49.1054720" lon="6.1556780"><ele>167.0</ele></trkpt>
    <trkpt lat="49.1055230" lon="6.1557490"><ele>167.0</ele></trkpt>
    <trkpt lat="49.1055630" lon="6.1558420"><ele>167.0</ele></trkpt>
    <trkpt lat="49.1055730" lon="6.1559260"><ele>167.0</ele></trkpt>
    <trkpt lat="49.1055760" lon="6.1561250"><ele>167.0</ele></trkpt>
    <trkpt lat="49.1056360" lon="6.1561380"><ele>167.0</ele></trkpt>
    <trkpt lat="49.1058770" lon="6.1562670"><ele>167.0</ele></trkpt>
    <trkpt lat="49.1059530" lon="6.1563240"><ele>167.0</ele></trkpt>
    <trkpt lat="49.1060600" lon="6.1563700"><ele>167.0</ele></trkpt>
    <trkpt lat="49.1061400" lon="6.1563700"><ele>167.0</ele></trkpt>
    <trkpt lat="49.1061920" lon="6.1563820"><ele>167.2</ele></trkpt>
    <trkpt lat="49.1062380" lon="6.1564220"><ele>167.5</ele></trkpt>
    <trkpt lat="49.1062430" lon="6.1567980"><ele>168.0</ele></trkpt>
    <trkpt lat="49.1062530" lon="6.1574040"><ele>169.2</ele></trkpt>
    <trkpt lat="49.1062530" lon="6.1574660"><ele>169.2</ele></trkpt>
    <trkpt lat="49.1062650" lon="6.1575250"><ele>169.2</ele></trkpt>
    <trkpt lat="49.1063170" lon="6.1575510"><ele>169.0</ele></trkpt>
    <trkpt lat="49.1063840" lon="6.1575550"><ele>169.0</ele></trkpt>
    <trkpt lat="49.1064090" lon="6.1575570"><ele>169.0</ele></trkpt>
    <trkpt lat="49.1064460" lon="6.1575600"><ele>169.0</ele></trkpt>
    <trkpt lat="49.1064570" lon="6.1579760"><ele>169.8</ele></trkpt>
    <trkpt lat="49.1064790" lon="6.1582280"><ele>170.0</ele></trkpt>
    <trkpt lat="49.1064470" lon="6.1582380"><ele>170.0</ele></trkpt>
    <trkpt lat="49.1064310" lon="6.1582390"><ele>170.0</ele></trkpt>
    <trkpt lat="49.1063480" lon="6.1582420"><ele>169.8</ele></trkpt>
    <trkpt lat="49.1062930" lon="6.1582510"><ele>169.8</ele></trkpt>
    <trkpt lat="49.1062540" lon="6.1582180"><ele>169.8</ele></trkpt>
    <trkpt lat="49.1061730" lon="6.1581200"><ele>169.2</ele></trkpt>
    <trkpt lat="49.1059980" lon="6.1585150"><ele>170.2</ele></trkpt>
    <trkpt lat="49.1058130" lon="6.1583260"><ele>169.8</ele></trkpt>
    <trkpt lat="49.1055290" lon="6.1589430"><ele>175.2</ele></trkpt>
    <trkpt lat="49.1054820" lon="6.1590260"><ele>175.8</ele></trkpt>
    <trkpt lat="49.1054670" lon="6.1590500"><ele>175.8</ele></trkpt>
    <trkpt lat="49.1052620" lon="6.1587390"><ele>173.8</ele></trkpt>
    <trkpt lat="49.1052000" lon="6.1586940"><ele>173.0</ele></trkpt>
    <trkpt lat="49.1051450" lon="6.1586340"><ele>172.5</ele></trkpt>
    <trkpt lat="49.1047530" lon="6.1582070"><ele>171.8</ele></trkpt>
    <trkpt lat="49.1046780" lon="6.1581260"><ele>172.0</ele></trkpt>
    <trkpt lat="49.1046110" lon="6.1579990"><ele>171.8</ele></trkpt>
    <trkpt lat="49.1043440" lon="6.1573730"><ele>172.5</ele></trkpt>
    <trkpt lat="49.1043140" lon="6.1572630"><ele>172.5</ele></trkpt>
    <trkpt lat="49.1042560" lon="6.1571140"><ele>172.2</ele></trkpt>
    <trkpt lat="49.1041200" lon="6.1568440"><ele>172.0</ele></trkpt>
    <trkpt lat="49.1040020" lon="6.1566790"><ele>173.0</ele></trkpt>
    <trkpt lat="49.1038200" lon="6.1564670"><ele>174.2</ele></trkpt>
    <trkpt lat="49.1034470" lon="6.1560760"><ele>176.5</ele></trkpt>
    <trkpt lat="49.1034340" lon="6.1561080"><ele>176.5</ele></trkpt>
    <trkpt lat="49.1034200" lon="6.1561340"><ele>176.8</ele></trkpt>
    <trkpt lat="49.1034660" lon="6.1561940"><ele>176.8</ele></trkpt>
    <trkpt lat="49.1034540" lon="6.1562540"><ele>177.0</ele></trkpt>
    <trkpt lat="49.1034490" lon="6.1563830"><ele>177.5</ele></trkpt>
    <trkpt lat="49.1034450" lon="6.1564940"><ele>177.5</ele></trkpt>
    <trkpt lat="49.1034330" lon="6.1566090"><ele>177.5</ele></trkpt>
    <trkpt lat="49.1033440" lon="6.1566120"><ele>177.8</ele></trkpt>
    <trkpt lat="49.1032590" lon="6.1566700"><ele>178.0</ele></trkpt>
    <trkpt lat="49.1031850" lon="6.1567230"><ele>178.0</ele></trkpt>
    <trkpt lat="49.1032590" lon="6.1566700"><ele>178.0</ele></trkpt>
    <trkpt lat="49.1033440" lon="6.1566120"><ele>177.8</ele></trkpt>
    <trkpt lat="49.1034330" lon="6.1566090"><ele>177.5</ele></trkpt>
    <trkpt lat="49.1036910" lon="6.1567410"><ele>176.5</ele></trkpt>
    <trkpt lat="49.1038240" lon="6.1568080"><ele>176.0</ele></trkpt>
    <trkpt lat="49.1039070" lon="6.1568760"><ele>176.0</ele></trkpt>
    <trkpt lat="49.1039730" lon="6.1569830"><ele>175.5</ele></trkpt>
    <trkpt lat="49.1040280" lon="6.1571380"><ele>175.0</ele></trkpt>
    <trkpt lat="49.1040420" lon="6.1573100"><ele>175.5</ele></trkpt>
    <trkpt lat="49.1040350" lon="6.1574710"><ele>175.8</ele></trkpt>
    <trkpt lat="49.1039660" lon="6.1577730"><ele>176.0</ele></trkpt>
    <trkpt lat="49.1037990" lon="6.1580070"><ele>176.8</ele></trkpt>
    <trkpt lat="49.1038620" lon="6.1581530"><ele>176.5</ele></trkpt>
    <trkpt lat="49.1037560" lon="6.1582600"><ele>176.5</ele></trkpt>
    <trkpt lat="49.1037930" lon="6.1583550"><ele>176.2</ele></trkpt>
    <trkpt lat="49.1038800" lon="6.1585770"><ele>176.0</ele></trkpt>
    <trkpt lat="49.1039170" lon="6.1586690"><ele>175.8</ele></trkpt>
    <trkpt lat="49.1035480" lon="6.1590260"><ele>177.5</ele></trkpt>
    <trkpt lat="49.1037180" lon="6.1593710"><ele>177.8</ele></trkpt>
    <trkpt lat="49.1037960" lon="6.1595230"><ele>178.0</ele></trkpt>
    <trkpt lat="49.1038400" lon="6.1594550"><ele>177.8</ele></trkpt>
    <trkpt lat="49.1039100" lon="6.1593950"><ele>177.8</ele></trkpt>
    <trkpt lat="49.1039220" lon="6.1594160"><ele>177.8</ele></trkpt>
    <trkpt lat="49.1039600" lon="6.1594740"><ele>177.8</ele></trkpt>
    <trkpt lat="49.1039890" lon="6.1595000"><ele>177.5</ele></trkpt>
    <trkpt lat="49.1040380" lon="6.1595190"><ele>177.5</ele></trkpt>
    <trkpt lat="49.1040740" lon="6.1595150"><ele>177.5</ele></trkpt>
    <trkpt lat="49.1040760" lon="6.1595790"><ele>177.5</ele></trkpt>
    <trkpt lat="49.1040890" lon="6.1596600"><ele>177.8</ele></trkpt>
    <trkpt lat="49.1041080" lon="6.1597240"><ele>178.0</ele></trkpt>
    <trkpt lat="49.1041480" lon="6.1598050"><ele>178.0</ele></trkpt>
    <trkpt lat="49.1042350" lon="6.1598200"><ele>177.8</ele></trkpt>
    <trkpt lat="49.1043160" lon="6.1599320"><ele>178.0</ele></trkpt>
    <trkpt lat="49.1043720" lon="6.1600560"><ele>178.0</ele></trkpt>
    <trkpt lat="49.1044470" lon="6.1602720"><ele>178.0</ele></trkpt>
    <trkpt lat="49.1044560" lon="6.1603170"><ele>178.0</ele></trkpt>
    <trkpt lat="49.1044520" lon="6.1603650"><ele>178.2</ele></trkpt>
    <trkpt lat="49.1045170" lon="6.1604580"><ele>178.5</ele></trkpt>
    <trkpt lat="49.1046300" lon="6.1606430"><ele>179.0</ele></trkpt>
    <trkpt lat="49.1046830" lon="6.1607280"><ele>179.0</ele></trkpt>
    <trkpt lat="49.1047010" lon="6.1606950"><ele>179.0</ele></trkpt>
    <trkpt lat="49.1047080" lon="6.1606330"><ele>179.0</ele></trkpt>
    <trkpt lat="49.1047080" lon="6.1606330"><ele>179.0</ele></trkpt>
    <trkpt lat="49.1047010" lon="6.1606950"><ele>179.0</ele></trkpt>
    <trkpt lat="49.1046830" lon="6.1607280"><ele>179.0</ele></trkpt>
    <trkpt lat="49.1047570" lon="6.1608490"><ele>178.8</ele></trkpt>
    <trkpt lat="49.1047950" lon="6.1608700"><ele>179.0</ele></trkpt>
    <trkpt lat="49.1048540" lon="6.1607710"><ele>178.8</ele></trkpt>
    <trkpt lat="49.1049450" lon="6.1607710"><ele>178.8</ele></trkpt>
    <trkpt lat="49.1050130" lon="6.1607500"><ele>178.5</ele></trkpt>
    <trkpt lat="49.1050530" lon="6.1607200"><ele>178.5</ele></trkpt>
    <trkpt lat="49.1050490" lon="6.1606710"><ele>178.5</ele></trkpt>
    <trkpt lat="49.1050540" lon="6.1606450"><ele>178.2</ele></trkpt>
    <trkpt lat="49.1051980" lon="6.1604500"><ele>178.2</ele></trkpt>
    <trkpt lat="49.1054380" lon="6.1601020"><ele>178.0</ele></trkpt>
    <trkpt lat="49.1054930" lon="6.1600240"><ele>178.0</ele></trkpt>
    <trkpt lat="49.1056520" lon="6.1597930"><ele>178.0</ele></trkpt>
    <trkpt lat="49.1057020" lon="6.1597190"><ele>177.8</ele></trkpt>
    <trkpt lat="49.1057140" lon="6.1597010"><ele>177.8</ele></trkpt>
    <trkpt lat="49.1057720" lon="6.1596120"><ele>177.5</ele></trkpt>
    <trkpt lat="49.1058020" lon="6.1595700"><ele>177.5</ele></trkpt>
    <trkpt lat="49.1060720" lon="6.1600430"><ele>178.0</ele></trkpt>
    <trkpt lat="49.1061980" lon="6.1603230"><ele>177.5</ele></trkpt>
    <trkpt lat="49.1064360" lon="6.1607640"><ele>178.2</ele></trkpt>
    <trkpt lat="49.1066940" lon="6.1612750"><ele>178.2</ele></trkpt>
    <trkpt lat="49.1067600" lon="6.1613540"><ele>178.5</ele></trkpt>
    <trkpt lat="49.1069080" lon="6.1616420"><ele>178.0</ele></trkpt>
    <trkpt lat="49.1069150" lon="6.1616560"><ele>178.0</ele></trkpt>
    <trkpt lat="49.1073410" lon="6.1624700"><ele>179.5</ele></trkpt>
    <trkpt lat="49.1073860" lon="6.1625660"><ele>179.2</ele></trkpt>
    <trkpt lat="49.1074340" lon="6.1626450"><ele>179.0</ele></trkpt>
    <trkpt lat="49.1075780" lon="6.1628360"><ele>179.2</ele></trkpt>
    <trkpt lat="49.1076610" lon="6.1629240"><ele>179.8</ele></trkpt>
    <trkpt lat="49.1081690" lon="6.1633820"><ele>180.0</ele></trkpt>
    <trkpt lat="49.1082190" lon="6.1634370"><ele>180.0</ele></trkpt>
    <trkpt lat="49.1082900" lon="6.1635130"><ele>180.0</ele></trkpt>
    <trkpt lat="49.1083240" lon="6.1635490"><ele>180.0</ele></trkpt>
    <trkpt lat="49.1085280" lon="6.1637690"><ele>180.0</ele></trkpt>
    <trkpt lat="49.1087220" lon="6.1639960"><ele>180.0</ele></trkpt>
    <trkpt lat="49.1090870" lon="6.1644410"><ele>180.2</ele></trkpt>
    <trkpt lat="49.1093430" lon="6.1647750"><ele>180.2</ele></trkpt>
    <trkpt lat="49.1094020" lon="6.1648630"><ele>180.5</ele></trkpt>
    <trkpt lat="49.1094600" lon="6.1649640"><ele>180.8</ele></trkpt>
    <trkpt lat="49.1096980" lon="6.1653670"><ele>181.0</ele></trkpt>
    <trkpt lat="49.1098330" lon="6.1656560"><ele>181.2</ele></trkpt>
    <trkpt lat="49.1098900" lon="6.1658060"><ele>181.8</ele></trkpt>
    <trkpt lat="49.1099160" lon="6.1658740"><ele>182.0</ele></trkpt>
    <trkpt lat="49.1099760" lon="6.1661050"><ele>182.0</ele></trkpt>
    <trkpt lat="49.1100290" lon="6.1663640"><ele>182.0</ele></trkpt>
    <trkpt lat="49.1100750" lon="6.1666150"><ele>182.0</ele></trkpt>
    <trkpt lat="49.1101080" lon="6.1668690"><ele>181.5</ele></trkpt>
    <trkpt lat="49.1101430" lon="6.1670840"><ele>182.0</ele></trkpt>
    <trkpt lat="49.1101650" lon="6.1672230"><ele>182.8</ele></trkpt>
    <trkpt lat="49.1102140" lon="6.1673810"><ele>182.8</ele></trkpt>
    <trkpt lat="49.1102660" lon="6.1673870"><ele>182.8</ele></trkpt>
    <trkpt lat="49.1102800" lon="6.1673890"><ele>183.0</ele></trkpt>
    <trkpt lat="49.1103210" lon="6.1675450"><ele>182.8</ele></trkpt>
    <trkpt lat="49.1103280" lon="6.1677980"><ele>182.0</ele></trkpt>
    <trkpt lat="49.1104380" lon="6.1693510"><ele>181.5</ele></trkpt>
    <trkpt lat="49.1105200" lon="6.1705060"><ele>180.0</ele></trkpt>
    <trkpt lat="49.1105660" lon="6.1706010"><ele>180.0</ele></trkpt>
    <trkpt lat="49.1105650" lon="6.1706670"><ele>179.8</ele></trkpt>
    <trkpt lat="49.1105640" lon="6.1707240"><ele>179.8</ele></trkpt>
    <trkpt lat="49.1105490" lon="6.1707830"><ele>180.0</ele></trkpt>
    <trkpt lat="49.1105350" lon="6.1708360"><ele>179.8</ele></trkpt>
    <trkpt lat="49.1105230" lon="6.1713030"><ele>179.0</ele></trkpt>
    <trkpt lat="49.1105100" lon="6.1718080"><ele>179.0</ele></trkpt>
    <trkpt lat="49.1105080" lon="6.1718680"><ele>179.0</ele></trkpt>
    <trkpt lat="49.1104920" lon="6.1719520"><ele>179.0</ele></trkpt>
    <trkpt lat="49.1104710" lon="6.1720450"><ele>179.0</ele></trkpt>
    <trkpt lat="49.1104130" lon="6.1723840"><ele>179.0</ele></trkpt>
    <trkpt lat="49.1103670" lon="6.1727810"><ele>178.0</ele></trkpt>
    <trkpt lat="49.1103700" lon="6.1730170"><ele>178.0</ele></trkpt>
    <trkpt lat="49.1103870" lon="6.1732230"><ele>177.2</ele></trkpt>
    <trkpt lat="49.1104280" lon="6.1737140"><ele>176.8</ele></trkpt>
    <trkpt lat="49.1104310" lon="6.1738500"><ele>176.5</ele></trkpt>
    <trkpt lat="49.1104400" lon="6.1739670"><ele>176.2</ele></trkpt>
    <trkpt lat="49.1104430" lon="6.1741070"><ele>176.0</ele></trkpt>
    <trkpt lat="49.1104380" lon="6.1742460"><ele>176.0</ele></trkpt>
    <trkpt lat="49.1104160" lon="6.1744300"><ele>176.0</ele></trkpt>
    <trkpt lat="49.1103850" lon="6.1745770"><ele>176.0</ele></trkpt>
    <trkpt lat="49.1103640" lon="6.1746420"><ele>176.0</ele></trkpt>
    <trkpt lat="49.1103310" lon="6.1747350"><ele>175.8</ele></trkpt>
    <trkpt lat="49.1103020" lon="6.1748830"><ele>175.2</ele></trkpt>
    <trkpt lat="49.1100190" lon="6.1759170"><ele>173.8</ele></trkpt>
    <trkpt lat="49.1100860" lon="6.1759580"><ele>173.8</ele></trkpt>
    <trkpt lat="49.1101320" lon="6.1759870"><ele>173.5</ele></trkpt>
    <trkpt lat="49.1101440" lon="6.1759940"><ele>173.5</ele></trkpt>
    <trkpt lat="49.1101740" lon="6.1760570"><ele>173.2</ele></trkpt>
    <trkpt lat="49.1101510" lon="6.1761480"><ele>173.5</ele></trkpt>
    <trkpt lat="49.1101340" lon="6.1762210"><ele>173.5</ele></trkpt>
    <trkpt lat="49.1101110" lon="6.1763430"><ele>173.8</ele></trkpt>
    <trkpt lat="49.1102540" lon="6.1766380"><ele>174.0</ele></trkpt>
    <trkpt lat="49.1102330" lon="6.1766610"><ele>174.0</ele></trkpt>
    <trkpt lat="49.1101660" lon="6.1767370"><ele>174.0</ele></trkpt>
    <trkpt lat="49.1101280" lon="6.1767800"><ele>174.0</ele></trkpt>
    <trkpt lat="49.1100150" lon="6.1769620"><ele>173.8</ele></trkpt>
    <trkpt lat="49.1099770" lon="6.1770100"><ele>174.2</ele></trkpt>
    <trkpt lat="49.1099290" lon="6.1770640"><ele>175.0</ele></trkpt>
    <trkpt lat="49.1099000" lon="6.1770960"><ele>175.8</ele></trkpt>
    <trkpt lat="49.1098140" lon="6.1771960"><ele>177.8</ele></trkpt>
    <trkpt lat="49.1096620" lon="6.1773690"><ele>179.8</ele></trkpt>
    <trkpt lat="49.1096070" lon="6.1774310"><ele>179.5</ele></trkpt>
    <trkpt lat="49.1095900" lon="6.1774510"><ele>179.5</ele></trkpt>
    <trkpt lat="49.1094230" lon="6.1776440"><ele>179.0</ele></trkpt>
    <trkpt lat="49.1093450" lon="6.1777310"><ele>179.0</ele></trkpt>
    <trkpt lat="49.1092350" lon="6.1778550"><ele>179.0</ele></trkpt>
    <trkpt lat="49.1091650" lon="6.1779350"><ele>178.8</ele></trkpt>
    <trkpt lat="49.1090000" lon="6.1781230"><ele>179.0</ele></trkpt>
    <trkpt lat="49.1086340" lon="6.1785370"><ele>176.5</ele></trkpt>
    <trkpt lat="49.1085970" lon="6.1785780"><ele>175.8</ele></trkpt>
    <trkpt lat="49.1086370" lon="6.1789650"><ele>174.5</ele></trkpt>
    <trkpt lat="49.1086290" lon="6.1790320"><ele>173.5</ele></trkpt>
    <trkpt lat="49.1086030" lon="6.1792300"><ele>171.8</ele></trkpt>
    <trkpt lat="49.1085900" lon="6.1794770"><ele>171.8</ele></trkpt>
    <trkpt lat="49.1084890" lon="6.1795900"><ele>171.8</ele></trkpt>
    <trkpt lat="49.1086990" lon="6.1799530"><ele>172.0</ele></trkpt>
    <trkpt lat="49.1087230" lon="6.1800090"><ele>172.0</ele></trkpt>
    <trkpt lat="49.1087070" lon="6.1800320"><ele>172.0</ele></trkpt>
    <trkpt lat="49.1086810" lon="6.1800720"><ele>172.0</ele></trkpt>
    <trkpt lat="49.1086560" lon="6.1801050"><ele>172.0</ele></trkpt>
    <trkpt lat="49.1086420" lon="6.1801210"><ele>172.0</ele></trkpt>
    <trkpt lat="49.1085990" lon="6.1801710"><ele>172.0</ele></trkpt>
    <trkpt lat="49.1085640" lon="6.1801950"><ele>172.0</ele></trkpt>
    <trkpt lat="49.1083640" lon="6.1803040"><ele>171.8</ele></trkpt>
    <trkpt lat="49.1081720" lon="6.1804210"><ele>171.5</ele></trkpt>
    <trkpt lat="49.1081500" lon="6.1804690"><ele>171.5</ele></trkpt>
    <trkpt lat="49.1080360" lon="6.1805360"><ele>171.0</ele></trkpt>
    <trkpt lat="49.1080420" lon="6.1806140"><ele>171.0</ele></trkpt>
    <trkpt lat="49.1080150" lon="6.1807420"><ele>171.0</ele></trkpt>
    <trkpt lat="49.1077440" lon="6.1809290"><ele>171.0</ele></trkpt>
    <trkpt lat="49.1078390" lon="6.1811220"><ele>171.0</ele></trkpt>
    <trkpt lat="49.1080510" lon="6.1809960"><ele>171.0</ele></trkpt>
    <trkpt lat="49.1082740" lon="6.1808640"><ele>171.5</ele></trkpt>
    <trkpt lat="49.1084250" lon="6.1810500"><ele>170.8</ele></trkpt>
  </trkseg></trk>
</gpx>