<?xml version="1.0" encoding="UTF-8"?>
<kml xmlns="http://www.opengis.net/kml/2.2"><Document>
  <name>Les parcs de Montigny et le chateau de Courcelles</name><description>9.6 km. D+ 32 m. 13 % de chemins. Une boucle de petites rues qui saute de parc en parc : Sainte-Chretienne, Prevert, la Clairiere, le chateau de Courcelles et le jardin botanique. Plus de rues que de chemins, mais aucune grande avenue.</description>
  <Style id="depart"><IconStyle><scale>1.2</scale><Icon><href>http://maps.google.com/mapfiles/kml/paddle/grn-circle.png</href></Icon></IconStyle></Style>
  <Style id="etape"><IconStyle><Icon><href>http://maps.google.com/mapfiles/kml/paddle/wht-blank.png</href></Icon></IconStyle></Style>
    <Placemark><name>Depart : Centre Pompidou-Metz, parvis</name><description>Point de rendez-vous, sur le parvis des Droits de l'Homme, a deux pas de la gare.</description><styleUrl>#depart</styleUrl><Point><coordinates>6.1811000,49.1084000,0</coordinates></Point></Placemark>
    <Placemark><name>1. Parc Sainte-Chretienne</name><description></description><styleUrl>#etape</styleUrl><Point><coordinates>6.1734500,49.0962100,0</coordinates></Point></Placemark>
    <Placemark><name>2. Parc Jacques Prevert, Montigny</name><description></description><styleUrl>#etape</styleUrl><Point><coordinates>6.1549000,49.0941500,0</coordinates></Point></Placemark>
    <Placemark><name>3. La Clairiere, Montigny</name><description></description><styleUrl>#etape</styleUrl><Point><coordinates>6.1528200,49.1002500,0</coordinates></Point></Placemark>
    <Placemark><name>4. Parc du chateau de Courcelles</name><description></description><styleUrl>#etape</styleUrl><Point><coordinates>6.1573100,49.1033700,0</coordinates></Point></Placemark>
    <Placemark><name>5. Plaine de la Vacquiniere</name><description></description><styleUrl>#etape</styleUrl><Point><coordinates>6.1560100,49.1054300,0</coordinates></Point></Placemark>
    <Placemark><name>6. Jardin botanique de Metz</name><description></description><styleUrl>#etape</styleUrl><Point><coordinates>6.1606400,49.1046800,0</coordinates></Point></Placemark>
    <Style id="t1"><LineStyle><color>ff5B7F3A</color><width>4</width></LineStyle></Style>
    <Placemark><name>Les parcs de Montigny et le chateau de Courcelles</name><description>9.6 km. D+ 32 m. 13 % de chemins. Une boucle de petites rues qui saute de parc en parc : Sainte-Chretienne, Prevert, la Clairiere, le chateau de Courcelles et le jardin botanique. Plus de rues que de chemins, mais aucune grande avenue.</description><styleUrl>#t1</styleUrl><LineString><tessellate>1</tessellate><coordinates>6.1810500,49.1084250,171 6.1808640,49.1082740,172 6.1809960,49.1080510,171 6.1811220,49.1078390,171 6.1809290,49.1077440,171 6.1808780,49.1077200,171 6.1808270,49.1076940,171 6.1807700,49.1076660,171 6.1808140,49.1075710,171 6.1807860,49.1075190,171 6.1807200,49.1074900,171 6.1798630,49.1074320,172 6.1798140,49.1074290,172 6.1793030,49.1073940,172 6.1793070,49.1073610,172 6.1793120,49.1073310,171 6.1793180,49.1072870,171 6.1793190,49.1072750,170 6.1792880,49.1072430,170 6.1792830,49.1072120,170 6.1792680,49.1072110,170 6.1792250,49.1072090,170 6.1791730,49.1072070,170 6.1791320,49.1072050,170 6.1791450,49.1071530,170 6.1791200,49.1071560,170 6.1790740,49.1071570,170 6.1785570,49.1071240,170 6.1784740,49.1071130,170 6.1784050,49.1070880,170 6.1782550,49.1070150,170 6.1780970,49.1069090,170 6.1789090,49.1064410,169 6.1789310,49.1064140,169 6.1789930,49.1059670,169 6.1789410,49.1059530,169 6.1788870,49.1059190,169 6.1786500,49.1056310,169 6.1786180,49.1055780,169 6.1785940,49.1055450,169 6.1785480,49.1054960,169 6.1785180,49.1054540,170 6.1784870,49.1054230,170 6.1784140,49.1053480,170 6.1783100,49.1051920,170 6.1782230,49.1050560,170 6.1781960,49.1049330,170 6.1781740,49.1048840,170 6.1781140,49.1047660,170 6.1780890,49.1047120,170 6.1780570,49.1046950,170 6.1780210,49.1046760,170 6.1779900,49.1046160,170 6.1779200,49.1044620,170 6.1778990,49.1044200,170 6.1778950,49.1043880,170 6.1778780,49.1043410,170 6.1778640,49.1043220,170 6.1777970,49.1041410,170 6.1777560,49.1040230,170 6.1777200,49.1038950,170 6.1776890,49.1037880,170 6.1776620,49.1036890,170 6.1776350,49.1035970,170 6.1776090,49.1035040,170 6.1775870,49.1033650,171 6.1775940,49.1033310,171 6.1775570,49.1032330,171 6.1775410,49.1031910,171 6.1775380,49.1031830,171 6.1775290,49.1031510,171 6.1775140,49.1031000,171 6.1774970,49.1030750,171 6.1774810,49.1030510,171 6.1774270,49.1027580,171 6.1773860,49.1023890,171 6.1774400,49.1023550,171 6.1774300,49.1018030,171 6.1774260,49.1016370,171 6.1774260,49.1016160,171 6.1773840,49.1016020,171 6.1773810,49.1015520,171 6.1773780,49.1015010,171 6.1773800,49.1012010,171 6.1773960,49.1011490,171 6.1773890,49.1011020,171 6.1774080,49.1009100,171 6.1774380,49.1008100,171 6.1774370,49.1006770,171 6.1774280,49.1005910,171 6.1774230,49.1005370,171 6.1774540,49.1002970,172 6.1774790,49.1001210,172 6.1774910,49.1000730,172 6.1775010,49.1000350,172 6.1775140,49.0999900,172 6.1775200,49.0999720,172 6.1771850,49.0999380,172 6.1760440,49.0997970,175 6.1759640,49.0997760,176 6.1759750,49.0997620,176 6.1759490,49.0997320,176 6.1759520,49.0996630,176 6.1759370,49.0996250,176 6.1759380,49.0996030,176 6.1758950,49.0995790,176 6.1758510,49.0995550,177 6.1758160,49.0995660,177 6.1757940,49.0995660,177 6.1757620,49.0995590,177 6.1757390,49.0995440,177 6.1756830,49.0995470,178 6.1756750,49.0994230,178 6.1756880,49.0990510,178 6.1756750,49.0989690,178 6.1756490,49.0989050,178 6.1754920,49.0986400,179 6.1753880,49.0985110,179 6.1752780,49.0983900,179 6.1750190,49.0981420,180 6.1747830,49.0979710,180 6.1746810,49.0979260,180 6.1745590,49.0978270,180 6.1744750,49.0977110,179 6.1744010,49.0977410,180 6.1743240,49.0976940,180 6.1742620,49.0976530,179 6.1741760,49.0976570,180 6.1738660,49.0976390,180 6.1737730,49.0976280,180 6.1736700,49.0975600,180 6.1729480,49.0974550,182 6.1723210,49.0973750,183 6.1722430,49.0973710,183 6.1722530,49.0973400,183 6.1722560,49.0973310,183 6.1722500,49.0973110,183 6.1722800,49.0972060,183 6.1722850,49.0971360,183 6.1723870,49.0968300,182 6.1724110,49.0967990,182 6.1725330,49.0964250,183 6.1726460,49.0964350,182 6.1726820,49.0963900,182 6.1726960,49.0963240,182 6.1727480,49.0961860,182 6.1727500,49.0961420,182 6.1728980,49.0961560,181 6.1730120,49.0962640,181 6.1730720,49.0963070,180 6.1731380,49.0963270,180 6.1732070,49.0963180,180 6.1733370,49.0962570,179 6.1733900,49.0962060,179 6.1734240,49.0961360,178 6.1734710,49.0962020,178 6.1734240,49.0961360,178 6.1733900,49.0962060,179 6.1733370,49.0962570,179 6.1732070,49.0963180,180 6.1731380,49.0963270,180 6.1730720,49.0963070,180 6.1730120,49.0962640,181 6.1728980,49.0961560,181 6.1727500,49.0961420,182 6.1725850,49.0961290,182 6.1725660,49.0961280,183 6.1725950,49.0959830,182 6.1725370,49.0959760,183 6.1728550,49.0951180,181 6.1728900,49.0950430,181 6.1729370,49.0949620,181 6.1729770,49.0948980,181 6.1732880,49.0944910,182 6.1731910,49.0944410,182 6.1731430,49.0944090,182 6.1730950,49.0943760,182 6.1740200,49.0938190,183 6.1746840,49.0934270,186 6.1747220,49.0934050,186 6.1747390,49.0933950,186 6.1746790,49.0933560,186 6.1747250,49.0932880,186 6.1747230,49.0932510,185 6.1746850,49.0932070,185 6.1745240,49.0931050,185 6.1742720,49.0929720,185 6.1737750,49.0928160,186 6.1736550,49.0927720,186 6.1736620,49.0927340,186 6.1736300,49.0927240,186 6.1735820,49.0927110,186 6.1735380,49.0926980,186 6.1733800,49.0926500,186 6.1732920,49.0926060,186 6.1732000,49.0926480,186 6.1731530,49.0926740,186 6.1730750,49.0927430,185 6.1729180,49.0928980,185 6.1725180,49.0932940,184 6.1723110,49.0934880,184 6.1721250,49.0936480,184 6.1720980,49.0936720,184 6.1720730,49.0936940,184 6.1720480,49.0937140,184 6.1717500,49.0939670,183 6.1716050,49.0940910,183 6.1715580,49.0941270,183 6.1714770,49.0941750,183 6.1713980,49.0942100,182 6.1713190,49.0942370,182 6.1712070,49.0942640,182 6.1711370,49.0942740,182 6.1710020,49.0942720,183 6.1709270,49.0942650,183 6.1707850,49.0942370,184 6.1705040,49.0941810,185 6.1704470,49.0941700,185 6.1703120,49.0941440,185 6.1699270,49.0940800,184 6.1697800,49.0940650,184 6.1686390,49.0939610,184 6.1686250,49.0940330,183 6.1686160,49.0941170,181 6.1686130,49.0941540,180 6.1686050,49.0942870,180 6.1685980,49.0944040,180 6.1679130,49.0943890,180 6.1676590,49.0943900,181 6.1672200,49.0943900,181 6.1670900,49.0943900,181 6.1668180,49.0943940,180 6.1661550,49.0944090,180 6.1655930,49.0944300,180 6.1655140,49.0944440,180 6.1652680,49.0945040,180 6.1649890,49.0945690,180 6.1647870,49.0946170,180 6.1642640,49.0947410,181 6.1639300,49.0947880,181 6.1637790,49.0948010,181 6.1636290,49.0948020,182 6.1634710,49.0947810,182 6.1633800,49.0947540,182 6.1632650,49.0947020,183 6.1631670,49.0946460,184 6.1630880,49.0945840,184 6.1627370,49.0942820,188 6.1627140,49.0942620,188 6.1626970,49.0942470,188 6.1626290,49.0941850,188 6.1625200,49.0942150,188 6.1624990,49.0942210,188 6.1624560,49.0942320,188 6.1609800,49.0946110,188 6.1591250,49.0951270,188 6.1590530,49.0951470,188 6.1586300,49.0952670,189 6.1585360,49.0952940,188 6.1584410,49.0953240,188 6.1582890,49.0951410,188 6.1582040,49.0951760,188 6.1578130,49.0953310,188 6.1572980,49.0955490,188 6.1566890,49.0949230,188 6.1565990,49.0948300,188 6.1561800,49.0944580,188 6.1557090,49.0940370,188 6.1553330,49.0942090,188 6.1550140,49.0939410,188 6.1547880,49.0940430,188 6.1545270,49.0941610,188 6.1548480,49.0944380,188 6.1541980,49.0947530,188 6.1535310,49.0950720,189 6.1538100,49.0953030,188 6.1540170,49.0954870,188 6.1542090,49.0956950,186 6.1542650,49.0957560,186 6.1542900,49.0957950,185 6.1543110,49.0958500,184 6.1543830,49.0963560,185 6.1544130,49.0964310,186 6.1545450,49.0965510,186 6.1546780,49.0966730,188 6.1547510,49.0967370,188 6.1547160,49.0967560,188 6.1546570,49.0967910,188 6.1545820,49.0968320,188 6.1538880,49.0972150,188 6.1536090,49.0973440,188 6.1532910,49.0974880,187 6.1531890,49.0975180,187 6.1526280,49.0977640,185 6.1526990,49.0978380,186 6.1528410,49.0979670,186 6.1534610,49.0985350,186 6.1535180,49.0985880,186 6.1535920,49.0986570,186 6.1539980,49.0990290,185 6.1547160,49.0996870,185 6.1547820,49.0997480,185 6.1548360,49.0997970,185 6.1549630,49.0999130,185 6.1549980,49.0999450,185 6.1550240,49.0999680,185 6.1547000,49.1000250,184 6.1540900,49.1001310,184 6.1539340,49.1001720,184 6.1537960,49.1001570,183 6.1534490,49.1000940,182 6.1533920,49.1000930,182 6.1533360,49.1001090,182 6.1532890,49.1001320,182 6.1532480,49.1001630,181 6.1531870,49.1002140,181 6.1531220,49.1002630,181 6.1530160,49.1003170,181 6.1529020,49.1002350,181 6.1528340,49.1002640,181 6.1529020,49.1002350,181 6.1530160,49.1003170,181 6.1531220,49.1002630,181 6.1531870,49.1002140,181 6.1532480,49.1001630,181 6.1532890,49.1001320,182 6.1533360,49.1001090,182 6.1533920,49.1000930,182 6.1534490,49.1000940,182 6.1537960,49.1001570,183 6.1539340,49.1001720,184 6.1540250,49.1002770,184 6.1543520,49.1005690,184 6.1544660,49.1006680,184 6.1545980,49.1007790,184 6.1546940,49.1008670,183 6.1547740,49.1009110,182 6.1551830,49.1012850,181 6.1552080,49.1013080,181 6.1552320,49.1013390,181 6.1552390,49.1013740,181 6.1551220,49.1013830,180 6.1551510,49.1014460,180 6.1551730,49.1014980,180 6.1552090,49.1015930,178 6.1553150,49.1018890,176 6.1553180,49.1020270,176 6.1552050,49.1025120,174 6.1550230,49.1027540,172 6.1550610,49.1027780,172 6.1551580,49.1028320,173 6.1555210,49.1030050,176 6.1555870,49.1030450,176 6.1556310,49.1030700,176 6.1557220,49.1031410,176 6.1558890,49.1032870,177 6.1560760,49.1034470,176 6.1561080,49.1034340,176 6.1561340,49.1034200,177 6.1561940,49.1034660,177 6.1562540,49.1034540,177 6.1563830,49.1034490,178 6.1564940,49.1034450,178 6.1566090,49.1034330,178 6.1566120,49.1033440,178 6.1566700,49.1032590,178 6.1567230,49.1031850,178 6.1566700,49.1032590,178 6.1566120,49.1033440,178 6.1566090,49.1034330,178 6.1564940,49.1034450,178 6.1563830,49.1034490,178 6.1562540,49.1034540,177 6.1561940,49.1034660,177 6.1561340,49.1034200,177 6.1561080,49.1034340,176 6.1560760,49.1034470,176 6.1564670,49.1038200,174 6.1566790,49.1040020,173 6.1568440,49.1041200,172 6.1571140,49.1042560,172 6.1572630,49.1043140,172 6.1573730,49.1043440,172 6.1579990,49.1046110,172 6.1581260,49.1046780,172 6.1582070,49.1047530,172 6.1586340,49.1051450,172 6.1586940,49.1052000,173 6.1587390,49.1052620,174 6.1590500,49.1054670,176 6.1590260,49.1054820,176 6.1589430,49.1055290,175 6.1583260,49.1058130,170 6.1585150,49.1059980,170 6.1581200,49.1061730,169 6.1582180,49.1062540,170 6.1582510,49.1062930,170 6.1582420,49.1063480,170 6.1582390,49.1064310,170 6.1582380,49.1064470,170 6.1582280,49.1064790,170 6.1579760,49.1064570,170 6.1575600,49.1064460,169 6.1575570,49.1064090,169 6.1575550,49.1063840,169 6.1575510,49.1063170,169 6.1575250,49.1062650,169 6.1574660,49.1062530,169 6.1574040,49.1062530,169 6.1567980,49.1062430,168 6.1564220,49.1062380,168 6.1563820,49.1061920,167 6.1563700,49.1061400,167 6.1563700,49.1060600,167 6.1563240,49.1059530,167 6.1562670,49.1058770,167 6.1561380,49.1056360,167 6.1561250,49.1055760,167 6.1559260,49.1055730,167 6.1558420,49.1055630,167 6.1557490,49.1055230,167 6.1556780,49.1054720,167 6.1557440,49.1054130,167 6.1557730,49.1053770,167 6.1558380,49.1053780,167 6.1557730,49.1053770,167 6.1557440,49.1054130,167 6.1556780,49.1054720,167 6.1557490,49.1055230,167 6.1558420,49.1055630,167 6.1559260,49.1055730,167 6.1561250,49.1055760,167 6.1561380,49.1056360,167 6.1562670,49.1058770,167 6.1563240,49.1059530,167 6.1563700,49.1060600,167 6.1563700,49.1061400,167 6.1563820,49.1061920,167 6.1564220,49.1062380,168 6.1567980,49.1062430,168 6.1574040,49.1062530,169 6.1574660,49.1062530,169 6.1575250,49.1062650,169 6.1575510,49.1063170,169 6.1575550,49.1063840,169 6.1575570,49.1064090,169 6.1575600,49.1064460,169 6.1579760,49.1064570,170 6.1582280,49.1064790,170 6.1582380,49.1064470,170 6.1582390,49.1064310,170 6.1582420,49.1063480,170 6.1582510,49.1062930,170 6.1582920,49.1062710,170 6.1584040,49.1062100,170 6.1589050,49.1059650,171 6.1590060,49.1059090,172 6.1590680,49.1059010,173 6.1593070,49.1058980,175 6.1593800,49.1058900,176 6.1594720,49.1058690,176 6.1595300,49.1058300,177 6.1595700,49.1058020,178 6.1596120,49.1057720,178 6.1597010,49.1057140,178 6.1597190,49.1057020,178 6.1597930,49.1056520,178 6.1600240,49.1054930,178 6.1601020,49.1054380,178 6.1604500,49.1051980,178 6.1606450,49.1050540,178 6.1606710,49.1050490,178 6.1607200,49.1050530,178 6.1607500,49.1050130,178 6.1607710,49.1049450,179 6.1607710,49.1048540,179 6.1608700,49.1047950,179 6.1608490,49.1047570,179 6.1607280,49.1046830,179 6.1606950,49.1047010,179 6.1606330,49.1047080,179 6.1606330,49.1047080,179 6.1606950,49.1047010,179 6.1607280,49.1046830,179 6.1608490,49.1047570,179 6.1608700,49.1047950,179 6.1607710,49.1048540,179 6.1607710,49.1049450,179 6.1607500,49.1050130,178 6.1607200,49.1050530,178 6.1606710,49.1050490,178 6.1606450,49.1050540,178 6.1604500,49.1051980,178 6.1601020,49.1054380,178 6.1600240,49.1054930,178 6.1597930,49.1056520,178 6.1597190,49.1057020,178 6.1597010,49.1057140,178 6.1596120,49.1057720,178 6.1595700,49.1058020,178 6.1600430,49.1060720,178 6.1603230,49.1061980,178 6.1607640,49.1064360,178 6.1612750,49.1066940,178 6.1613540,49.1067600,178 6.1616420,49.1069080,178 6.1616560,49.1069150,178 6.1624700,49.1073410,180 6.1625660,49.1073860,179 6.1626450,49.1074340,179 6.1628360,49.1075780,179 6.1629240,49.1076610,180 6.1633820,49.1081690,180 6.1634370,49.1082190,180 6.1635130,49.1082900,180 6.1635490,49.1083240,180 6.1637690,49.1085280,180 6.1639960,49.1087220,180 6.1644410,49.1090870,180 6.1647750,49.1093430,180 6.1648630,49.1094020,180 6.1649640,49.1094600,181 6.1653670,49.1096980,181 6.1656560,49.1098330,181 6.1658060,49.1098900,182 6.1658740,49.1099160,182 6.1661050,49.1099760,182 6.1663640,49.1100290,182 6.1666150,49.1100750,182 6.1668690,49.1101080,182 6.1670840,49.1101430,182 6.1672230,49.1101650,183 6.1673810,49.1102140,183 6.1673870,49.1102660,183 6.1673890,49.1102800,183 6.1675450,49.1103210,183 6.1677980,49.1103280,182 6.1693510,49.1104380,182 6.1705060,49.1105200,180 6.1706010,49.1105660,180 6.1706670,49.1105650,180 6.1707240,49.1105640,180 6.1707830,49.1105490,180 6.1708360,49.1105350,180 6.1713030,49.1105230,179 6.1718080,49.1105100,179 6.1718680,49.1105080,179 6.1719520,49.1104920,179 6.1720450,49.1104710,179 6.1723840,49.1104130,179 6.1727810,49.1103670,178 6.1730170,49.1103700,178 6.1732230,49.1103870,177 6.1737140,49.1104280,177 6.1738500,49.1104310,176 6.1739670,49.1104400,176 6.1741070,49.1104430,176 6.1742460,49.1104380,176 6.1744300,49.1104160,176 6.1745770,49.1103850,176 6.1746420,49.1103640,176 6.1747350,49.1103310,176 6.1748830,49.1103020,175 6.1759170,49.1100190,174 6.1759580,49.1100860,174 6.1759870,49.1101320,174 6.1759940,49.1101440,174 6.1760570,49.1101740,173 6.1761480,49.1101510,174 6.1762210,49.1101340,174 6.1763430,49.1101110,174 6.1766380,49.1102540,174 6.1766610,49.1102330,174 6.1767370,49.1101660,174 6.1767800,49.1101280,174 6.1769620,49.1100150,174 6.1770100,49.1099770,174 6.1770640,49.1099290,175 6.1770960,49.1099000,176 6.1771960,49.1098140,178 6.1773690,49.1096620,180 6.1774310,49.1096070,180 6.1774510,49.1095900,180 6.1776440,49.1094230,179 6.1777310,49.1093450,179 6.1778550,49.1092350,179 6.1779350,49.1091650,179 6.1781230,49.1090000,179 6.1785370,49.1086340,176 6.1785780,49.1085970,176 6.1789650,49.1086370,174 6.1790320,49.1086290,174 6.1792300,49.1086030,172 6.1794770,49.1085900,172 6.1795900,49.1084890,172 6.1799530,49.1086990,172 6.1800090,49.1087230,172 6.1800320,49.1087070,172 6.1800720,49.1086810,172 6.1801050,49.1086560,172 6.1801210,49.1086420,172 6.1801710,49.1085990,172 6.1801950,49.1085640,172 6.1803040,49.1083640,172 6.1804210,49.1081720,172 6.1804690,49.1081500,172 6.1805360,49.1080360,171 6.1806140,49.1080420,171 6.1807420,49.1080150,171 6.1809290,49.1077440,171 6.1811220,49.1078390,171 6.1809960,49.1080510,171 6.1808640,49.1082740,172 6.1810500,49.1084250,171</coordinates></LineString></Placemark>
</Document></kml>