<?xml version="1.0" encoding="UTF-8"?>
<gpx version="1.1" creator="olifant"
     xmlns="http://www.topografix.com/GPX/1/1"
     xmlns:xsi="http://www.w3.org/2001/XMLSchema-instance"
     xsi:schemaLocation="http://www.topografix.com/GPX/1/1 http://www.topografix.com/GPX/1/1/gpx.xsd">
  <metadata><name>Les remparts et la colline Sainte-Croix</name><desc>4.2 km. D+ 29 m. 16 % de chemins. La plus courte : le chemin des remparts depuis la Porte des Allemands, les terrasses du jardin des Tanneurs, Chambiere et l'ile. Une heure, et tout le vieux Metz.</desc></metadata>
  <wpt lat="49.1153870" lon="6.1768700"><name>Rue des Parmentiers, Metz</name><desc>Depart des deux boucles vers Borny, dans la Nouvelle Ville. A dix minutes a pied de la gare, dont il partage les commodites.</desc></wpt>
  <wpt lat="49.1178800" lon="6.1855680"><name>Porte des Allemands</name><desc>Chatelet fortifie du XIIIe siecle a cheval sur la Seille, et le depart du chemin des remparts.</desc></wpt>
  <wpt lat="49.1197080" lon="6.1811210"><name>Jardin des Tanneurs</name><desc>Jardin en terrasses sur le flanc de la colline Sainte-Croix.</desc></wpt>
  <wpt lat="49.1230520" lon="6.1765620"><name>Moulin des Thermes</name><desc>Bras de la Moselle a Chambiere, ancien moulin et lavoirs.</desc></wpt>
  <wpt lat="49.1231340" lon="6.1724500"><name>Abbaye Saint-Vincent</name><desc>Ancienne abbaye du quartier Chambiere, facade classique.</desc></wpt>
  <wpt lat="49.1197430" lon="6.1703820"><name>Temple Neuf et le Moyen Pont</name><desc>Pointe de l'ile du Petit-Saulcy, entre les deux bras de la Moselle ; la vue sur la cathedrale et le plan d'eau.</desc></wpt>
  <wpt lat="49.1159680" lon="6.1705190"><name>Jardin de l'Esplanade</name><desc>Terrasse au-dessus de la Moselle, vue sur le Mont Saint-Quentin.</desc></wpt>
  <trk><name>Les remparts et la colline Sainte-Croix</name><trkseg>
    <trkpt lat="49.1153870" lon="6.1768670"><ele>174.5</ele></trkpt>
    <trkpt lat="49.1155220" lon="6.1770330"><ele>175.0</ele></trkpt>
    <trkpt lat="49.1158090" lon="6.1772820"><ele>174.0</ele></trkpt>
    <trkpt lat="49.1160140" lon="6.1774070"><ele>174.0</ele></trkpt>
    <trkpt lat="49.1161750" lon="6.1775060"><ele>174.0</ele></trkpt>
    <trkpt lat="49.1163200" lon="6.1776130"><ele>174.0</ele></trkpt>
    <trkpt lat="49.1163770" lon="6.1776540"><ele>174.0</ele></trkpt>
    <trkpt lat="49.1164140" lon="6.1776850"><ele>173.8</ele></trkpt>
    <trkpt lat="49.1166880" lon="6.1779150"><ele>173.5</ele></trkpt>
    <trkpt lat="49.1168970" lon="6.1780910"><ele>173.0</ele></trkpt>
    <trkpt lat="49.1168450" lon="6.1782950"><ele>173.2</ele></trkpt>
    <trkpt lat="49.1167900" lon="6.1785530"><ele>172.2</ele></trkpt>
    <trkpt lat="49.1167550" lon="6.1787960"><ele>170.5</ele></trkpt>
    <trkpt lat="49.1167490" lon="6.1788320"><ele>170.2</ele></trkpt>
    <trkpt lat="49.1167480" lon="6.1788700"><ele>170.0</ele></trkpt>
    <trkpt lat="49.1167410" lon="6.1790470"><ele>170.0</ele></trkpt>
    <trkpt lat="49.1167390" lon="6.1791100"><ele>170.0</ele></trkpt>
    <trkpt lat="49.1167370" lon="6.1791540"><ele>169.8</ele></trkpt>
    <trkpt lat="49.1167260" lon="6.1794470"><ele>169.0</ele></trkpt>
    <trkpt lat="49.1167200" lon="6.1795940"><ele>169.0</ele></trkpt>
    <trkpt lat="49.1167240" lon="6.1798020"><ele>169.0</ele></trkpt>
    <trkpt lat="49.1167340" lon="6.1798660"><ele>169.0</ele></trkpt>
    <trkpt lat="49.1167810" lon="6.1799840"><ele>169.0</ele></trkpt>
    <trkpt lat="49.1168050" lon="6.1800200"><ele>169.0</ele></trkpt>
    <trkpt lat="49.1168190" lon="6.1800400"><ele>169.0</ele></trkpt>
    <trkpt lat="49.1168720" lon="6.1801100"><ele>169.0</ele></trkpt>
    <trkpt lat="49.1169210" lon="6.1801880"><ele>169.0</ele></trkpt>
    <trkpt lat="49.1169900" lon="6.1802980"><ele>169.0</ele></trkpt>
    <trkpt lat="49.1173670" lon="6.1809000"><ele>170.0</ele></trkpt>
    <trkpt lat="49.1174070" lon="6.1809630"><ele>170.0</ele></trkpt>
    <trkpt lat="49.1174330" lon="6.1810260"><ele>170.0</ele></trkpt>
    <trkpt lat="49.1174780" lon="6.1811380"><ele>170.0</ele></trkpt>
    <trkpt lat="49.1176870" lon="6.1816500"><ele>170.8</ele></trkpt>
    <trkpt lat="49.1177220" lon="6.1817350"><ele>171.0</ele></trkpt>
    <trkpt lat="49.1177620" lon="6.1817930"><ele>171.0</ele></trkpt>
    <trkpt lat="49.1177420" lon="6.1819420"><ele>171.0</ele></trkpt>
    <trkpt lat="49.1177000" lon="6.1823110"><ele>171.0</ele></trkpt>
    <trkpt lat="49.1176890" lon="6.1824910"><ele>171.0</ele></trkpt>
    <trkpt lat="49.1176860" lon="6.1826620"><ele>171.0</ele></trkpt>
    <trkpt lat="49.1177060" lon="6.1830180"><ele>171.2</ele></trkpt>
    <trkpt lat="49.1177080" lon="6.1830570"><ele>171.0</ele></trkpt>
    <trkpt lat="49.1177130" lon="6.1831370"><ele>171.0</ele></trkpt>
    <trkpt lat="49.1177160" lon="6.1832350"><ele>171.0</ele></trkpt>
    <trkpt lat="49.1177170" lon="6.1832730"><ele>171.0</ele></trkpt>
    <trkpt lat="49.1177430" lon="6.1839440"><ele>171.2</ele></trkpt>
    <trkpt lat="49.1177670" lon="6.1846580"><ele>172.0</ele></trkpt>
    <trkpt lat="49.1177720" lon="6.1848150"><ele>172.2</ele></trkpt>
    <trkpt lat="49.1177740" lon="6.1848590"><ele>172.2</ele></trkpt>
    <trkpt lat="49.1177740" lon="6.1848800"><ele>172.5</ele></trkpt>
    <trkpt lat="49.1177790" lon="6.1850040"><ele>172.8</ele></trkpt>
    <trkpt lat="49.1178300" lon="6.1849900"><ele>172.8</ele></trkpt>
    <trkpt lat="49.1178390" lon="6.1850720"><ele>172.8</ele></trkpt>
    <trkpt lat="49.1178090" lon="6.1850790"><ele>172.8</ele></trkpt>
    <trkpt lat="49.1178150" lon="6.1851240"><ele>172.8</ele></trkpt>
    <trkpt lat="49.1178230" lon="6.1851770"><ele>172.8</ele></trkpt>
    <trkpt lat="49.1177950" lon="6.1851900"><ele>172.8</ele></trkpt>
    <trkpt lat="49.1177970" lon="6.1852170"><ele>172.8</ele></trkpt>
    <trkpt lat="49.1178070" lon="6.1853590"><ele>172.8</ele></trkpt>
    <trkpt lat="49.1178220" lon="6.1854350"><ele>172.8</ele></trkpt>
    <trkpt lat="49.1178320" lon="6.1855250"><ele>172.8</ele></trkpt>
    <trkpt lat="49.1178300" lon="6.1855640"><ele>172.8</ele></trkpt>
    <trkpt lat="49.1178320" lon="6.1855250"><ele>172.8</ele></trkpt>
    <trkpt lat="49.1178220" lon="6.1854350"><ele>172.8</ele></trkpt>
    <trkpt lat="49.1178070" lon="6.1853590"><ele>172.8</ele></trkpt>
    <trkpt lat="49.1177970" lon="6.1852170"><ele>172.8</ele></trkpt>
    <trkpt lat="49.1177950" lon="6.1851900"><ele>172.8</ele></trkpt>
    <trkpt lat="49.1178230" lon="6.1851770"><ele>172.8</ele></trkpt>
    <trkpt lat="49.1178150" lon="6.1851240"><ele>172.8</ele></trkpt>
    <trkpt lat="49.1178090" lon="6.1850790"><ele>172.8</ele></trkpt>
    <trkpt lat="49.1178390" lon="6.1850720"><ele>172.8</ele></trkpt>
    <trkpt lat="49.1178300" lon="6.1849900"><ele>172.8</ele></trkpt>
    <trkpt lat="49.1177790" lon="6.1850040"><ele>172.8</ele></trkpt>
    <trkpt lat="49.1177740" lon="6.1848800"><ele>172.5</ele></trkpt>
    <trkpt lat="49.1177740" lon="6.1848590"><ele>172.2</ele></trkpt>
    <trkpt lat="49.1177720" lon="6.1848150"><ele>172.2</ele></trkpt>
    <trkpt lat="49.1177670" lon="6.1846580"><ele>172.0</ele></trkpt>
    <trkpt lat="49.1177430" lon="6.1839440"><ele>171.2</ele></trkpt>
    <trkpt lat="49.1177840" lon="6.1839430"><ele>171.0</ele></trkpt>
    <trkpt lat="49.1180380" lon="6.1838180"><ele>171.0</ele></trkpt>
    <trkpt lat="49.1180600" lon="6.1838050"><ele>170.8</ele></trkpt>
    <trkpt lat="49.1184100" lon="6.1835980"><ele>169.5</ele></trkpt>
    <trkpt lat="49.1186130" lon="6.1834790"><ele>168.8</ele></trkpt>
    <trkpt lat="49.1186450" lon="6.1834600"><ele>168.8</ele></trkpt>
    <trkpt lat="49.1186420" lon="6.1832510"><ele>168.5</ele></trkpt>
    <trkpt lat="49.1186580" lon="6.1829300"><ele>168.2</ele></trkpt>
    <trkpt lat="49.1186620" lon="6.1828390"><ele>168.2</ele></trkpt>
    <trkpt lat="49.1187240" lon="6.1826500"><ele>167.5</ele></trkpt>
    <trkpt lat="49.1189780" lon="6.1825240"><ele>166.0</ele></trkpt>
    <trkpt lat="49.1190310" lon="6.1824950"><ele>166.0</ele></trkpt>
    <trkpt lat="49.1190780" lon="6.1824660"><ele>166.0</ele></trkpt>
    <trkpt lat="49.1194270" lon="6.1822730"><ele>167.0</ele></trkpt>
    <trkpt lat="49.1194450" lon="6.1822620"><ele>167.0</ele></trkpt>
    <trkpt lat="49.1194990" lon="6.1822310"><ele>167.0</ele></trkpt>
    <trkpt lat="49.1195470" lon="6.1821990"><ele>167.2</ele></trkpt>
    <trkpt lat="49.1195770" lon="6.1821800"><ele>167.5</ele></trkpt>
    <trkpt lat="49.1195400" lon="6.1820710"><ele>167.8</ele></trkpt>
    <trkpt lat="49.1195230" lon="6.1820230"><ele>168.0</ele></trkpt>
    <trkpt lat="49.1196400" lon="6.1820140"><ele>168.2</ele></trkpt>
    <trkpt lat="49.1196310" lon="6.1819010"><ele>169.2</ele></trkpt>
    <trkpt lat="49.1197090" lon="6.1818070"><ele>171.8</ele></trkpt>
    <trkpt lat="49.1197780" lon="6.1817620"><ele>174.0</ele></trkpt>
    <trkpt lat="49.1198480" lon="6.1817210"><ele>176.0</ele></trkpt>
    <trkpt lat="49.1198890" lon="6.1816840"><ele>177.0</ele></trkpt>
    <trkpt lat="49.1199260" lon="6.1815980"><ele>178.5</ele></trkpt>
    <trkpt lat="49.1199430" lon="6.1815340"><ele>179.5</ele></trkpt>
    <trkpt lat="49.1199500" lon="6.1814780"><ele>180.0</ele></trkpt>
    <trkpt lat="49.1199460" lon="6.1814270"><ele>180.5</ele></trkpt>
    <trkpt lat="49.1199210" lon="6.1813300"><ele>181.5</ele></trkpt>
    <trkpt lat="49.1198910" lon="6.1812810"><ele>182.0</ele></trkpt>
    <trkpt lat="49.1199180" lon="6.1810860"><ele>185.5</ele></trkpt>
    <trkpt lat="49.1197260" lon="6.1810490"><ele>184.8</ele></trkpt>
    <trkpt lat="49.1197260" lon="6.1810490"><ele>184.8</ele></trkpt>
    <trkpt lat="49.1199180" lon="6.1810860"><ele>185.5</ele></trkpt>
    <trkpt lat="49.1200330" lon="6.1811190"><ele>185.8</ele></trkpt>
    <trkpt lat="49.1200960" lon="6.1811170"><ele>185.5</ele></trkpt>
    <trkpt lat="49.1204380" lon="6.1810370"><ele>184.5</ele></trkpt>
    <trkpt lat="49.1206520" lon="6.1809580"><ele>184.2</ele></trkpt>
    <trkpt lat="49.1207300" lon="6.1808960"><ele>185.0</ele></trkpt>
    <trkpt lat="49.1207690" lon="6.1808430"><ele>185.8</ele></trkpt>
    <trkpt lat="49.1207880" lon="6.1808710"><ele>185.2</ele></trkpt>
    <trkpt lat="49.1208680" lon="6.1810020"><ele>183.2</ele></trkpt>
    <trkpt lat="49.1208740" lon="6.1810120"><ele>183.2</ele></trkpt>
    <trkpt lat="49.1208870" lon="6.1810320"><ele>183.0</ele></trkpt>
    <trkpt lat="49.1211750" lon="6.1805720"><ele>184.8</ele></trkpt>
    <trkpt lat="49.1215330" lon="6.1799360"><ele>184.2</ele></trkpt>
    <trkpt lat="49.1215720" lon="6.1798650"><ele>184.0</ele></trkpt>
    <trkpt lat="49.1215970" lon="6.1798100"><ele>183.8</ele></trkpt>
    <trkpt lat="49.1217330" lon="6.1795310"><ele>182.2</ele></trkpt>
    <trkpt lat="49.1219380" lon="6.1792600"><ele>179.2</ele></trkpt>
    <trkpt lat="49.1219860" lon="6.1791880"><ele>178.8</ele></trkpt>
    <trkpt lat="49.1220380" lon="6.1791010"><ele>178.0</ele></trkpt>
    <trkpt lat="49.1220720" lon="6.1790330"><ele>177.5</ele></trkpt>
    <trkpt lat="49.1221130" lon="6.1789580"><ele>177.0</ele></trkpt>
    <trkpt lat="49.1221460" lon="6.1788690"><ele>176.2</ele></trkpt>
    <trkpt lat="49.1223810" lon="6.1782430"><ele>171.0</ele></trkpt>
    <trkpt lat="49.1224040" lon="6.1781820"><ele>170.5</ele></trkpt>
    <trkpt lat="49.1225230" lon="6.1782880"><ele>169.5</ele></trkpt>
    <trkpt lat="49.1225700" lon="6.1782020"><ele>168.8</ele></trkpt>
    <trkpt lat="49.1225850" lon="6.1781730"><ele>168.2</ele></trkpt>
    <trkpt lat="49.1225990" lon="6.1781550"><ele>168.0</ele></trkpt>
    <trkpt lat="49.1227340" lon="6.1783090"><ele>168.8</ele></trkpt>
    <trkpt lat="49.1229430" lon="6.1785030"><ele>166.2</ele></trkpt>
    <trkpt lat="49.1229670" lon="6.1784720"><ele>165.8</ele></trkpt>
    <trkpt lat="49.1233510" lon="6.1780680"><ele>166.0</ele></trkpt>
    <trkpt lat="49.1233840" lon="6.1780340"><ele>166.5</ele></trkpt>
    <trkpt lat="49.1235620" lon="6.1778470"><ele>168.2</ele></trkpt>
    <trkpt lat="49.1235330" lon="6.1777830"><ele>168.0</ele></trkpt>
    <trkpt lat="49.1235060" lon="6.1777280"><ele>167.8</ele></trkpt>
    <trkpt lat="49.1234760" lon="6.1776520"><ele>167.2</ele></trkpt>
    <trkpt lat="49.1234640" lon="6.1776250"><ele>167.0</ele></trkpt>
    <trkpt lat="49.1234300" lon="6.1775460"><ele>166.2</ele></trkpt>
    <trkpt lat="49.1234180" lon="6.1774600"><ele>166.0</ele></trkpt>
    <trkpt lat="49.1234050" lon="6.1772940"><ele>165.8</ele></trkpt>
    <trkpt lat="49.1233840" lon="6.1770590"><ele>165.8</ele></trkpt>
    <trkpt lat="49.1233860" lon="6.1769730"><ele>165.8</ele></trkpt>
    <trkpt lat="49.1233890" lon="6.1768840"><ele>166.0</ele></trkpt>
    <trkpt lat="49.1232820" lon="6.1769090"><ele>165.5</ele></trkpt>
    <trkpt lat="49.1232560" lon="6.1766660"><ele>165.2</ele></trkpt>
    <trkpt lat="49.1232820" lon="6.1769090"><ele>165.5</ele></trkpt>
    <trkpt lat="49.1233890" lon="6.1768840"><ele>166.0</ele></trkpt>
    <trkpt lat="49.1233980" lon="6.1768060"><ele>166.0</ele></trkpt>
    <trkpt lat="49.1235840" lon="6.1763050"><ele>167.0</ele></trkpt>
    <trkpt lat="49.1236100" lon="6.1762890"><ele>167.0</ele></trkpt>
    <trkpt lat="49.1235980" lon="6.1762280"><ele>167.0</ele></trkpt>
    <trkpt lat="49.1235880" lon="6.1760550"><ele>167.2</ele></trkpt>
    <trkpt lat="49.1235930" lon="6.1759670"><ele>168.0</ele></trkpt>
    <trkpt lat="49.1236340" lon="6.1758440"><ele>168.8</ele></trkpt>
    <trkpt lat="49.1236920" lon="6.1757520"><ele>168.8</ele></trkpt>
    <trkpt lat="49.1238610" lon="6.1755230"><ele>168.0</ele></trkpt>
    <trkpt lat="49.1238240" lon="6.1753750"><ele>168.5</ele></trkpt>
    <trkpt lat="49.1238190" lon="6.1753170"><ele>168.5</ele></trkpt>
    <trkpt lat="49.1236450" lon="6.1753720"><ele>168.2</ele></trkpt>
    <trkpt lat="49.1236400" lon="6.1753400"><ele>168.2</ele></trkpt>
    <trkpt lat="49.1236370" lon="6.1753240"><ele>168.0</ele></trkpt>
    <trkpt lat="49.1236140" lon="6.1753310"><ele>168.0</ele></trkpt>
    <trkpt lat="49.1236080" lon="6.1753000"><ele>168.0</ele></trkpt>
    <trkpt lat="49.1234700" lon="6.1746280"><ele>167.8</ele></trkpt>
    <trkpt lat="49.1234580" lon="6.1745750"><ele>167.5</ele></trkpt>
    <trkpt lat="49.1234340" lon="6.1744700"><ele>167.2</ele></trkpt>
    <trkpt lat="49.1233700" lon="6.1742540"><ele>167.0</ele></trkpt>
    <trkpt lat="49.1232870" lon="6.1740890"><ele>167.0</ele></trkpt>
    <trkpt lat="49.1232810" lon="6.1740630"><ele>167.0</ele></trkpt>
    <trkpt lat="49.1232830" lon="6.1740430"><ele>167.0</ele></trkpt>
    <trkpt lat="49.1236990" lon="6.1733600"><ele>168.0</ele></trkpt>
    <trkpt lat="49.1238630" lon="6.1731140"><ele>168.0</ele></trkpt>
    <trkpt lat="49.1239490" lon="6.1729410"><ele>167.8</ele></trkpt>
    <trkpt lat="49.1239510" lon="6.1728900"><ele>167.8</ele></trkpt>
    <trkpt lat="49.1236420" lon="6.1725340"><ele>168.0</ele></trkpt>
    <trkpt lat="49.1233890" lon="6.1722640"><ele>168.0</ele></trkpt>
    <trkpt lat="49.1233220" lon="6.1721780"><ele>168.0</ele></trkpt>
    <trkpt lat="49.1232560" lon="6.1721210"><ele>168.0</ele></trkpt>
    <trkpt lat="49.1232410" lon="6.1721070"><ele>168.0</ele></trkpt>
    <trkpt lat="49.1227820" lon="6.1718140"><ele>168.0</ele></trkpt>
    <trkpt lat="49.1226660" lon="6.1717850"><ele>168.0</ele></trkpt>
    <trkpt lat="49.1226100" lon="6.1717340"><ele>168.0</ele></trkpt>
    <trkpt lat="49.1225890" lon="6.1717230"><ele>168.0</ele></trkpt>
    <trkpt lat="49.1222140" lon="6.1713550"><ele>168.0</ele></trkpt>
    <trkpt lat="49.1221070" lon="6.1712420"><ele>168.0</ele></trkpt>
    <trkpt lat="49.1219280" lon="6.1710130"><ele>168.8</ele></trkpt>
    <trkpt lat="49.1218840" lon="6.1709690"><ele>168.5</ele></trkpt>
    <trkpt lat="49.1216520" lon="6.1706750"><ele>167.8</ele></trkpt>
    <trkpt lat="49.1215740" lon="6.1705800"><ele>167.8</ele></trkpt>
    <trkpt lat="49.1215610" lon="6.1705670"><ele>167.8</ele></trkpt>
    <trkpt lat="49.1215480" lon="6.1705690"><ele>167.8</ele></trkpt>
    <trkpt lat="49.1215290" lon="6.1705880"><ele>167.8</ele></trkpt>
    <trkpt lat="49.1215130" lon="6.1705610"><ele>167.8</ele></trkpt>
    <trkpt lat="49.1215030" lon="6.1705490"><ele>168.0</ele></trkpt>
    <trkpt lat="49.1213300" lon="6.1708320"><ele>167.0</ele></trkpt>
    <trkpt lat="49.1212700" lon="6.1707930"><ele>167.0</ele></trkpt>
    <trkpt lat="49.1212570" lon="6.1708310"><ele>167.0</ele></trkpt>
    <trkpt lat="49.1200330" lon="6.1700220"><ele>168.8</ele></trkpt>
    <trkpt lat="49.1200060" lon="6.1699880"><ele>169.0</ele></trkpt>
    <trkpt lat="49.1199820" lon="6.1700170"><ele>168.8</ele></trkpt>
    <trkpt lat="49.1199310" lon="6.1700790"><ele>168.8</ele></trkpt>
    <trkpt lat="49.1199050" lon="6.1701490"><ele>168.8</ele></trkpt>
    <trkpt lat="49.1198490" lon="6.1702460"><ele>169.0</ele></trkpt>
    <trkpt lat="49.1198160" lon="6.1702950"><ele>169.0</ele></trkpt>
    <trkpt lat="49.1197510" lon="6.1703950"><ele>168.0</ele></trkpt>
    <trkpt lat="49.1194160" lon="6.1709210"><ele>168.0</ele></trkpt>
    <trkpt lat="49.1193840" lon="6.1709920"><ele>169.5</ele></trkpt>
    <trkpt lat="49.1193900" lon="6.1710220"><ele>169.8</ele></trkpt>
    <trkpt lat="49.1193520" lon="6.1710740"><ele>170.8</ele></trkpt>
    <trkpt lat="49.1193190" lon="6.1711350"><ele>171.2</ele></trkpt>
    <trkpt lat="49.1192770" lon="6.1710840"><ele>171.2</ele></trkpt>
    <trkpt lat="49.1186500" lon="6.1701700"><ele>174.5</ele></trkpt>
    <trkpt lat="49.1182840" lon="6.1698700"><ele>175.5</ele></trkpt>
    <trkpt lat="49.1182570" lon="6.1698680"><ele>176.0</ele></trkpt>
    <trkpt lat="49.1182410" lon="6.1698790"><ele>176.2</ele></trkpt>
    <trkpt lat="49.1182140" lon="6.1699300"><ele>176.5</ele></trkpt>
    <trkpt lat="49.1181960" lon="6.1699080"><ele>176.8</ele></trkpt>
    <trkpt lat="49.1181600" lon="6.1698650"><ele>177.2</ele></trkpt>
    <trkpt lat="49.1181260" lon="6.1698220"><ele>177.8</ele></trkpt>
    <trkpt lat="49.1181440" lon="6.1697690"><ele>177.5</ele></trkpt>
    <trkpt lat="49.1181230" lon="6.1697350"><ele>178.0</ele></trkpt>
    <trkpt lat="49.1178250" lon="6.1693850"><ele>177.2</ele></trkpt>
    <trkpt lat="49.1177110" lon="6.1692620"><ele>177.5</ele></trkpt>
    <trkpt lat="49.1176820" lon="6.1692370"><ele>177.5</ele></trkpt>
    <trkpt lat="49.1174580" lon="6.1691300"><ele>178.5</ele></trkpt>
    <trkpt lat="49.1172730" lon="6.1690670"><ele>178.0</ele></trkpt>
    <trkpt lat="49.1172320" lon="6.1690450"><ele>178.0</ele></trkpt>
    <trkpt lat="49.1171900" lon="6.1690250"><ele>177.8</ele></trkpt>
    <trkpt lat="49.1171220" lon="6.1689920"><ele>177.2</ele></trkpt>
    <trkpt lat="49.1168860" lon="6.1694000"><ele>177.8</ele></trkpt>
    <trkpt lat="49.1168160" lon="6.1695190"><ele>179.2</ele></trkpt>
    <trkpt lat="49.1167820" lon="6.1695940"><ele>180.0</ele></trkpt>
    <trkpt lat="49.1167630" lon="6.1695730"><ele>180.2</ele></trkpt>
    <trkpt lat="49.1164970" lon="6.1701230"><ele>181.5</ele></trkpt>
    <trkpt lat="49.1162500" lon="6.1706320"><ele>181.5</ele></trkpt>
    <trkpt lat="49.1161620" lon="6.1705340"><ele>181.0</ele></trkpt>
    <trkpt lat="49.1161330" lon="6.1705010"><ele>181.0</ele></trkpt>
    <trkpt lat="49.1161050" lon="6.1705480"><ele>181.0</ele></trkpt>
    <trkpt lat="49.1160690" lon="6.1705790"><ele>181.0</ele></trkpt>
    <trkpt lat="49.1160280" lon="6.1705890"><ele>181.0</ele></trkpt>
    <trkpt lat="49.1159870" lon="6.1705780"><ele>181.0</ele></trkpt>
    <trkpt lat="49.1159550" lon="6.1705520"><ele>181.0</ele></trkpt>
    <trkpt lat="49.1159870" lon="6.1705780"><ele>181.0</ele></trkpt>
    <trkpt lat="49.1160280" lon="6.1705890"><ele>181.0</ele></trkpt>
    <trkpt lat="49.1160690" lon="6.1705790"><ele>181.0</ele></trkpt>
    <trkpt lat="49.1161050" lon="6.1705480"><ele>181.0</ele></trkpt>
    <trkpt lat="49.1161330" lon="6.1705010"><ele>181.0</ele></trkpt>
    <trkpt lat="49.1161620" lon="6.1705340"><ele>181.0</ele></trkpt>
    <trkpt lat="49.1162500" lon="6.1706320"><ele>181.5</ele></trkpt>
    <trkpt lat="49.1164880" lon="6.1708900"><ele>182.8</ele></trkpt>
    <trkpt lat="49.1166490" lon="6.1710660"><ele>183.8</ele></trkpt>
    <trkpt lat="49.1168310" lon="6.1711830"><ele>184.0</ele></trkpt>
    <trkpt lat="49.1168730" lon="6.1712460"><ele>184.0</ele></trkpt>
    <trkpt lat="49.1168550" lon="6.1713030"><ele>184.0</ele></trkpt>
    <trkpt lat="49.1168380" lon="6.1713610"><ele>184.0</ele></trkpt>
    <trkpt lat="49.1168540" lon="6.1713770"><ele>184.0</ele></trkpt>
    <trkpt lat="49.1166550" lon="6.1718220"><ele>182.2</ele></trkpt>
    <trkpt lat="49.1163850" lon="6.1724170"><ele>180.2</ele></trkpt>
    <trkpt lat="49.1162270" lon="6.1727720"><ele>179.0</ele></trkpt>
    <trkpt lat="49.1161960" lon="6.1728450"><ele>179.0</ele></trkpt>
    <trkpt lat="49.1160400" lon="6.1731540"><ele>178.2</ele></trkpt>
    <trkpt lat="49.1157030" lon="6.1738750"><ele>177.0</ele></trkpt>
    <trkpt lat="49.1156050" lon="6.1740510"><ele>177.0</ele></trkpt>
    <trkpt lat="49.1155540" lon="6.1740090"><ele>177.0</ele></trkpt>
    <trkpt lat="49.1155380" lon="6.1740250"><ele>177.0</ele></trkpt>
    <trkpt lat="49.1154990" lon="6.1740920"><ele>177.0</ele></trkpt>
    <trkpt lat="49.1154570" lon="6.1741900"><ele>176.8</ele></trkpt>
    <trkpt lat="49.1153320" lon="6.1745290"><ele>175.8</ele></trkpt>
    <trkpt lat="49.1151860" lon="6.1748990"><ele>175.0</ele></trkpt>
    <trkpt lat="49.1151570" lon="6.1750010"><ele>175.0</ele></trkpt>
    <trkpt lat="49.1150830" lon="6.1752220"><ele>175.0</ele></trkpt>
    <trkpt lat="49.1150280" lon="6.1753530"><ele>174.8</ele></trkpt>
    <trkpt lat="49.1148970" lon="6.1756540"><ele>174.0</ele></trkpt>
    <trkpt lat="49.1148400" lon="6.1757900"><ele>174.0</ele></trkpt>
    <trkpt lat="49.1148100" lon="6.1758600"><ele>174.0</ele></trkpt>
    <trkpt lat="49.1147900" lon="6.1759210"><ele>174.0</ele></trkpt>
    <trkpt lat="49.1149200" lon="6.1761630"><ele>174.0</ele></trkpt>
    <trkpt lat="49.1149300" lon="6.1761790"><ele>174.0</ele></trkpt>
    <trkpt lat="49.1150400" lon="6.1763740"><ele>174.0</ele></trkpt>
    <trkpt lat="49.1151930" lon="6.1766270"><ele>174.0</ele></trkpt>
    <trkpt lat="49.1153870" lon="6.1768670"><ele>175.0</ele></trkpt>
  </trkseg></trk>
</gpx>