<?xml version="1.0" encoding="UTF-8"?>
<kml xmlns="http://www.opengis.net/kml/2.2"><Document>
  <name>Les hauts de Saint-Julien et le bois de Grimont</name><description>13.4 km. D+ 193 m. 41 % de chemins. La seule boucle a pied qui monte vraiment : on grimpe la cote de Saint-Julien par le parc Marie et Mathias, on longe le fort, on traverse le bois de Grimont, et on redescend par Saint-Julien et le parc Marthe Cohn. Le premier kilometre et demi, jusqu'a Bellecroix, se fait a l'aller et au retour.</description>
  <Style id="depart"><IconStyle><scale>1.2</scale><Icon><href>http://maps.google.com/mapfiles/kml/paddle/grn-circle.png</href></Icon></IconStyle></Style>
  <Style id="etape"><IconStyle><Icon><href>http://maps.google.com/mapfiles/kml/paddle/wht-blank.png</href></Icon></IconStyle></Style>
    <Placemark><name>Depart : Centre Pompidou-Metz, parvis</name><description>Point de rendez-vous, sur le parvis des Droits de l'Homme, a deux pas de la gare.</description><styleUrl>#depart</styleUrl><Point><coordinates>6.1811000,49.1084000,0</coordinates></Point></Placemark>
    <Placemark><name>1. Parc Marie et Mathias</name><description>Au pied de la cote de Saint-Julien.</description><styleUrl>#etape</styleUrl><Point><coordinates>6.1960500,49.1303700,0</coordinates></Point></Placemark>
    <Placemark><name>2. Fort de Saint-Julien, lisiere</name><description>Le chemin qui longe le fort par le nord. Le point est pose sur le chemin plutot que dans le fort : y entrer obligeait a revenir sur ses pas.</description><styleUrl>#etape</styleUrl><Point><coordinates>6.2072000,49.1415000,0</coordinates></Point></Placemark>
    <Placemark><name>3. Bois de Grimont</name><description>Bois de coteau au nord-est, vue sur la vallee de la Moselle.</description><styleUrl>#etape</styleUrl><Point><coordinates>6.2190990,49.1434240,0</coordinates></Point></Placemark>
    <Placemark><name>4. Espace naturel pedagogique, Saint-Julien</name><description></description><styleUrl>#etape</styleUrl><Point><coordinates>6.2150700,49.1315900,0</coordinates></Point></Placemark>
    <Placemark><name>5. Parc Marthe Cohn</name><description></description><styleUrl>#etape</styleUrl><Point><coordinates>6.2089100,49.1234900,0</coordinates></Point></Placemark>
    <Style id="t1"><LineStyle><color>ff8C3B2E</color><width>4</width></LineStyle></Style>
    <Placemark><name>Les hauts de Saint-Julien et le bois de Grimont</name><description>13.4 km. D+ 193 m. 41 % de chemins. La seule boucle a pied qui monte vraiment : on grimpe la cote de Saint-Julien par le parc Marie et Mathias, on longe le fort, on traverse le bois de Grimont, et on redescend par Saint-Julien et le parc Marthe Cohn. Le premier kilometre et demi, jusqu'a Bellecroix, se fait a l'aller et au retour.</description><styleUrl>#t1</styleUrl><LineString><tessellate>1</tessellate><coordinates>6.1810500,49.1084250,171 6.1813220,49.1086460,171 6.1816010,49.1086180,171 6.1816710,49.1086350,171 6.1816860,49.1086090,171 6.1820400,49.1085720,171 6.1822080,49.1086180,171 6.1821970,49.1086390,171 6.1820310,49.1086500,171 6.1820870,49.1090870,171 6.1820930,49.1091350,171 6.1819270,49.1092350,171 6.1818520,49.1093260,171 6.1817440,49.1094700,171 6.1816630,49.1095210,171 6.1816320,49.1095410,172 6.1822080,49.1099150,172 6.1822780,49.1099880,173 6.1824260,49.1100840,175 6.1827060,49.1102360,172 6.1829010,49.1103120,172 6.1829820,49.1103420,172 6.1830580,49.1103790,172 6.1831580,49.1104310,172 6.1832520,49.1104870,172 6.1832290,49.1105420,172 6.1832080,49.1106050,172 6.1841510,49.1112260,172 6.1849490,49.1117690,171 6.1852140,49.1119490,171 6.1852850,49.1119970,171 6.1853700,49.1120500,169 6.1853880,49.1121020,168 6.1853950,49.1121200,168 6.1853910,49.1122000,168 6.1853170,49.1127050,170 6.1853030,49.1128700,170 6.1853180,49.1129060,170 6.1853460,49.1129400,169 6.1857050,49.1131960,168 6.1857430,49.1132240,169 6.1858300,49.1132630,170 6.1860810,49.1133510,171 6.1862370,49.1134060,171 6.1862840,49.1134200,171 6.1863560,49.1134430,171 6.1864460,49.1134680,171 6.1866980,49.1136350,171 6.1869630,49.1138120,171 6.1872260,49.1139870,173 6.1873780,49.1140880,172 6.1874970,49.1141540,172 6.1877360,49.1142840,172 6.1877680,49.1142910,172 6.1881520,49.1142900,173 6.1883300,49.1143160,172 6.1885620,49.1143560,173 6.1885080,49.1144760,172 6.1884250,49.1146630,173 6.1883800,49.1147560,174 6.1883630,49.1147970,174 6.1887660,49.1148830,175 6.1889310,49.1148990,175 6.1891440,49.1149090,174 6.1893380,49.1149100,174 6.1894990,49.1149020,174 6.1897010,49.1148950,175 6.1898830,49.1151460,176 6.1901800,49.1155550,176 6.1901720,49.1156150,176 6.1902230,49.1156540,175 6.1903430,49.1157190,175 6.1904670,49.1157650,175 6.1906250,49.1157890,175 6.1907060,49.1157980,175 6.1907120,49.1158350,175 6.1907210,49.1158880,177 6.1914470,49.1158140,176 6.1921670,49.1157890,180 6.1928990,49.1157710,182 6.1933300,49.1159690,185 6.1935080,49.1160570,187 6.1935770,49.1160740,187 6.1938090,49.1161870,188 6.1941350,49.1163520,190 6.1944390,49.1165330,190 6.1946760,49.1166880,191 6.1946310,49.1167320,191 6.1945640,49.1168220,192 6.1944320,49.1172560,192 6.1944170,49.1173280,192 6.1942490,49.1179830,195 6.1942480,49.1180540,195 6.1942480,49.1181150,195 6.1944440,49.1184870,196 6.1949500,49.1193450,198 6.1949780,49.1194250,198 6.1949790,49.1194630,198 6.1949800,49.1195230,198 6.1949450,49.1197680,199 6.1949410,49.1198000,199 6.1949270,49.1198720,199 6.1949200,49.1199110,199 6.1949040,49.1199900,199 6.1948900,49.1200790,199 6.1948000,49.1206540,201 6.1947520,49.1210480,203 6.1947120,49.1212670,203 6.1946990,49.1213380,203 6.1946720,49.1215050,203 6.1946570,49.1215990,203 6.1946430,49.1216870,203 6.1946310,49.1217570,203 6.1947140,49.1217640,203 6.1948740,49.1217750,203 6.1951430,49.1217940,204 6.1951270,49.1218790,204 6.1949280,49.1229950,205 6.1949840,49.1229990,206 6.1950540,49.1230620,206 6.1955900,49.1234370,205 6.1957320,49.1235060,206 6.1958570,49.1235300,206 6.1959530,49.1235020,206 6.1960580,49.1234860,206 6.1961720,49.1234750,206 6.1962950,49.1234790,206 6.1964410,49.1235070,206 6.1966770,49.1235980,205 6.1967240,49.1235950,204 6.1968470,49.1235110,204 6.1970630,49.1235100,202 6.1969990,49.1236270,202 6.1966630,49.1239780,197 6.1965180,49.1241630,196 6.1962720,49.1243930,193 6.1960160,49.1246960,189 6.1957910,49.1249270,188 6.1955910,49.1251230,187 6.1953100,49.1253570,186 6.1950580,49.1255380,186 6.1949740,49.1256880,184 6.1948480,49.1258870,180 6.1946690,49.1260930,178 6.1944320,49.1262720,176 6.1937640,49.1265460,174 6.1934830,49.1267090,172 6.1933600,49.1268250,170 6.1933200,49.1269190,169 6.1932130,49.1269900,168 6.1932870,49.1270020,168 6.1935840,49.1270280,168 6.1937830,49.1271760,168 6.1942680,49.1275350,168 6.1945550,49.1277480,166 6.1945990,49.1277810,166 6.1946230,49.1277980,166 6.1948410,49.1279600,166 6.1949230,49.1280210,167 6.1950070,49.1280830,167 6.1949470,49.1281200,167 6.1949250,49.1281390,166 6.1948610,49.1281860,166 6.1947220,49.1283170,166 6.1946590,49.1284130,165 6.1946120,49.1285030,165 6.1946010,49.1286060,164 6.1946720,49.1290190,164 6.1946980,49.1292500,164 6.1947330,49.1294160,165 6.1947470,49.1295670,165 6.1948770,49.1295700,166 6.1951020,49.1296060,166 6.1951090,49.1296360,165 6.1953180,49.1298620,164 6.1953590,49.1299180,164 6.1954050,49.1299540,164 6.1955400,49.1300340,164 6.1956390,49.1301150,164 6.1957790,49.1301890,164 6.1958550,49.1302630,164 6.1958980,49.1303290,164 6.1960420,49.1302710,164 6.1960990,49.1303410,164 6.1960420,49.1302710,164 6.1958980,49.1303290,164 6.1959520,49.1303870,164 6.1960020,49.1304470,164 6.1960350,49.1305040,164 6.1960920,49.1305730,164 6.1961120,49.1306650,164 6.1961340,49.1307180,164 6.1961620,49.1307710,164 6.1962270,49.1308580,164 6.1961420,49.1308870,164 6.1959480,49.1309550,164 6.1957660,49.1310180,164 6.1959140,49.1311590,164 6.1959710,49.1312130,164 6.1959470,49.1313500,164 6.1959620,49.1314040,164 6.1960230,49.1314890,164 6.1961770,49.1316010,164 6.1963240,49.1317120,164 6.1964620,49.1318080,164 6.1966210,49.1319200,164 6.1967610,49.1320180,164 6.1969180,49.1321320,164 6.1970820,49.1322450,164 6.1972090,49.1323320,164 6.1973610,49.1324390,164 6.1974640,49.1325030,165 6.1975600,49.1325930,164 6.1976210,49.1325870,165 6.1976750,49.1325720,165 6.1977210,49.1325730,165 6.1977830,49.1325940,165 6.1978860,49.1326680,165 6.1979240,49.1327440,166 6.1980020,49.1328830,166 6.1980510,49.1329750,165 6.1981540,49.1329500,165 6.1983390,49.1333030,165 6.1985310,49.1336850,165 6.1985800,49.1336890,165 6.1986240,49.1337080,165 6.1986960,49.1337240,165 6.1988000,49.1337370,165 6.1988990,49.1337530,165 6.1989900,49.1337680,165 6.1991450,49.1338250,165 6.1992440,49.1338790,165 6.1993420,49.1339630,165 6.1993650,49.1339970,165 6.1994130,49.1340870,165 6.1994460,49.1342000,165 6.1994660,49.1343340,165 6.1994910,49.1343700,165 6.1995490,49.1344230,165 6.1996450,49.1344770,165 6.1997260,49.1345000,165 6.1998400,49.1345140,165 6.1999670,49.1345190,165 6.2003460,49.1344880,166 6.2003910,49.1344860,167 6.2003600,49.1346870,166 6.2006680,49.1347270,168 6.2009430,49.1347240,173 6.2012580,49.1347920,180 6.2013430,49.1348260,181 6.2016270,49.1349990,184 6.2020050,49.1353190,192 6.2029830,49.1350940,197 6.2029770,49.1350780,197 6.2029710,49.1350630,197 6.2038790,49.1348280,195 6.2041070,49.1352480,196 6.2041870,49.1353740,197 6.2042760,49.1354810,198 6.2043760,49.1355730,198 6.2045090,49.1356770,199 6.2056090,49.1364640,204 6.2049110,49.1367540,208 6.2041120,49.1370410,210 6.2042550,49.1373340,212 6.2043840,49.1373750,213 6.2046040,49.1375800,216 6.2047920,49.1377610,217 6.2051720,49.1383460,226 6.2052510,49.1384510,227 6.2053610,49.1386530,230 6.2053010,49.1386780,230 6.2056030,49.1392630,235 6.2060330,49.1398260,242 6.2061560,49.1399810,242 6.2064050,49.1402870,244 6.2067290,49.1406480,245 6.2069400,49.1408700,247 6.2073130,49.1413190,248 6.2073350,49.1413840,248 6.2072380,49.1415460,246 6.2071800,49.1415310,246 6.2072380,49.1415460,246 6.2072270,49.1415820,246 6.2072280,49.1416100,245 6.2073110,49.1416350,246 6.2073360,49.1416610,245 6.2073160,49.1417170,245 6.2072350,49.1417810,244 6.2071680,49.1418100,243 6.2071290,49.1418270,242 6.2073090,49.1419800,242 6.2080110,49.1426900,241 6.2082790,49.1430130,239 6.2085570,49.1434270,237 6.2090570,49.1442360,235 6.2099800,49.1457440,233 6.2117750,49.1451660,218 6.2121350,49.1450430,218 6.2136160,49.1442610,228 6.2144310,49.1438540,236 6.2146670,49.1436640,238 6.2147960,49.1434260,242 6.2149460,49.1432360,244 6.2151390,49.1431170,246 6.2153900,49.1430400,248 6.2159010,49.1429480,250 6.2166960,49.1428400,253 6.2172170,49.1427460,255 6.2177100,49.1427040,257 6.2178620,49.1428170,256 6.2181810,49.1429990,255 6.2184230,49.1431760,254 6.2185790,49.1432820,253 6.2187200,49.1433460,253 6.2188750,49.1434060,253 6.2189850,49.1434230,253 6.2190990,49.1434240,253 6.2189850,49.1434230,253 6.2188750,49.1434060,253 6.2187200,49.1433460,253 6.2185790,49.1432820,253 6.2184230,49.1431760,254 6.2181810,49.1429990,255 6.2178620,49.1428170,256 6.2177100,49.1427040,257 6.2175320,49.1426050,257 6.2161520,49.1416990,262 6.2161130,49.1416740,262 6.2163100,49.1415120,262 6.2171210,49.1408270,262 6.2172970,49.1406860,262 6.2172600,49.1405770,262 6.2171120,49.1400420,260 6.2168470,49.1390810,255 6.2171160,49.1382290,250 6.2172040,49.1378920,249 6.2172620,49.1378370,249 6.2173060,49.1377940,249 6.2172240,49.1377580,249 6.2172550,49.1377280,249 6.2177850,49.1372180,247 6.2176570,49.1370520,246 6.2170420,49.1366720,244 6.2168990,49.1365930,244 6.2168170,49.1365280,244 6.2165240,49.1363610,243 6.2164700,49.1363360,243 6.2151570,49.1356520,241 6.2154610,49.1353960,241 6.2154690,49.1353590,241 6.2154520,49.1353210,241 6.2146440,49.1348610,240 6.2146110,49.1348410,240 6.2145550,49.1348070,240 6.2146100,49.1347850,240 6.2147330,49.1347170,240 6.2148320,49.1346530,240 6.2151130,49.1344550,240 6.2150490,49.1344140,240 6.2150270,49.1343990,240 6.2140200,49.1337860,240 6.2139860,49.1337560,240 6.2139800,49.1337240,240 6.2139880,49.1336910,240 6.2140140,49.1336630,240 6.2143380,49.1334340,240 6.2144690,49.1333420,240 6.2145200,49.1333070,240 6.2146230,49.1333080,240 6.2146630,49.1333300,241 6.2148850,49.1331690,241 6.2148420,49.1326450,241 6.2145190,49.1324170,242 6.2145870,49.1323450,241 6.2148220,49.1321720,241 6.2149330,49.1322510,241 6.2150670,49.1321640,240 6.2152240,49.1320490,240 6.2150170,49.1319230,240 6.2149180,49.1318620,240 6.2150460,49.1317700,239 6.2151220,49.1317170,239 6.2152690,49.1317390,239 6.2154920,49.1315600,238 6.2155210,49.1314440,237 6.2156710,49.1313060,236 6.2160700,49.1309150,232 6.2162150,49.1307290,231 6.2159400,49.1306710,232 6.2156660,49.1306120,233 6.2152980,49.1304240,233 6.2149480,49.1302610,233 6.2145650,49.1301050,233 6.2142040,49.1299730,233 6.2142220,49.1299360,232 6.2142970,49.1298640,232 6.2144070,49.1297800,231 6.2144760,49.1297220,231 6.2145300,49.1296550,230 6.2145780,49.1295630,229 6.2146120,49.1294750,228 6.2146740,49.1293960,228 6.2147200,49.1293280,228 6.2148770,49.1290990,226 6.2150840,49.1288450,224 6.2152150,49.1287720,223 6.2155910,49.1285170,219 6.2156350,49.1284570,219 6.2154660,49.1283970,219 6.2148620,49.1281880,219 6.2140660,49.1279490,218 6.2135990,49.1278240,218 6.2131220,49.1277120,218 6.2125420,49.1275860,220 6.2122310,49.1275240,219 6.2121690,49.1274850,219 6.2122190,49.1274570,218 6.2122620,49.1274220,218 6.2123850,49.1270380,214 6.2124020,49.1269590,214 6.2123890,49.1268390,212 6.2123600,49.1267360,211 6.2123190,49.1266770,211 6.2121670,49.1265310,210 6.2120180,49.1264580,210 6.2119140,49.1263980,209 6.2120280,49.1263300,208 6.2124220,49.1254980,191 6.2121280,49.1254390,190 6.2119070,49.1254160,190 6.2119180,49.1253950,190 6.2119420,49.1253870,189 6.2120540,49.1253890,189 6.2120620,49.1253730,189 6.2120540,49.1253430,188 6.2120190,49.1252720,187 6.2119730,49.1252100,186 6.2119250,49.1251600,185 6.2117960,49.1250850,184 6.2117510,49.1250430,184 6.2116980,49.1249520,182 6.2116820,49.1248840,181 6.2116820,49.1248250,180 6.2116650,49.1247660,180 6.2115800,49.1246580,178 6.2115350,49.1245640,177 6.2115150,49.1245390,176 6.2112850,49.1242480,172 6.2110320,49.1242390,172 6.2110380,49.1241500,171 6.2109860,49.1241370,171 6.2107610,49.1240410,170 6.2107430,49.1240280,170 6.2106760,49.1240020,170 6.2106130,49.1239570,170 6.2104510,49.1237780,169 6.2104100,49.1237440,169 6.2102950,49.1236040,169 6.2101120,49.1234820,169 6.2100640,49.1234290,170 6.2100360,49.1233870,170 6.2099070,49.1232820,169 6.2098560,49.1232420,169 6.2097760,49.1232020,169 6.2095990,49.1231860,169 6.2094840,49.1231910,169 6.2094270,49.1232000,169 6.2093090,49.1232430,168 6.2092170,49.1232410,168 6.2090200,49.1231800,169 6.2088930,49.1231600,169 6.2087830,49.1231990,169 6.2086090,49.1232260,168 6.2083600,49.1232970,169 6.2081010,49.1233490,169 6.2077530,49.1234070,170 6.2075450,49.1234350,169 6.2074900,49.1234300,169 6.2073700,49.1235000,168 6.2073010,49.1235240,168 6.2071840,49.1235540,168 6.2066880,49.1236550,170 6.2066280,49.1236360,170 6.2066000,49.1236160,170 6.2061540,49.1237290,168 6.2060410,49.1234890,169 6.2059180,49.1232290,170 6.2059040,49.1232000,170 6.2058960,49.1231840,170 6.2058540,49.1230940,170 6.2056580,49.1231260,170 6.2055890,49.1231370,170 6.2052780,49.1232010,170 6.2049730,49.1232730,170 6.2047520,49.1229290,174 6.2046520,49.1227240,177 6.2045310,49.1225010,182 6.2043530,49.1222690,188 6.2042700,49.1221300,190 6.2040580,49.1217990,200 6.2039680,49.1217800,200 6.2039250,49.1218110,200 6.2038280,49.1218390,200 6.2034240,49.1218500,203 6.2032920,49.1218450,203 6.2033450,49.1217420,204 6.2033640,49.1216260,205 6.2033570,49.1213460,207 6.2033450,49.1209070,208 6.2033430,49.1208900,209 6.2033420,49.1208520,209 6.2036120,49.1207900,209 6.2035970,49.1207560,209 6.2035500,49.1206810,209 6.2032710,49.1203260,209 6.2032160,49.1203230,209 6.2031520,49.1203090,209 6.2030710,49.1202830,209 6.2025760,49.1201610,208 6.2024460,49.1201550,208 6.2021000,49.1200410,208 6.2020430,49.1200150,208 6.2019750,49.1199830,208 6.2019470,49.1199620,208 6.2019200,49.1199410,208 6.2016280,49.1197970,207 6.2014480,49.1197270,207 6.2010610,49.1195930,206 6.2007200,49.1194780,206 6.2005630,49.1194400,205 6.2004720,49.1194220,205 6.2001950,49.1193730,206 6.2000520,49.1193550,206 6.1998260,49.1193270,206 6.1997190,49.1193130,206 6.1993960,49.1193010,205 6.1992170,49.1192950,205 6.1981280,49.1192190,204 6.1980370,49.1191890,204 6.1978060,49.1191780,202 6.1977110,49.1192210,202 6.1976550,49.1192170,202 6.1971440,49.1191820,201 6.1971540,49.1191260,201 6.1971750,49.1190130,201 6.1972080,49.1188390,201 6.1972640,49.1185390,200 6.1972080,49.1185350,200 6.1972430,49.1183140,199 6.1971230,49.1182760,198 6.1969680,49.1182480,198 6.1968450,49.1182600,198 6.1966880,49.1183040,198 6.1966350,49.1183000,198 6.1965470,49.1182820,198 6.1964640,49.1182670,198 6.1964760,49.1181770,198 6.1964580,49.1180860,198 6.1964650,49.1180290,198 6.1964870,49.1179950,198 6.1965570,49.1179290,197 6.1965790,49.1178960,197 6.1965960,49.1178240,197 6.1966060,49.1177270,196 6.1966300,49.1176190,196 6.1966860,49.1174350,196 6.1967280,49.1173370,196 6.1967130,49.1172780,195 6.1966880,49.1172640,195 6.1966990,49.1171830,195 6.1959330,49.1171430,194 6.1958460,49.1171390,194 6.1956840,49.1171110,193 6.1955630,49.1170610,193 6.1954780,49.1169850,192 6.1953420,49.1167710,192 6.1952530,49.1167850,191 6.1951430,49.1167960,192 6.1950190,49.1167870,192 6.1948190,49.1167470,191 6.1946760,49.1166880,191 6.1944390,49.1165330,190 6.1941350,49.1163520,190 6.1938090,49.1161870,188 6.1935770,49.1160740,187 6.1935080,49.1160570,187 6.1933300,49.1159690,185 6.1928990,49.1157710,182 6.1921670,49.1157890,180 6.1914470,49.1158140,176 6.1907210,49.1158880,177 6.1907120,49.1158350,175 6.1907060,49.1157980,175 6.1906250,49.1157890,175 6.1904670,49.1157650,175 6.1903430,49.1157190,175 6.1902230,49.1156540,175 6.1901720,49.1156150,176 6.1901800,49.1155550,176 6.1898830,49.1151460,176 6.1897010,49.1148950,175 6.1894990,49.1149020,174 6.1893380,49.1149100,174 6.1891440,49.1149090,174 6.1889310,49.1148990,175 6.1887660,49.1148830,175 6.1883630,49.1147970,174 6.1883800,49.1147560,174 6.1884250,49.1146630,173 6.1885080,49.1144760,172 6.1885620,49.1143560,173 6.1883300,49.1143160,172 6.1881520,49.1142900,173 6.1877680,49.1142910,172 6.1877360,49.1142840,172 6.1874970,49.1141540,172 6.1873780,49.1140880,172 6.1872260,49.1139870,173 6.1869630,49.1138120,171 6.1866980,49.1136350,171 6.1864460,49.1134680,171 6.1863560,49.1134430,171 6.1862840,49.1134200,171 6.1862370,49.1134060,171 6.1860810,49.1133510,171 6.1858300,49.1132630,170 6.1857430,49.1132240,169 6.1857050,49.1131960,168 6.1853460,49.1129400,169 6.1853180,49.1129060,170 6.1853030,49.1128700,170 6.1853170,49.1127050,170 6.1853910,49.1122000,168 6.1853950,49.1121200,168 6.1853880,49.1121020,168 6.1853700,49.1120500,169 6.1852850,49.1119970,171 6.1852140,49.1119490,171 6.1849490,49.1117690,171 6.1841510,49.1112260,172 6.1832080,49.1106050,172 6.1832290,49.1105420,172 6.1832520,49.1104870,172 6.1831580,49.1104310,172 6.1830580,49.1103790,172 6.1829820,49.1103420,172 6.1829010,49.1103120,172 6.1827060,49.1102360,172 6.1824260,49.1100840,175 6.1822780,49.1099880,173 6.1822080,49.1099150,172 6.1816320,49.1095410,172 6.1816630,49.1095210,171 6.1817440,49.1094700,171 6.1818520,49.1093260,171 6.1819270,49.1092350,171 6.1820930,49.1091350,171 6.1820870,49.1090870,171 6.1820310,49.1086500,171 6.1821970,49.1086390,171 6.1822080,49.1086180,171 6.1820400,49.1085720,171 6.1816860,49.1086090,171 6.1816710,49.1086350,171 6.1816010,49.1086180,171 6.1813220,49.1086460,171 6.1810500,49.1084250,172</coordinates></LineString></Placemark>
</Document></kml>