<?xml version="1.0" encoding="UTF-8"?>
<gpx version="1.1" creator="olifant"
     xmlns="http://www.topografix.com/GPX/1/1"
     xmlns:xsi="http://www.w3.org/2001/XMLSchema-instance"
     xsi:schemaLocation="http://www.topografix.com/GPX/1/1 http://www.topografix.com/GPX/1/1/gpx.xsd">
  <metadata><name>Saint-Julien et Grimont, depuis la rue des Parmentiers</name><desc>12.3 km. D+ 164 m. 27 % de chemins. La meme boucle prise de chez soi : un kilometre de moins, et plus rien en double.</desc></metadata>
  <wpt lat="49.1153870" lon="6.1768700"><name>Rue des Parmentiers, Metz</name><desc>Depart des deux boucles vers Borny, dans la Nouvelle Ville. A dix minutes a pied de la gare, dont il partage les commodites.</desc></wpt>
  <wpt lat="49.1303700" lon="6.1960500"><name>Parc Marie et Mathias</name><desc>Petit parc au pied de la cote de Saint-Julien.</desc></wpt>
  <wpt lat="49.1415000" lon="6.2072000"><name>Fort de Saint-Julien, lisiere</name><desc>Le chemin qui longe le fort par le nord. Le point est pose sur le chemin plutot que dans le fort : y entrer obligeait a revenir sur ses pas.</desc></wpt>
  <wpt lat="49.1434200" lon="6.2191000"><name>Bois de Grimont</name><desc>Le hameau de Grimont, a la sortie du bois.</desc></wpt>
  <wpt lat="49.1315900" lon="6.2150700"><name>Espace naturel pedagogique, Saint-Julien</name></wpt>
  <wpt lat="49.1234900" lon="6.2089100"><name>Parc Marthe Cohn</name></wpt>
  <trk><name>Saint-Julien et Grimont, depuis la rue des Parmentiers</name><trkseg>
    <trkpt lat="49.1153870" lon="6.1768670"><ele>174.5</ele></trkpt>
    <trkpt lat="49.1155220" lon="6.1770330"><ele>175.0</ele></trkpt>
    <trkpt lat="49.1158090" lon="6.1772820"><ele>174.0</ele></trkpt>
    <trkpt lat="49.1160140" lon="6.1774070"><ele>174.0</ele></trkpt>
    <trkpt lat="49.1161750" lon="6.1775060"><ele>174.0</ele></trkpt>
    <trkpt lat="49.1163200" lon="6.1776130"><ele>174.0</ele></trkpt>
    <trkpt lat="49.1163770" lon="6.1776540"><ele>174.0</ele></trkpt>
    <trkpt lat="49.1164140" lon="6.1776850"><ele>173.8</ele></trkpt>
    <trkpt lat="49.1166880" lon="6.1779150"><ele>173.5</ele></trkpt>
    <trkpt lat="49.1168970" lon="6.1780910"><ele>173.0</ele></trkpt>
    <trkpt lat="49.1168450" lon="6.1782950"><ele>173.2</ele></trkpt>
    <trkpt lat="49.1167900" lon="6.1785530"><ele>172.2</ele></trkpt>
    <trkpt lat="49.1167550" lon="6.1787960"><ele>170.5</ele></trkpt>
    <trkpt lat="49.1167490" lon="6.1788320"><ele>170.2</ele></trkpt>
    <trkpt lat="49.1167480" lon="6.1788700"><ele>170.0</ele></trkpt>
    <trkpt lat="49.1171380" lon="6.1789550"><ele>170.2</ele></trkpt>
    <trkpt lat="49.1172960" lon="6.1789830"><ele>170.5</ele></trkpt>
    <trkpt lat="49.1174570" lon="6.1790180"><ele>170.8</ele></trkpt>
    <trkpt lat="49.1175840" lon="6.1789760"><ele>171.0</ele></trkpt>
    <trkpt lat="49.1175980" lon="6.1789720"><ele>171.0</ele></trkpt>
    <trkpt lat="49.1176310" lon="6.1789600"><ele>171.0</ele></trkpt>
    <trkpt lat="49.1178150" lon="6.1788930"><ele>171.0</ele></trkpt>
    <trkpt lat="49.1178450" lon="6.1789290"><ele>171.0</ele></trkpt>
    <trkpt lat="49.1178900" lon="6.1789720"><ele>171.0</ele></trkpt>
    <trkpt lat="49.1178980" lon="6.1789490"><ele>171.0</ele></trkpt>
    <trkpt lat="49.1179930" lon="6.1790380"><ele>171.0</ele></trkpt>
    <trkpt lat="49.1181300" lon="6.1792020"><ele>172.0</ele></trkpt>
    <trkpt lat="49.1181960" lon="6.1791880"><ele>173.2</ele></trkpt>
    <trkpt lat="49.1182250" lon="6.1791940"><ele>173.5</ele></trkpt>
    <trkpt lat="49.1183150" lon="6.1792720"><ele>173.8</ele></trkpt>
    <trkpt lat="49.1185250" lon="6.1795320"><ele>176.0</ele></trkpt>
    <trkpt lat="49.1186860" lon="6.1797530"><ele>177.0</ele></trkpt>
    <trkpt lat="49.1188430" lon="6.1799970"><ele>179.0</ele></trkpt>
    <trkpt lat="49.1189900" lon="6.1802650"><ele>177.8</ele></trkpt>
    <trkpt lat="49.1190030" lon="6.1802880"><ele>178.0</ele></trkpt>
    <trkpt lat="49.1191630" lon="6.1805580"><ele>177.8</ele></trkpt>
    <trkpt lat="49.1192530" lon="6.1809070"><ele>175.5</ele></trkpt>
    <trkpt lat="49.1192550" lon="6.1809150"><ele>175.5</ele></trkpt>
    <trkpt lat="49.1192680" lon="6.1809730"><ele>175.2</ele></trkpt>
    <trkpt lat="49.1192710" lon="6.1810300"><ele>174.5</ele></trkpt>
    <trkpt lat="49.1192860" lon="6.1810610"><ele>174.5</ele></trkpt>
    <trkpt lat="49.1193220" lon="6.1810790"><ele>175.5</ele></trkpt>
    <trkpt lat="49.1193510" lon="6.1810640"><ele>176.8</ele></trkpt>
    <trkpt lat="49.1193900" lon="6.1811750"><ele>175.8</ele></trkpt>
    <trkpt lat="49.1195050" lon="6.1815140"><ele>172.0</ele></trkpt>
    <trkpt lat="49.1195330" lon="6.1816110"><ele>171.8</ele></trkpt>
    <trkpt lat="49.1195550" lon="6.1816780"><ele>171.8</ele></trkpt>
    <trkpt lat="49.1196310" lon="6.1819010"><ele>169.2</ele></trkpt>
    <trkpt lat="49.1196400" lon="6.1820140"><ele>168.2</ele></trkpt>
    <trkpt lat="49.1197070" lon="6.1820540"><ele>168.5</ele></trkpt>
    <trkpt lat="49.1199360" lon="6.1826420"><ele>168.0</ele></trkpt>
    <trkpt lat="49.1199620" lon="6.1826580"><ele>168.0</ele></trkpt>
    <trkpt lat="49.1199590" lon="6.1826690"><ele>168.0</ele></trkpt>
    <trkpt lat="49.1199670" lon="6.1826960"><ele>168.0</ele></trkpt>
    <trkpt lat="49.1199790" lon="6.1827280"><ele>168.0</ele></trkpt>
    <trkpt lat="49.1199700" lon="6.1827500"><ele>168.0</ele></trkpt>
    <trkpt lat="49.1201050" lon="6.1830990"><ele>168.2</ele></trkpt>
    <trkpt lat="49.1203240" lon="6.1836320"><ele>167.8</ele></trkpt>
    <trkpt lat="49.1203770" lon="6.1837680"><ele>168.0</ele></trkpt>
    <trkpt lat="49.1203880" lon="6.1837710"><ele>168.0</ele></trkpt>
    <trkpt lat="49.1204040" lon="6.1837560"><ele>168.0</ele></trkpt>
    <trkpt lat="49.1204110" lon="6.1837820"><ele>168.0</ele></trkpt>
    <trkpt lat="49.1204230" lon="6.1838200"><ele>168.0</ele></trkpt>
    <trkpt lat="49.1204370" lon="6.1838570"><ele>168.0</ele></trkpt>
    <trkpt lat="49.1204420" lon="6.1838720"><ele>168.0</ele></trkpt>
    <trkpt lat="49.1204680" lon="6.1838540"><ele>168.0</ele></trkpt>
    <trkpt lat="49.1204720" lon="6.1838690"><ele>168.0</ele></trkpt>
    <trkpt lat="49.1204820" lon="6.1839090"><ele>168.0</ele></trkpt>
    <trkpt lat="49.1204950" lon="6.1839530"><ele>168.0</ele></trkpt>
    <trkpt lat="49.1205050" lon="6.1839700"><ele>168.2</ele></trkpt>
    <trkpt lat="49.1205220" lon="6.1840050"><ele>168.2</ele></trkpt>
    <trkpt lat="49.1204890" lon="6.1840460"><ele>168.5</ele></trkpt>
    <trkpt lat="49.1206520" lon="6.1844590"><ele>169.0</ele></trkpt>
    <trkpt lat="49.1206860" lon="6.1845340"><ele>169.0</ele></trkpt>
    <trkpt lat="49.1207550" lon="6.1846580"><ele>169.0</ele></trkpt>
    <trkpt lat="49.1209040" lon="6.1848850"><ele>168.2</ele></trkpt>
    <trkpt lat="49.1209820" lon="6.1849690"><ele>168.2</ele></trkpt>
    <trkpt lat="49.1210050" lon="6.1850150"><ele>168.5</ele></trkpt>
    <trkpt lat="49.1210480" lon="6.1851630"><ele>168.2</ele></trkpt>
    <trkpt lat="49.1211070" lon="6.1852740"><ele>168.0</ele></trkpt>
    <trkpt lat="49.1211420" lon="6.1853650"><ele>168.0</ele></trkpt>
    <trkpt lat="49.1212850" lon="6.1855290"><ele>168.0</ele></trkpt>
    <trkpt lat="49.1213800" lon="6.1856170"><ele>167.8</ele></trkpt>
    <trkpt lat="49.1214740" lon="6.1856830"><ele>167.8</ele></trkpt>
    <trkpt lat="49.1215490" lon="6.1857280"><ele>167.8</ele></trkpt>
    <trkpt lat="49.1219050" lon="6.1858700"><ele>166.8</ele></trkpt>
    <trkpt lat="49.1221660" lon="6.1859890"><ele>166.8</ele></trkpt>
    <trkpt lat="49.1224170" lon="6.1860750"><ele>167.0</ele></trkpt>
    <trkpt lat="49.1225300" lon="6.1860930"><ele>167.0</ele></trkpt>
    <trkpt lat="49.1225870" lon="6.1860900"><ele>167.0</ele></trkpt>
    <trkpt lat="49.1227220" lon="6.1860800"><ele>167.0</ele></trkpt>
    <trkpt lat="49.1227830" lon="6.1860600"><ele>166.8</ele></trkpt>
    <trkpt lat="49.1227980" lon="6.1861780"><ele>165.5</ele></trkpt>
    <trkpt lat="49.1228440" lon="6.1866510"><ele>167.8</ele></trkpt>
    <trkpt lat="49.1228480" lon="6.1866860"><ele>168.5</ele></trkpt>
    <trkpt lat="49.1228580" lon="6.1868010"><ele>170.5</ele></trkpt>
    <trkpt lat="49.1229070" lon="6.1873010"><ele>170.8</ele></trkpt>
    <trkpt lat="49.1229260" lon="6.1874950"><ele>170.2</ele></trkpt>
    <trkpt lat="49.1229390" lon="6.1876220"><ele>170.5</ele></trkpt>
    <trkpt lat="49.1229530" lon="6.1877670"><ele>170.8</ele></trkpt>
    <trkpt lat="49.1229990" lon="6.1877820"><ele>171.0</ele></trkpt>
    <trkpt lat="49.1230850" lon="6.1877790"><ele>171.0</ele></trkpt>
    <trkpt lat="49.1232080" lon="6.1877760"><ele>170.8</ele></trkpt>
    <trkpt lat="49.1236240" lon="6.1877060"><ele>172.2</ele></trkpt>
    <trkpt lat="49.1239830" lon="6.1876610"><ele>172.2</ele></trkpt>
    <trkpt lat="49.1243360" lon="6.1875950"><ele>172.5</ele></trkpt>
    <trkpt lat="49.1248730" lon="6.1874760"><ele>172.0</ele></trkpt>
    <trkpt lat="49.1248740" lon="6.1874750"><ele>172.0</ele></trkpt>
    <trkpt lat="49.1251270" lon="6.1874070"><ele>172.0</ele></trkpt>
    <trkpt lat="49.1253350" lon="6.1873390"><ele>171.8</ele></trkpt>
    <trkpt lat="49.1254420" lon="6.1872630"><ele>171.2</ele></trkpt>
    <trkpt lat="49.1254640" lon="6.1872550"><ele>171.2</ele></trkpt>
    <trkpt lat="49.1255540" lon="6.1872690"><ele>171.0</ele></trkpt>
    <trkpt lat="49.1255880" lon="6.1872850"><ele>171.0</ele></trkpt>
    <trkpt lat="49.1256120" lon="6.1873350"><ele>171.2</ele></trkpt>
    <trkpt lat="49.1256260" lon="6.1873740"><ele>171.2</ele></trkpt>
    <trkpt lat="49.1256310" lon="6.1874620"><ele>171.8</ele></trkpt>
    <trkpt lat="49.1256370" lon="6.1875400"><ele>171.5</ele></trkpt>
    <trkpt lat="49.1256200" lon="6.1876200"><ele>171.0</ele></trkpt>
    <trkpt lat="49.1256040" lon="6.1876680"><ele>170.8</ele></trkpt>
    <trkpt lat="49.1255730" lon="6.1877610"><ele>170.8</ele></trkpt>
    <trkpt lat="49.1255690" lon="6.1880300"><ele>170.8</ele></trkpt>
    <trkpt lat="49.1256710" lon="6.1882380"><ele>170.2</ele></trkpt>
    <trkpt lat="49.1257710" lon="6.1884810"><ele>170.5</ele></trkpt>
    <trkpt lat="49.1260910" lon="6.1893160"><ele>169.8</ele></trkpt>
    <trkpt lat="49.1262990" lon="6.1893930"><ele>169.0</ele></trkpt>
    <trkpt lat="49.1263870" lon="6.1893920"><ele>168.5</ele></trkpt>
    <trkpt lat="49.1263380" lon="6.1894430"><ele>169.0</ele></trkpt>
    <trkpt lat="49.1264000" lon="6.1895770"><ele>169.0</ele></trkpt>
    <trkpt lat="49.1263850" lon="6.1897520"><ele>169.0</ele></trkpt>
    <trkpt lat="49.1263620" lon="6.1900680"><ele>169.2</ele></trkpt>
    <trkpt lat="49.1264460" lon="6.1904480"><ele>169.5</ele></trkpt>
    <trkpt lat="49.1265860" lon="6.1911790"><ele>170.0</ele></trkpt>
    <trkpt lat="49.1268160" lon="6.1923050"><ele>170.5</ele></trkpt>
    <trkpt lat="49.1268680" lon="6.1925620"><ele>170.2</ele></trkpt>
    <trkpt lat="49.1269560" lon="6.1929930"><ele>168.8</ele></trkpt>
    <trkpt lat="49.1269900" lon="6.1932130"><ele>168.5</ele></trkpt>
    <trkpt lat="49.1270020" lon="6.1932870"><ele>168.5</ele></trkpt>
    <trkpt lat="49.1270280" lon="6.1935840"><ele>168.5</ele></trkpt>
    <trkpt lat="49.1271760" lon="6.1937830"><ele>168.0</ele></trkpt>
    <trkpt lat="49.1275350" lon="6.1942680"><ele>167.5</ele></trkpt>
    <trkpt lat="49.1277480" lon="6.1945550"><ele>166.5</ele></trkpt>
    <trkpt lat="49.1277810" lon="6.1945990"><ele>166.2</ele></trkpt>
    <trkpt lat="49.1277980" lon="6.1946230"><ele>166.2</ele></trkpt>
    <trkpt lat="49.1279600" lon="6.1948410"><ele>166.5</ele></trkpt>
    <trkpt lat="49.1280210" lon="6.1949230"><ele>166.8</ele></trkpt>
    <trkpt lat="49.1280830" lon="6.1950070"><ele>166.8</ele></trkpt>
    <trkpt lat="49.1281200" lon="6.1949470"><ele>166.8</ele></trkpt>
    <trkpt lat="49.1281390" lon="6.1949250"><ele>166.5</ele></trkpt>
    <trkpt lat="49.1281860" lon="6.1948610"><ele>166.5</ele></trkpt>
    <trkpt lat="49.1283170" lon="6.1947220"><ele>166.0</ele></trkpt>
    <trkpt lat="49.1284130" lon="6.1946590"><ele>165.2</ele></trkpt>
    <trkpt lat="49.1285030" lon="6.1946120"><ele>164.8</ele></trkpt>
    <trkpt lat="49.1286060" lon="6.1946010"><ele>164.5</ele></trkpt>
    <trkpt lat="49.1290190" lon="6.1946720"><ele>164.2</ele></trkpt>
    <trkpt lat="49.1292500" lon="6.1946980"><ele>164.2</ele></trkpt>
    <trkpt lat="49.1294160" lon="6.1947330"><ele>165.0</ele></trkpt>
    <trkpt lat="49.1295670" lon="6.1947470"><ele>165.0</ele></trkpt>
    <trkpt lat="49.1295700" lon="6.1948770"><ele>165.5</ele></trkpt>
    <trkpt lat="49.1296060" lon="6.1951020"><ele>165.5</ele></trkpt>
    <trkpt lat="49.1296360" lon="6.1951090"><ele>165.0</ele></trkpt>
    <trkpt lat="49.1298620" lon="6.1953180"><ele>164.0</ele></trkpt>
    <trkpt lat="49.1299180" lon="6.1953590"><ele>164.0</ele></trkpt>
    <trkpt lat="49.1299540" lon="6.1954050"><ele>164.0</ele></trkpt>
    <trkpt lat="49.1300340" lon="6.1955400"><ele>164.0</ele></trkpt>
    <trkpt lat="49.1301150" lon="6.1956390"><ele>164.0</ele></trkpt>
    <trkpt lat="49.1301890" lon="6.1957790"><ele>164.0</ele></trkpt>
    <trkpt lat="49.1302630" lon="6.1958550"><ele>164.0</ele></trkpt>
    <trkpt lat="49.1303290" lon="6.1958980"><ele>164.0</ele></trkpt>
    <trkpt lat="49.1302710" lon="6.1960420"><ele>164.0</ele></trkpt>
    <trkpt lat="49.1303410" lon="6.1960990"><ele>164.0</ele></trkpt>
    <trkpt lat="49.1302710" lon="6.1960420"><ele>164.0</ele></trkpt>
    <trkpt lat="49.1303290" lon="6.1958980"><ele>164.0</ele></trkpt>
    <trkpt lat="49.1303870" lon="6.1959520"><ele>164.0</ele></trkpt>
    <trkpt lat="49.1304470" lon="6.1960020"><ele>164.0</ele></trkpt>
    <trkpt lat="49.1305040" lon="6.1960350"><ele>164.0</ele></trkpt>
    <trkpt lat="49.1305730" lon="6.1960920"><ele>164.0</ele></trkpt>
    <trkpt lat="49.1306650" lon="6.1961120"><ele>164.0</ele></trkpt>
    <trkpt lat="49.1307180" lon="6.1961340"><ele>164.0</ele></trkpt>
    <trkpt lat="49.1307710" lon="6.1961620"><ele>164.0</ele></trkpt>
    <trkpt lat="49.1308580" lon="6.1962270"><ele>164.0</ele></trkpt>
    <trkpt lat="49.1308870" lon="6.1961420"><ele>164.0</ele></trkpt>
    <trkpt lat="49.1309550" lon="6.1959480"><ele>164.0</ele></trkpt>
    <trkpt lat="49.1310180" lon="6.1957660"><ele>164.0</ele></trkpt>
    <trkpt lat="49.1311590" lon="6.1959140"><ele>164.0</ele></trkpt>
    <trkpt lat="49.1312130" lon="6.1959710"><ele>164.0</ele></trkpt>
    <trkpt lat="49.1313500" lon="6.1959470"><ele>164.0</ele></trkpt>
    <trkpt lat="49.1314040" lon="6.1959620"><ele>164.0</ele></trkpt>
    <trkpt lat="49.1314890" lon="6.1960230"><ele>164.0</ele></trkpt>
    <trkpt lat="49.1316010" lon="6.1961770"><ele>164.0</ele></trkpt>
    <trkpt lat="49.1317120" lon="6.1963240"><ele>163.8</ele></trkpt>
    <trkpt lat="49.1318080" lon="6.1964620"><ele>164.0</ele></trkpt>
    <trkpt lat="49.1319200" lon="6.1966210"><ele>164.0</ele></trkpt>
    <trkpt lat="49.1320180" lon="6.1967610"><ele>164.0</ele></trkpt>
    <trkpt lat="49.1321320" lon="6.1969180"><ele>164.0</ele></trkpt>
    <trkpt lat="49.1322450" lon="6.1970820"><ele>164.0</ele></trkpt>
    <trkpt lat="49.1323320" lon="6.1972090"><ele>164.0</ele></trkpt>
    <trkpt lat="49.1324390" lon="6.1973610"><ele>164.2</ele></trkpt>
    <trkpt lat="49.1325030" lon="6.1974640"><ele>164.8</ele></trkpt>
    <trkpt lat="49.1325930" lon="6.1975600"><ele>164.5</ele></trkpt>
    <trkpt lat="49.1325870" lon="6.1976210"><ele>164.8</ele></trkpt>
    <trkpt lat="49.1325720" lon="6.1976750"><ele>164.8</ele></trkpt>
    <trkpt lat="49.1325730" lon="6.1977210"><ele>164.8</ele></trkpt>
    <trkpt lat="49.1325940" lon="6.1977830"><ele>165.0</ele></trkpt>
    <trkpt lat="49.1326680" lon="6.1978860"><ele>165.2</ele></trkpt>
    <trkpt lat="49.1327440" lon="6.1979240"><ele>165.5</ele></trkpt>
    <trkpt lat="49.1328830" lon="6.1980020"><ele>165.5</ele></trkpt>
    <trkpt lat="49.1329750" lon="6.1980510"><ele>165.2</ele></trkpt>
    <trkpt lat="49.1329500" lon="6.1981540"><ele>165.2</ele></trkpt>
    <trkpt lat="49.1333030" lon="6.1983390"><ele>165.0</ele></trkpt>
    <trkpt lat="49.1336850" lon="6.1985310"><ele>165.0</ele></trkpt>
    <trkpt lat="49.1336890" lon="6.1985800"><ele>165.0</ele></trkpt>
    <trkpt lat="49.1337080" lon="6.1986240"><ele>165.2</ele></trkpt>
    <trkpt lat="49.1337240" lon="6.1986960"><ele>165.2</ele></trkpt>
    <trkpt lat="49.1337370" lon="6.1988000"><ele>165.0</ele></trkpt>
    <trkpt lat="49.1337530" lon="6.1988990"><ele>165.0</ele></trkpt>
    <trkpt lat="49.1337680" lon="6.1989900"><ele>165.0</ele></trkpt>
    <trkpt lat="49.1338250" lon="6.1991450"><ele>165.0</ele></trkpt>
    <trkpt lat="49.1338790" lon="6.1992440"><ele>165.0</ele></trkpt>
    <trkpt lat="49.1339630" lon="6.1993420"><ele>165.0</ele></trkpt>
    <trkpt lat="49.1339970" lon="6.1993650"><ele>165.0</ele></trkpt>
    <trkpt lat="49.1340870" lon="6.1994130"><ele>165.0</ele></trkpt>
    <trkpt lat="49.1342000" lon="6.1994460"><ele>165.0</ele></trkpt>
    <trkpt lat="49.1343340" lon="6.1994660"><ele>165.0</ele></trkpt>
    <trkpt lat="49.1343700" lon="6.1994910"><ele>165.0</ele></trkpt>
    <trkpt lat="49.1344230" lon="6.1995490"><ele>165.0</ele></trkpt>
    <trkpt lat="49.1344770" lon="6.1996450"><ele>165.0</ele></trkpt>
    <trkpt lat="49.1345000" lon="6.1997260"><ele>165.0</ele></trkpt>
    <trkpt lat="49.1345140" lon="6.1998400"><ele>165.0</ele></trkpt>
    <trkpt lat="49.1345190" lon="6.1999670"><ele>165.0</ele></trkpt>
    <trkpt lat="49.1344880" lon="6.2003460"><ele>166.2</ele></trkpt>
    <trkpt lat="49.1344860" lon="6.2003910"><ele>166.8</ele></trkpt>
    <trkpt lat="49.1346870" lon="6.2003600"><ele>166.2</ele></trkpt>
    <trkpt lat="49.1347270" lon="6.2006680"><ele>168.5</ele></trkpt>
    <trkpt lat="49.1347240" lon="6.2009430"><ele>172.8</ele></trkpt>
    <trkpt lat="49.1347920" lon="6.2012580"><ele>179.5</ele></trkpt>
    <trkpt lat="49.1348260" lon="6.2013430"><ele>181.0</ele></trkpt>
    <trkpt lat="49.1349990" lon="6.2016270"><ele>184.5</ele></trkpt>
    <trkpt lat="49.1353190" lon="6.2020050"><ele>192.0</ele></trkpt>
    <trkpt lat="49.1350940" lon="6.2029830"><ele>197.0</ele></trkpt>
    <trkpt lat="49.1350780" lon="6.2029770"><ele>197.0</ele></trkpt>
    <trkpt lat="49.1350630" lon="6.2029710"><ele>196.8</ele></trkpt>
    <trkpt lat="49.1348280" lon="6.2038790"><ele>195.2</ele></trkpt>
    <trkpt lat="49.1352480" lon="6.2041070"><ele>196.2</ele></trkpt>
    <trkpt lat="49.1353740" lon="6.2041870"><ele>196.8</ele></trkpt>
    <trkpt lat="49.1354810" lon="6.2042760"><ele>197.8</ele></trkpt>
    <trkpt lat="49.1355730" lon="6.2043760"><ele>198.0</ele></trkpt>
    <trkpt lat="49.1356770" lon="6.2045090"><ele>198.8</ele></trkpt>
    <trkpt lat="49.1364640" lon="6.2056090"><ele>204.2</ele></trkpt>
    <trkpt lat="49.1367540" lon="6.2049110"><ele>208.5</ele></trkpt>
    <trkpt lat="49.1370410" lon="6.2041120"><ele>209.8</ele></trkpt>
    <trkpt lat="49.1373340" lon="6.2042550"><ele>212.2</ele></trkpt>
    <trkpt lat="49.1373750" lon="6.2043840"><ele>213.0</ele></trkpt>
    <trkpt lat="49.1375800" lon="6.2046040"><ele>215.8</ele></trkpt>
    <trkpt lat="49.1377610" lon="6.2047920"><ele>217.2</ele></trkpt>
    <trkpt lat="49.1383460" lon="6.2051720"><ele>225.5</ele></trkpt>
    <trkpt lat="49.1384510" lon="6.2052510"><ele>227.0</ele></trkpt>
    <trkpt lat="49.1386530" lon="6.2053610"><ele>230.2</ele></trkpt>
    <trkpt lat="49.1386780" lon="6.2053010"><ele>230.2</ele></trkpt>
    <trkpt lat="49.1392630" lon="6.2056030"><ele>235.2</ele></trkpt>
    <trkpt lat="49.1398260" lon="6.2060330"><ele>241.5</ele></trkpt>
    <trkpt lat="49.1399810" lon="6.2061560"><ele>242.5</ele></trkpt>
    <trkpt lat="49.1402870" lon="6.2064050"><ele>244.0</ele></trkpt>
    <trkpt lat="49.1406480" lon="6.2067290"><ele>245.0</ele></trkpt>
    <trkpt lat="49.1408700" lon="6.2069400"><ele>246.8</ele></trkpt>
    <trkpt lat="49.1413190" lon="6.2073130"><ele>247.5</ele></trkpt>
    <trkpt lat="49.1413840" lon="6.2073350"><ele>247.8</ele></trkpt>
    <trkpt lat="49.1415460" lon="6.2072380"><ele>245.8</ele></trkpt>
    <trkpt lat="49.1415310" lon="6.2071800"><ele>245.5</ele></trkpt>
    <trkpt lat="49.1415460" lon="6.2072380"><ele>245.8</ele></trkpt>
    <trkpt lat="49.1415820" lon="6.2072270"><ele>245.5</ele></trkpt>
    <trkpt lat="49.1416100" lon="6.2072280"><ele>245.2</ele></trkpt>
    <trkpt lat="49.1416350" lon="6.2073110"><ele>245.5</ele></trkpt>
    <trkpt lat="49.1416610" lon="6.2073360"><ele>245.2</ele></trkpt>
    <trkpt lat="49.1417170" lon="6.2073160"><ele>244.8</ele></trkpt>
    <trkpt lat="49.1417810" lon="6.2072350"><ele>243.8</ele></trkpt>
    <trkpt lat="49.1418100" lon="6.2071680"><ele>242.8</ele></trkpt>
    <trkpt lat="49.1418270" lon="6.2071290"><ele>241.8</ele></trkpt>
    <trkpt lat="49.1419800" lon="6.2073090"><ele>242.0</ele></trkpt>
    <trkpt lat="49.1426900" lon="6.2080110"><ele>241.0</ele></trkpt>
    <trkpt lat="49.1430130" lon="6.2082790"><ele>239.2</ele></trkpt>
    <trkpt lat="49.1434270" lon="6.2085570"><ele>237.0</ele></trkpt>
    <trkpt lat="49.1442360" lon="6.2090570"><ele>234.8</ele></trkpt>
    <trkpt lat="49.1457440" lon="6.2099800"><ele>233.0</ele></trkpt>
    <trkpt lat="49.1451660" lon="6.2117750"><ele>218.2</ele></trkpt>
    <trkpt lat="49.1450430" lon="6.2121350"><ele>218.0</ele></trkpt>
    <trkpt lat="49.1442610" lon="6.2136160"><ele>228.5</ele></trkpt>
    <trkpt lat="49.1438540" lon="6.2144310"><ele>235.5</ele></trkpt>
    <trkpt lat="49.1436640" lon="6.2146670"><ele>238.2</ele></trkpt>
    <trkpt lat="49.1434260" lon="6.2147960"><ele>241.5</ele></trkpt>
    <trkpt lat="49.1432360" lon="6.2149460"><ele>244.0</ele></trkpt>
    <trkpt lat="49.1431170" lon="6.2151390"><ele>245.5</ele></trkpt>
    <trkpt lat="49.1430400" lon="6.2153900"><ele>247.5</ele></trkpt>
    <trkpt lat="49.1429480" lon="6.2159010"><ele>249.8</ele></trkpt>
    <trkpt lat="49.1428400" lon="6.2166960"><ele>253.2</ele></trkpt>
    <trkpt lat="49.1427460" lon="6.2172170"><ele>255.2</ele></trkpt>
    <trkpt lat="49.1427040" lon="6.2177100"><ele>257.0</ele></trkpt>
    <trkpt lat="49.1428170" lon="6.2178620"><ele>256.5</ele></trkpt>
    <trkpt lat="49.1429990" lon="6.2181810"><ele>255.0</ele></trkpt>
    <trkpt lat="49.1431760" lon="6.2184230"><ele>253.8</ele></trkpt>
    <trkpt lat="49.1432820" lon="6.2185790"><ele>253.2</ele></trkpt>
    <trkpt lat="49.1433460" lon="6.2187200"><ele>253.2</ele></trkpt>
    <trkpt lat="49.1434060" lon="6.2188750"><ele>253.0</ele></trkpt>
    <trkpt lat="49.1434230" lon="6.2189850"><ele>253.0</ele></trkpt>
    <trkpt lat="49.1434240" lon="6.2190990"><ele>253.0</ele></trkpt>
    <trkpt lat="49.1434240" lon="6.2190990"><ele>253.0</ele></trkpt>
    <trkpt lat="49.1434230" lon="6.2189850"><ele>253.0</ele></trkpt>
    <trkpt lat="49.1434060" lon="6.2188750"><ele>253.0</ele></trkpt>
    <trkpt lat="49.1433460" lon="6.2187200"><ele>253.2</ele></trkpt>
    <trkpt lat="49.1432820" lon="6.2185790"><ele>253.2</ele></trkpt>
    <trkpt lat="49.1431760" lon="6.2184230"><ele>253.8</ele></trkpt>
    <trkpt lat="49.1429990" lon="6.2181810"><ele>255.0</ele></trkpt>
    <trkpt lat="49.1428170" lon="6.2178620"><ele>256.5</ele></trkpt>
    <trkpt lat="49.1427040" lon="6.2177100"><ele>257.0</ele></trkpt>
    <trkpt lat="49.1426050" lon="6.2175320"><ele>257.2</ele></trkpt>
    <trkpt lat="49.1416990" lon="6.2161520"><ele>261.8</ele></trkpt>
    <trkpt lat="49.1416740" lon="6.2161130"><ele>261.8</ele></trkpt>
    <trkpt lat="49.1415120" lon="6.2163100"><ele>262.0</ele></trkpt>
    <trkpt lat="49.1408270" lon="6.2171210"><ele>262.0</ele></trkpt>
    <trkpt lat="49.1406860" lon="6.2172970"><ele>261.5</ele></trkpt>
    <trkpt lat="49.1405770" lon="6.2172600"><ele>261.8</ele></trkpt>
    <trkpt lat="49.1400420" lon="6.2171120"><ele>260.5</ele></trkpt>
    <trkpt lat="49.1390810" lon="6.2168470"><ele>255.0</ele></trkpt>
    <trkpt lat="49.1382290" lon="6.2171160"><ele>250.5</ele></trkpt>
    <trkpt lat="49.1378920" lon="6.2172040"><ele>249.2</ele></trkpt>
    <trkpt lat="49.1378370" lon="6.2172620"><ele>249.0</ele></trkpt>
    <trkpt lat="49.1377940" lon="6.2173060"><ele>249.0</ele></trkpt>
    <trkpt lat="49.1377580" lon="6.2172240"><ele>248.8</ele></trkpt>
    <trkpt lat="49.1377280" lon="6.2172550"><ele>248.8</ele></trkpt>
    <trkpt lat="49.1372180" lon="6.2177850"><ele>246.8</ele></trkpt>
    <trkpt lat="49.1370520" lon="6.2176570"><ele>245.8</ele></trkpt>
    <trkpt lat="49.1366720" lon="6.2170420"><ele>244.0</ele></trkpt>
    <trkpt lat="49.1365930" lon="6.2168990"><ele>244.0</ele></trkpt>
    <trkpt lat="49.1365280" lon="6.2168170"><ele>244.0</ele></trkpt>
    <trkpt lat="49.1363610" lon="6.2165240"><ele>243.2</ele></trkpt>
    <trkpt lat="49.1363360" lon="6.2164700"><ele>243.2</ele></trkpt>
    <trkpt lat="49.1356520" lon="6.2151570"><ele>241.2</ele></trkpt>
    <trkpt lat="49.1353960" lon="6.2154610"><ele>241.2</ele></trkpt>
    <trkpt lat="49.1353590" lon="6.2154690"><ele>241.0</ele></trkpt>
    <trkpt lat="49.1353210" lon="6.2154520"><ele>241.0</ele></trkpt>
    <trkpt lat="49.1348610" lon="6.2146440"><ele>240.0</ele></trkpt>
    <trkpt lat="49.1348410" lon="6.2146110"><ele>240.0</ele></trkpt>
    <trkpt lat="49.1348070" lon="6.2145550"><ele>240.0</ele></trkpt>
    <trkpt lat="49.1347850" lon="6.2146100"><ele>240.0</ele></trkpt>
    <trkpt lat="49.1347170" lon="6.2147330"><ele>240.0</ele></trkpt>
    <trkpt lat="49.1346530" lon="6.2148320"><ele>240.2</ele></trkpt>
    <trkpt lat="49.1344550" lon="6.2151130"><ele>240.0</ele></trkpt>
    <trkpt lat="49.1344140" lon="6.2150490"><ele>240.0</ele></trkpt>
    <trkpt lat="49.1343990" lon="6.2150270"><ele>240.0</ele></trkpt>
    <trkpt lat="49.1337860" lon="6.2140200"><ele>239.8</ele></trkpt>
    <trkpt lat="49.1337560" lon="6.2139860"><ele>239.8</ele></trkpt>
    <trkpt lat="49.1337240" lon="6.2139800"><ele>239.8</ele></trkpt>
    <trkpt lat="49.1336910" lon="6.2139880"><ele>240.0</ele></trkpt>
    <trkpt lat="49.1336630" lon="6.2140140"><ele>240.2</ele></trkpt>
    <trkpt lat="49.1334340" lon="6.2143380"><ele>240.2</ele></trkpt>
    <trkpt lat="49.1333420" lon="6.2144690"><ele>240.0</ele></trkpt>
    <trkpt lat="49.1333070" lon="6.2145200"><ele>240.2</ele></trkpt>
    <trkpt lat="49.1333080" lon="6.2146230"><ele>240.5</ele></trkpt>
    <trkpt lat="49.1333300" lon="6.2146630"><ele>240.8</ele></trkpt>
    <trkpt lat="49.1331690" lon="6.2148850"><ele>241.2</ele></trkpt>
    <trkpt lat="49.1326450" lon="6.2148420"><ele>240.8</ele></trkpt>
    <trkpt lat="49.1324170" lon="6.2145190"><ele>241.5</ele></trkpt>
    <trkpt lat="49.1323450" lon="6.2145870"><ele>241.2</ele></trkpt>
    <trkpt lat="49.1321720" lon="6.2148220"><ele>240.8</ele></trkpt>
    <trkpt lat="49.1322510" lon="6.2149330"><ele>241.0</ele></trkpt>
    <trkpt lat="49.1321640" lon="6.2150670"><ele>240.5</ele></trkpt>
    <trkpt lat="49.1320490" lon="6.2152240"><ele>240.0</ele></trkpt>
    <trkpt lat="49.1319230" lon="6.2150170"><ele>239.8</ele></trkpt>
    <trkpt lat="49.1318620" lon="6.2149180"><ele>239.8</ele></trkpt>
    <trkpt lat="49.1317700" lon="6.2150460"><ele>239.2</ele></trkpt>
    <trkpt lat="49.1317170" lon="6.2151220"><ele>239.0</ele></trkpt>
    <trkpt lat="49.1317390" lon="6.2152690"><ele>239.2</ele></trkpt>
    <trkpt lat="49.1315600" lon="6.2154920"><ele>237.8</ele></trkpt>
    <trkpt lat="49.1314440" lon="6.2155210"><ele>237.0</ele></trkpt>
    <trkpt lat="49.1313060" lon="6.2156710"><ele>235.8</ele></trkpt>
    <trkpt lat="49.1309150" lon="6.2160700"><ele>232.5</ele></trkpt>
    <trkpt lat="49.1307290" lon="6.2162150"><ele>230.8</ele></trkpt>
    <trkpt lat="49.1306710" lon="6.2159400"><ele>231.8</ele></trkpt>
    <trkpt lat="49.1306120" lon="6.2156660"><ele>232.8</ele></trkpt>
    <trkpt lat="49.1304240" lon="6.2152980"><ele>233.2</ele></trkpt>
    <trkpt lat="49.1302610" lon="6.2149480"><ele>232.8</ele></trkpt>
    <trkpt lat="49.1301050" lon="6.2145650"><ele>233.0</ele></trkpt>
    <trkpt lat="49.1299730" lon="6.2142040"><ele>232.8</ele></trkpt>
    <trkpt lat="49.1299360" lon="6.2142220"><ele>232.5</ele></trkpt>
    <trkpt lat="49.1298640" lon="6.2142970"><ele>232.0</ele></trkpt>
    <trkpt lat="49.1297800" lon="6.2144070"><ele>231.2</ele></trkpt>
    <trkpt lat="49.1297220" lon="6.2144760"><ele>230.8</ele></trkpt>
    <trkpt lat="49.1296550" lon="6.2145300"><ele>230.0</ele></trkpt>
    <trkpt lat="49.1295630" lon="6.2145780"><ele>229.2</ele></trkpt>
    <trkpt lat="49.1294750" lon="6.2146120"><ele>228.5</ele></trkpt>
    <trkpt lat="49.1293960" lon="6.2146740"><ele>227.8</ele></trkpt>
    <trkpt lat="49.1293280" lon="6.2147200"><ele>227.5</ele></trkpt>
    <trkpt lat="49.1290990" lon="6.2148770"><ele>226.0</ele></trkpt>
    <trkpt lat="49.1288450" lon="6.2150840"><ele>224.0</ele></trkpt>
    <trkpt lat="49.1287720" lon="6.2152150"><ele>222.8</ele></trkpt>
    <trkpt lat="49.1285170" lon="6.2155910"><ele>219.2</ele></trkpt>
    <trkpt lat="49.1284570" lon="6.2156350"><ele>218.8</ele></trkpt>
    <trkpt lat="49.1283970" lon="6.2154660"><ele>218.8</ele></trkpt>
    <trkpt lat="49.1281880" lon="6.2148620"><ele>218.8</ele></trkpt>
    <trkpt lat="49.1279490" lon="6.2140660"><ele>218.5</ele></trkpt>
    <trkpt lat="49.1278240" lon="6.2135990"><ele>218.2</ele></trkpt>
    <trkpt lat="49.1277120" lon="6.2131220"><ele>218.2</ele></trkpt>
    <trkpt lat="49.1275860" lon="6.2125420"><ele>219.5</ele></trkpt>
    <trkpt lat="49.1275240" lon="6.2122310"><ele>219.0</ele></trkpt>
    <trkpt lat="49.1274850" lon="6.2121690"><ele>219.0</ele></trkpt>
    <trkpt lat="49.1274570" lon="6.2122190"><ele>218.5</ele></trkpt>
    <trkpt lat="49.1274220" lon="6.2122620"><ele>218.2</ele></trkpt>
    <trkpt lat="49.1270380" lon="6.2123850"><ele>214.5</ele></trkpt>
    <trkpt lat="49.1269590" lon="6.2124020"><ele>213.5</ele></trkpt>
    <trkpt lat="49.1268390" lon="6.2123890"><ele>212.2</ele></trkpt>
    <trkpt lat="49.1267360" lon="6.2123600"><ele>211.2</ele></trkpt>
    <trkpt lat="49.1266770" lon="6.2123190"><ele>210.8</ele></trkpt>
    <trkpt lat="49.1265310" lon="6.2121670"><ele>210.0</ele></trkpt>
    <trkpt lat="49.1264580" lon="6.2120180"><ele>209.5</ele></trkpt>
    <trkpt lat="49.1263980" lon="6.2119140"><ele>209.0</ele></trkpt>
    <trkpt lat="49.1263300" lon="6.2120280"><ele>208.0</ele></trkpt>
    <trkpt lat="49.1254980" lon="6.2124220"><ele>191.0</ele></trkpt>
    <trkpt lat="49.1254390" lon="6.2121280"><ele>190.2</ele></trkpt>
    <trkpt lat="49.1254160" lon="6.2119070"><ele>190.0</ele></trkpt>
    <trkpt lat="49.1253950" lon="6.2119180"><ele>189.5</ele></trkpt>
    <trkpt lat="49.1253870" lon="6.2119420"><ele>189.2</ele></trkpt>
    <trkpt lat="49.1253890" lon="6.2120540"><ele>189.2</ele></trkpt>
    <trkpt lat="49.1253730" lon="6.2120620"><ele>189.0</ele></trkpt>
    <trkpt lat="49.1253430" lon="6.2120540"><ele>188.2</ele></trkpt>
    <trkpt lat="49.1252720" lon="6.2120190"><ele>186.8</ele></trkpt>
    <trkpt lat="49.1252100" lon="6.2119730"><ele>186.0</ele></trkpt>
    <trkpt lat="49.1251600" lon="6.2119250"><ele>185.2</ele></trkpt>
    <trkpt lat="49.1250850" lon="6.2117960"><ele>184.2</ele></trkpt>
    <trkpt lat="49.1250430" lon="6.2117510"><ele>183.5</ele></trkpt>
    <trkpt lat="49.1249520" lon="6.2116980"><ele>182.2</ele></trkpt>
    <trkpt lat="49.1248840" lon="6.2116820"><ele>181.2</ele></trkpt>
    <trkpt lat="49.1248250" lon="6.2116820"><ele>180.2</ele></trkpt>
    <trkpt lat="49.1247660" lon="6.2116650"><ele>179.5</ele></trkpt>
    <trkpt lat="49.1246580" lon="6.2115800"><ele>178.0</ele></trkpt>
    <trkpt lat="49.1245640" lon="6.2115350"><ele>177.0</ele></trkpt>
    <trkpt lat="49.1245390" lon="6.2115150"><ele>176.5</ele></trkpt>
    <trkpt lat="49.1242480" lon="6.2112850"><ele>172.2</ele></trkpt>
    <trkpt lat="49.1242390" lon="6.2110320"><ele>172.0</ele></trkpt>
    <trkpt lat="49.1241500" lon="6.2110380"><ele>170.8</ele></trkpt>
    <trkpt lat="49.1241370" lon="6.2109860"><ele>170.8</ele></trkpt>
    <trkpt lat="49.1240410" lon="6.2107610"><ele>170.2</ele></trkpt>
    <trkpt lat="49.1240280" lon="6.2107430"><ele>170.2</ele></trkpt>
    <trkpt lat="49.1240020" lon="6.2106760"><ele>170.0</ele></trkpt>
    <trkpt lat="49.1239570" lon="6.2106130"><ele>169.5</ele></trkpt>
    <trkpt lat="49.1237780" lon="6.2104510"><ele>169.0</ele></trkpt>
    <trkpt lat="49.1237440" lon="6.2104100"><ele>169.0</ele></trkpt>
    <trkpt lat="49.1236040" lon="6.2102950"><ele>169.0</ele></trkpt>
    <trkpt lat="49.1234820" lon="6.2101120"><ele>169.2</ele></trkpt>
    <trkpt lat="49.1234290" lon="6.2100640"><ele>169.5</ele></trkpt>
    <trkpt lat="49.1233870" lon="6.2100360"><ele>169.8</ele></trkpt>
    <trkpt lat="49.1232820" lon="6.2099070"><ele>169.2</ele></trkpt>
    <trkpt lat="49.1232420" lon="6.2098560"><ele>169.2</ele></trkpt>
    <trkpt lat="49.1232020" lon="6.2097760"><ele>169.0</ele></trkpt>
    <trkpt lat="49.1231860" lon="6.2095990"><ele>169.0</ele></trkpt>
    <trkpt lat="49.1231910" lon="6.2094840"><ele>169.0</ele></trkpt>
    <trkpt lat="49.1232000" lon="6.2094270"><ele>168.8</ele></trkpt>
    <trkpt lat="49.1232430" lon="6.2093090"><ele>168.5</ele></trkpt>
    <trkpt lat="49.1232410" lon="6.2092170"><ele>168.2</ele></trkpt>
    <trkpt lat="49.1231800" lon="6.2090200"><ele>168.8</ele></trkpt>
    <trkpt lat="49.1231600" lon="6.2088930"><ele>168.8</ele></trkpt>
    <trkpt lat="49.1231990" lon="6.2087830"><ele>168.8</ele></trkpt>
    <trkpt lat="49.1232260" lon="6.2086090"><ele>168.0</ele></trkpt>
    <trkpt lat="49.1232970" lon="6.2083600"><ele>168.8</ele></trkpt>
    <trkpt lat="49.1233490" lon="6.2081010"><ele>169.0</ele></trkpt>
    <trkpt lat="49.1234070" lon="6.2077530"><ele>169.5</ele></trkpt>
    <trkpt lat="49.1234350" lon="6.2075450"><ele>169.2</ele></trkpt>
    <trkpt lat="49.1234300" lon="6.2074900"><ele>169.2</ele></trkpt>
    <trkpt lat="49.1235000" lon="6.2073700"><ele>168.5</ele></trkpt>
    <trkpt lat="49.1235240" lon="6.2073010"><ele>168.0</ele></trkpt>
    <trkpt lat="49.1235540" lon="6.2071840"><ele>167.5</ele></trkpt>
    <trkpt lat="49.1236550" lon="6.2066880"><ele>169.8</ele></trkpt>
    <trkpt lat="49.1236360" lon="6.2066280"><ele>169.8</ele></trkpt>
    <trkpt lat="49.1236160" lon="6.2066000"><ele>169.8</ele></trkpt>
    <trkpt lat="49.1237290" lon="6.2061540"><ele>168.5</ele></trkpt>
    <trkpt lat="49.1234890" lon="6.2060410"><ele>169.2</ele></trkpt>
    <trkpt lat="49.1232290" lon="6.2059180"><ele>169.5</ele></trkpt>
    <trkpt lat="49.1232000" lon="6.2059040"><ele>169.5</ele></trkpt>
    <trkpt lat="49.1231840" lon="6.2058960"><ele>169.5</ele></trkpt>
    <trkpt lat="49.1230940" lon="6.2058540"><ele>169.8</ele></trkpt>
    <trkpt lat="49.1231260" lon="6.2056580"><ele>169.5</ele></trkpt>
    <trkpt lat="49.1231370" lon="6.2055890"><ele>169.5</ele></trkpt>
    <trkpt lat="49.1232010" lon="6.2052780"><ele>169.8</ele></trkpt>
    <trkpt lat="49.1232730" lon="6.2049730"><ele>170.2</ele></trkpt>
    <trkpt lat="49.1229290" lon="6.2047520"><ele>174.0</ele></trkpt>
    <trkpt lat="49.1227240" lon="6.2046520"><ele>177.2</ele></trkpt>
    <trkpt lat="49.1225010" lon="6.2045310"><ele>182.2</ele></trkpt>
    <trkpt lat="49.1222690" lon="6.2043530"><ele>187.5</ele></trkpt>
    <trkpt lat="49.1221300" lon="6.2042700"><ele>190.2</ele></trkpt>
    <trkpt lat="49.1217990" lon="6.2040580"><ele>199.5</ele></trkpt>
    <trkpt lat="49.1217800" lon="6.2039680"><ele>200.2</ele></trkpt>
    <trkpt lat="49.1218110" lon="6.2039250"><ele>199.5</ele></trkpt>
    <trkpt lat="49.1218390" lon="6.2038280"><ele>199.8</ele></trkpt>
    <trkpt lat="49.1218500" lon="6.2034240"><ele>202.8</ele></trkpt>
    <trkpt lat="49.1218450" lon="6.2032920"><ele>203.2</ele></trkpt>
    <trkpt lat="49.1217420" lon="6.2033450"><ele>204.0</ele></trkpt>
    <trkpt lat="49.1216260" lon="6.2033640"><ele>205.2</ele></trkpt>
    <trkpt lat="49.1213460" lon="6.2033570"><ele>207.0</ele></trkpt>
    <trkpt lat="49.1213470" lon="6.2032950"><ele>207.0</ele></trkpt>
    <trkpt lat="49.1213510" lon="6.2029350"><ele>207.0</ele></trkpt>
    <trkpt lat="49.1213600" lon="6.2028020"><ele>207.0</ele></trkpt>
    <trkpt lat="49.1213420" lon="6.2026380"><ele>207.0</ele></trkpt>
    <trkpt lat="49.1213510" lon="6.2024730"><ele>207.0</ele></trkpt>
    <trkpt lat="49.1214110" lon="6.2021370"><ele>208.0</ele></trkpt>
    <trkpt lat="49.1211310" lon="6.2017320"><ele>208.8</ele></trkpt>
    <trkpt lat="49.1210540" lon="6.2016580"><ele>209.0</ele></trkpt>
    <trkpt lat="49.1210230" lon="6.2016420"><ele>209.0</ele></trkpt>
    <trkpt lat="49.1210840" lon="6.2013150"><ele>209.0</ele></trkpt>
    <trkpt lat="49.1210970" lon="6.2012440"><ele>209.0</ele></trkpt>
    <trkpt lat="49.1208130" lon="6.2011500"><ele>209.8</ele></trkpt>
    <trkpt lat="49.1207780" lon="6.2011680"><ele>209.8</ele></trkpt>
    <trkpt lat="49.1205090" lon="6.2012200"><ele>209.5</ele></trkpt>
    <trkpt lat="49.1205070" lon="6.2003010"><ele>208.8</ele></trkpt>
    <trkpt lat="49.1202430" lon="6.2003550"><ele>208.0</ele></trkpt>
    <trkpt lat="49.1202300" lon="6.2002690"><ele>208.0</ele></trkpt>
    <trkpt lat="49.1202050" lon="6.2002160"><ele>208.0</ele></trkpt>
    <trkpt lat="49.1202190" lon="6.2001480"><ele>208.0</ele></trkpt>
    <trkpt lat="49.1202180" lon="6.2000900"><ele>208.0</ele></trkpt>
    <trkpt lat="49.1202110" lon="6.1998020"><ele>207.8</ele></trkpt>
    <trkpt lat="49.1202050" lon="6.1995900"><ele>207.2</ele></trkpt>
    <trkpt lat="49.1202010" lon="6.1987580"><ele>206.5</ele></trkpt>
    <trkpt lat="49.1202030" lon="6.1981650"><ele>206.0</ele></trkpt>
    <trkpt lat="49.1202030" lon="6.1981310"><ele>206.0</ele></trkpt>
    <trkpt lat="49.1202030" lon="6.1980720"><ele>206.0</ele></trkpt>
    <trkpt lat="49.1201310" lon="6.1980710"><ele>206.0</ele></trkpt>
    <trkpt lat="49.1195580" lon="6.1980650"><ele>204.2</ele></trkpt>
    <trkpt lat="49.1194770" lon="6.1980640"><ele>204.0</ele></trkpt>
    <trkpt lat="49.1194660" lon="6.1979180"><ele>203.5</ele></trkpt>
    <trkpt lat="49.1194420" lon="6.1976100"><ele>202.2</ele></trkpt>
    <trkpt lat="49.1194220" lon="6.1973500"><ele>201.8</ele></trkpt>
    <trkpt lat="49.1193470" lon="6.1963810"><ele>200.8</ele></trkpt>
    <trkpt lat="49.1193410" lon="6.1963070"><ele>200.5</ele></trkpt>
    <trkpt lat="49.1194330" lon="6.1962900"><ele>200.5</ele></trkpt>
    <trkpt lat="49.1195580" lon="6.1962670"><ele>201.0</ele></trkpt>
    <trkpt lat="49.1195390" lon="6.1957510"><ele>200.0</ele></trkpt>
    <trkpt lat="49.1195310" lon="6.1956290"><ele>199.5</ele></trkpt>
    <trkpt lat="49.1194930" lon="6.1950700"><ele>198.0</ele></trkpt>
    <trkpt lat="49.1194220" lon="6.1950720"><ele>198.0</ele></trkpt>
    <trkpt lat="49.1194250" lon="6.1949780"><ele>197.8</ele></trkpt>
    <trkpt lat="49.1194360" lon="6.1949160"><ele>197.8</ele></trkpt>
    <trkpt lat="49.1194310" lon="6.1946840"><ele>197.8</ele></trkpt>
    <trkpt lat="49.1194400" lon="6.1943900"><ele>198.0</ele></trkpt>
    <trkpt lat="49.1194010" lon="6.1934960"><ele>198.2</ele></trkpt>
    <trkpt lat="49.1193730" lon="6.1933820"><ele>198.5</ele></trkpt>
    <trkpt lat="49.1192670" lon="6.1929430"><ele>198.0</ele></trkpt>
    <trkpt lat="49.1192170" lon="6.1927850"><ele>197.0</ele></trkpt>
    <trkpt lat="49.1191740" lon="6.1926910"><ele>197.0</ele></trkpt>
    <trkpt lat="49.1189690" lon="6.1923410"><ele>196.2</ele></trkpt>
    <trkpt lat="49.1188770" lon="6.1922290"><ele>194.8</ele></trkpt>
    <trkpt lat="49.1185680" lon="6.1917890"><ele>195.5</ele></trkpt>
    <trkpt lat="49.1183430" lon="6.1914910"><ele>192.5</ele></trkpt>
    <trkpt lat="49.1182650" lon="6.1913910"><ele>192.0</ele></trkpt>
    <trkpt lat="49.1181510" lon="6.1912090"><ele>191.2</ele></trkpt>
    <trkpt lat="49.1180650" lon="6.1910380"><ele>190.8</ele></trkpt>
    <trkpt lat="49.1180110" lon="6.1909090"><ele>190.0</ele></trkpt>
    <trkpt lat="49.1179340" lon="6.1906900"><ele>190.2</ele></trkpt>
    <trkpt lat="49.1179000" lon="6.1905270"><ele>190.0</ele></trkpt>
    <trkpt lat="49.1178490" lon="6.1900480"><ele>187.5</ele></trkpt>
    <trkpt lat="49.1178490" lon="6.1899820"><ele>187.0</ele></trkpt>
    <trkpt lat="49.1178810" lon="6.1899270"><ele>187.0</ele></trkpt>
    <trkpt lat="49.1179210" lon="6.1897970"><ele>186.8</ele></trkpt>
    <trkpt lat="49.1179300" lon="6.1897690"><ele>186.5</ele></trkpt>
    <trkpt lat="49.1179420" lon="6.1897350"><ele>186.5</ele></trkpt>
    <trkpt lat="49.1178910" lon="6.1896860"><ele>186.0</ele></trkpt>
    <trkpt lat="49.1178420" lon="6.1896350"><ele>185.5</ele></trkpt>
    <trkpt lat="49.1177260" lon="6.1894830"><ele>184.5</ele></trkpt>
    <trkpt lat="49.1176740" lon="6.1893950"><ele>184.5</ele></trkpt>
    <trkpt lat="49.1176260" lon="6.1892920"><ele>184.5</ele></trkpt>
    <trkpt lat="49.1176030" lon="6.1891690"><ele>184.5</ele></trkpt>
    <trkpt lat="49.1176010" lon="6.1890860"><ele>183.8</ele></trkpt>
    <trkpt lat="49.1176110" lon="6.1889920"><ele>183.2</ele></trkpt>
    <trkpt lat="49.1176430" lon="6.1889040"><ele>182.5</ele></trkpt>
    <trkpt lat="49.1176880" lon="6.1888260"><ele>181.8</ele></trkpt>
    <trkpt lat="49.1177470" lon="6.1887600"><ele>181.5</ele></trkpt>
    <trkpt lat="49.1178280" lon="6.1887120"><ele>181.0</ele></trkpt>
    <trkpt lat="49.1177940" lon="6.1886000"><ele>180.5</ele></trkpt>
    <trkpt lat="49.1177920" lon="6.1885090"><ele>178.2</ele></trkpt>
    <trkpt lat="49.1178700" lon="6.1878120"><ele>177.5</ele></trkpt>
    <trkpt lat="49.1178580" lon="6.1877440"><ele>178.0</ele></trkpt>
    <trkpt lat="49.1178480" lon="6.1877290"><ele>178.0</ele></trkpt>
    <trkpt lat="49.1178090" lon="6.1877140"><ele>177.8</ele></trkpt>
    <trkpt lat="49.1177600" lon="6.1877180"><ele>177.8</ele></trkpt>
    <trkpt lat="49.1176800" lon="6.1877440"><ele>176.8</ele></trkpt>
    <trkpt lat="49.1176720" lon="6.1877550"><ele>176.5</ele></trkpt>
    <trkpt lat="49.1176700" lon="6.1877730"><ele>176.2</ele></trkpt>
    <trkpt lat="49.1176810" lon="6.1877900"><ele>176.2</ele></trkpt>
    <trkpt lat="49.1176960" lon="6.1877950"><ele>176.5</ele></trkpt>
    <trkpt lat="49.1177000" lon="6.1878100"><ele>176.5</ele></trkpt>
    <trkpt lat="49.1176970" lon="6.1878240"><ele>176.2</ele></trkpt>
    <trkpt lat="49.1176870" lon="6.1878320"><ele>176.0</ele></trkpt>
    <trkpt lat="49.1175840" lon="6.1878350"><ele>174.8</ele></trkpt>
    <trkpt lat="49.1175160" lon="6.1878110"><ele>174.0</ele></trkpt>
    <trkpt lat="49.1174540" lon="6.1877450"><ele>174.5</ele></trkpt>
    <trkpt lat="49.1174260" lon="6.1877360"><ele>174.8</ele></trkpt>
    <trkpt lat="49.1174100" lon="6.1875770"><ele>176.8</ele></trkpt>
    <trkpt lat="49.1173930" lon="6.1861480"><ele>173.0</ele></trkpt>
    <trkpt lat="49.1173890" lon="6.1859300"><ele>169.0</ele></trkpt>
    <trkpt lat="49.1173840" lon="6.1854670"><ele>168.0</ele></trkpt>
    <trkpt lat="49.1174160" lon="6.1853720"><ele>170.2</ele></trkpt>
    <trkpt lat="49.1173420" lon="6.1853350"><ele>171.5</ele></trkpt>
    <trkpt lat="49.1172680" lon="6.1852980"><ele>172.5</ele></trkpt>
    <trkpt lat="49.1172800" lon="6.1852330"><ele>172.8</ele></trkpt>
    <trkpt lat="49.1172950" lon="6.1851920"><ele>172.8</ele></trkpt>
    <trkpt lat="49.1173170" lon="6.1851370"><ele>172.5</ele></trkpt>
    <trkpt lat="49.1173300" lon="6.1850600"><ele>172.5</ele></trkpt>
    <trkpt lat="49.1173290" lon="6.1850090"><ele>172.2</ele></trkpt>
    <trkpt lat="49.1173280" lon="6.1849340"><ele>172.2</ele></trkpt>
    <trkpt lat="49.1170520" lon="6.1849150"><ele>172.0</ele></trkpt>
    <trkpt lat="49.1167880" lon="6.1848330"><ele>171.8</ele></trkpt>
    <trkpt lat="49.1167790" lon="6.1847010"><ele>171.8</ele></trkpt>
    <trkpt lat="49.1167130" lon="6.1841200"><ele>171.0</ele></trkpt>
    <trkpt lat="49.1166640" lon="6.1838790"><ele>171.0</ele></trkpt>
    <trkpt lat="49.1166030" lon="6.1836860"><ele>171.0</ele></trkpt>
    <trkpt lat="49.1165190" lon="6.1834880"><ele>170.8</ele></trkpt>
    <trkpt lat="49.1162600" lon="6.1830050"><ele>170.0</ele></trkpt>
    <trkpt lat="49.1162390" lon="6.1829640"><ele>170.0</ele></trkpt>
    <trkpt lat="49.1161690" lon="6.1828440"><ele>170.0</ele></trkpt>
    <trkpt lat="49.1161150" lon="6.1826990"><ele>170.0</ele></trkpt>
    <trkpt lat="49.1159740" lon="6.1825060"><ele>169.5</ele></trkpt>
    <trkpt lat="49.1159390" lon="6.1824430"><ele>169.2</ele></trkpt>
    <trkpt lat="49.1157580" lon="6.1820560"><ele>168.2</ele></trkpt>
    <trkpt lat="49.1157470" lon="6.1820260"><ele>168.0</ele></trkpt>
    <trkpt lat="49.1155950" lon="6.1816780"><ele>168.8</ele></trkpt>
    <trkpt lat="49.1155840" lon="6.1816500"><ele>168.8</ele></trkpt>
    <trkpt lat="49.1155720" lon="6.1816220"><ele>168.8</ele></trkpt>
    <trkpt lat="49.1157410" lon="6.1814530"><ele>168.8</ele></trkpt>
    <trkpt lat="49.1157200" lon="6.1813900"><ele>168.8</ele></trkpt>
    <trkpt lat="49.1157050" lon="6.1813370"><ele>168.8</ele></trkpt>
    <trkpt lat="49.1157390" lon="6.1813050"><ele>168.5</ele></trkpt>
    <trkpt lat="49.1157740" lon="6.1812780"><ele>168.2</ele></trkpt>
    <trkpt lat="49.1157700" lon="6.1812530"><ele>168.2</ele></trkpt>
    <trkpt lat="49.1157510" lon="6.1811300"><ele>167.8</ele></trkpt>
    <trkpt lat="49.1157220" lon="6.1809120"><ele>168.0</ele></trkpt>
    <trkpt lat="49.1157350" lon="6.1808290"><ele>168.0</ele></trkpt>
    <trkpt lat="49.1157390" lon="6.1805850"><ele>168.5</ele></trkpt>
    <trkpt lat="49.1157670" lon="6.1798500"><ele>169.0</ele></trkpt>
    <trkpt lat="49.1157680" lon="6.1798310"><ele>169.0</ele></trkpt>
    <trkpt lat="49.1158010" lon="6.1791040"><ele>170.2</ele></trkpt>
    <trkpt lat="49.1156900" lon="6.1790870"><ele>170.5</ele></trkpt>
    <trkpt lat="49.1156960" lon="6.1789790"><ele>170.8</ele></trkpt>
    <trkpt lat="49.1157160" lon="6.1786130"><ele>171.2</ele></trkpt>
    <trkpt lat="49.1157080" lon="6.1786030"><ele>171.2</ele></trkpt>
    <trkpt lat="49.1156610" lon="6.1785390"><ele>171.8</ele></trkpt>
    <trkpt lat="49.1156250" lon="6.1784910"><ele>172.2</ele></trkpt>
    <trkpt lat="49.1156960" lon="6.1781300"><ele>173.5</ele></trkpt>
    <trkpt lat="49.1157770" lon="6.1778990"><ele>174.0</ele></trkpt>
    <trkpt lat="49.1158940" lon="6.1776380"><ele>174.0</ele></trkpt>
    <trkpt lat="49.1160140" lon="6.1774070"><ele>174.0</ele></trkpt>
    <trkpt lat="49.1158090" lon="6.1772820"><ele>174.0</ele></trkpt>
    <trkpt lat="49.1155220" lon="6.1770330"><ele>175.0</ele></trkpt>
    <trkpt lat="49.1153870" lon="6.1768670"><ele>174.0</ele></trkpt>
  </trkseg></trk>
</gpx>