<?xml version="1.0" encoding="UTF-8"?>
<gpx version="1.1" creator="olifant"
     xmlns="http://www.topografix.com/GPX/1/1"
     xmlns:xsi="http://www.w3.org/2001/XMLSchema-instance"
     xsi:schemaLocation="http://www.topografix.com/GPX/1/1 http://www.topografix.com/GPX/1/1/gpx.xsd">
  <metadata><name>Le Sansonnet et les portes</name><desc>5.1 km. D+ 42 m. 27 % de chemins. La plus verte des courtes cote nord : le bras de la Moselle a Chambiere, les sous-bois du parc du Sansonnet, puis les deux portes fortifiees, Sarrelouis et les Allemands. Un tiers de chemin balise.</desc></metadata>
  <wpt lat="49.1153870" lon="6.1768700"><name>Rue des Parmentiers, Metz</name><desc>Depart des deux boucles vers Borny, dans la Nouvelle Ville. A dix minutes a pied de la gare, dont il partage les commodites.</desc></wpt>
  <wpt lat="49.1230520" lon="6.1765620"><name>Moulin des Thermes</name><desc>Bras de la Moselle a Chambiere, ancien moulin et lavoirs.</desc></wpt>
  <wpt lat="49.1260000" lon="6.1880000"><name>Parc du Sansonnet, entree sud</name><desc>Le plus grand espace vert du nord de Metz, etang et sous-bois.</desc></wpt>
  <wpt lat="49.1206290" lon="6.1914470"><name>Porte de Sarrelouis</name><desc>Vestige des fortifications du XVIIIe siecle, a l'est de la ville.</desc></wpt>
  <wpt lat="49.1178800" lon="6.1855680"><name>Porte des Allemands</name><desc>Chatelet fortifie du XIIIe siecle a cheval sur la Seille, et le depart du chemin des remparts.</desc></wpt>
  <trk><name>Le Sansonnet et les portes</name><trkseg>
    <trkpt lat="49.1153870" lon="6.1768670"><ele>174.5</ele></trkpt>
    <trkpt lat="49.1155220" lon="6.1770330"><ele>175.0</ele></trkpt>
    <trkpt lat="49.1158090" lon="6.1772820"><ele>174.0</ele></trkpt>
    <trkpt lat="49.1160140" lon="6.1774070"><ele>174.0</ele></trkpt>
    <trkpt lat="49.1161750" lon="6.1775060"><ele>174.0</ele></trkpt>
    <trkpt lat="49.1163200" lon="6.1776130"><ele>174.0</ele></trkpt>
    <trkpt lat="49.1163770" lon="6.1776540"><ele>174.0</ele></trkpt>
    <trkpt lat="49.1164140" lon="6.1776850"><ele>173.8</ele></trkpt>
    <trkpt lat="49.1166880" lon="6.1779150"><ele>173.5</ele></trkpt>
    <trkpt lat="49.1168970" lon="6.1780910"><ele>173.0</ele></trkpt>
    <trkpt lat="49.1169400" lon="6.1780060"><ele>173.0</ele></trkpt>
    <trkpt lat="49.1172750" lon="6.1772570"><ele>175.2</ele></trkpt>
    <trkpt lat="49.1174010" lon="6.1769650"><ele>175.5</ele></trkpt>
    <trkpt lat="49.1177270" lon="6.1762120"><ele>178.0</ele></trkpt>
    <trkpt lat="49.1177820" lon="6.1761170"><ele>178.0</ele></trkpt>
    <trkpt lat="49.1178570" lon="6.1760070"><ele>178.2</ele></trkpt>
    <trkpt lat="49.1184390" lon="6.1750530"><ele>180.0</ele></trkpt>
    <trkpt lat="49.1184610" lon="6.1750080"><ele>180.0</ele></trkpt>
    <trkpt lat="49.1184970" lon="6.1750450"><ele>180.0</ele></trkpt>
    <trkpt lat="49.1187280" lon="6.1753180"><ele>180.0</ele></trkpt>
    <trkpt lat="49.1187910" lon="6.1753890"><ele>180.0</ele></trkpt>
    <trkpt lat="49.1189220" lon="6.1755170"><ele>180.0</ele></trkpt>
    <trkpt lat="49.1192030" lon="6.1756690"><ele>179.5</ele></trkpt>
    <trkpt lat="49.1192460" lon="6.1756860"><ele>179.2</ele></trkpt>
    <trkpt lat="49.1193230" lon="6.1757050"><ele>179.0</ele></trkpt>
    <trkpt lat="49.1193990" lon="6.1757860"><ele>179.0</ele></trkpt>
    <trkpt lat="49.1194430" lon="6.1758300"><ele>179.0</ele></trkpt>
    <trkpt lat="49.1194700" lon="6.1758600"><ele>179.0</ele></trkpt>
    <trkpt lat="49.1195130" lon="6.1759070"><ele>179.0</ele></trkpt>
    <trkpt lat="49.1198630" lon="6.1760700"><ele>179.0</ele></trkpt>
    <trkpt lat="49.1202150" lon="6.1762180"><ele>178.5</ele></trkpt>
    <trkpt lat="49.1202690" lon="6.1762750"><ele>178.5</ele></trkpt>
    <trkpt lat="49.1203210" lon="6.1763290"><ele>178.5</ele></trkpt>
    <trkpt lat="49.1204220" lon="6.1763870"><ele>178.2</ele></trkpt>
    <trkpt lat="49.1204900" lon="6.1764270"><ele>178.2</ele></trkpt>
    <trkpt lat="49.1205060" lon="6.1764420"><ele>178.2</ele></trkpt>
    <trkpt lat="49.1211840" lon="6.1770670"><ele>176.2</ele></trkpt>
    <trkpt lat="49.1216480" lon="6.1774960"><ele>173.5</ele></trkpt>
    <trkpt lat="49.1218000" lon="6.1776370"><ele>173.8</ele></trkpt>
    <trkpt lat="49.1223650" lon="6.1781460"><ele>170.8</ele></trkpt>
    <trkpt lat="49.1224040" lon="6.1781820"><ele>170.5</ele></trkpt>
    <trkpt lat="49.1225230" lon="6.1782880"><ele>169.5</ele></trkpt>
    <trkpt lat="49.1225700" lon="6.1782020"><ele>168.8</ele></trkpt>
    <trkpt lat="49.1225850" lon="6.1781730"><ele>168.2</ele></trkpt>
    <trkpt lat="49.1225990" lon="6.1781550"><ele>168.0</ele></trkpt>
    <trkpt lat="49.1227340" lon="6.1783090"><ele>168.8</ele></trkpt>
    <trkpt lat="49.1229430" lon="6.1785030"><ele>166.2</ele></trkpt>
    <trkpt lat="49.1229670" lon="6.1784720"><ele>165.8</ele></trkpt>
    <trkpt lat="49.1233510" lon="6.1780680"><ele>166.0</ele></trkpt>
    <trkpt lat="49.1233840" lon="6.1780340"><ele>166.5</ele></trkpt>
    <trkpt lat="49.1235620" lon="6.1778470"><ele>168.2</ele></trkpt>
    <trkpt lat="49.1235330" lon="6.1777830"><ele>168.0</ele></trkpt>
    <trkpt lat="49.1235060" lon="6.1777280"><ele>167.8</ele></trkpt>
    <trkpt lat="49.1234760" lon="6.1776520"><ele>167.2</ele></trkpt>
    <trkpt lat="49.1234640" lon="6.1776250"><ele>167.0</ele></trkpt>
    <trkpt lat="49.1234300" lon="6.1775460"><ele>166.2</ele></trkpt>
    <trkpt lat="49.1234180" lon="6.1774600"><ele>166.0</ele></trkpt>
    <trkpt lat="49.1234050" lon="6.1772940"><ele>165.8</ele></trkpt>
    <trkpt lat="49.1233840" lon="6.1770590"><ele>165.8</ele></trkpt>
    <trkpt lat="49.1233860" lon="6.1769730"><ele>165.8</ele></trkpt>
    <trkpt lat="49.1233890" lon="6.1768840"><ele>166.0</ele></trkpt>
    <trkpt lat="49.1232820" lon="6.1769090"><ele>165.5</ele></trkpt>
    <trkpt lat="49.1232560" lon="6.1766660"><ele>165.2</ele></trkpt>
    <trkpt lat="49.1232820" lon="6.1769090"><ele>165.5</ele></trkpt>
    <trkpt lat="49.1233890" lon="6.1768840"><ele>166.0</ele></trkpt>
    <trkpt lat="49.1233860" lon="6.1769730"><ele>165.8</ele></trkpt>
    <trkpt lat="49.1233840" lon="6.1770590"><ele>165.8</ele></trkpt>
    <trkpt lat="49.1234050" lon="6.1772940"><ele>165.8</ele></trkpt>
    <trkpt lat="49.1234180" lon="6.1774600"><ele>166.0</ele></trkpt>
    <trkpt lat="49.1234300" lon="6.1775460"><ele>166.2</ele></trkpt>
    <trkpt lat="49.1234640" lon="6.1776250"><ele>167.0</ele></trkpt>
    <trkpt lat="49.1234760" lon="6.1776520"><ele>167.2</ele></trkpt>
    <trkpt lat="49.1235060" lon="6.1777280"><ele>167.8</ele></trkpt>
    <trkpt lat="49.1235330" lon="6.1777830"><ele>168.0</ele></trkpt>
    <trkpt lat="49.1235620" lon="6.1778470"><ele>168.2</ele></trkpt>
    <trkpt lat="49.1233840" lon="6.1780340"><ele>166.5</ele></trkpt>
    <trkpt lat="49.1233510" lon="6.1780680"><ele>166.0</ele></trkpt>
    <trkpt lat="49.1229670" lon="6.1784720"><ele>165.8</ele></trkpt>
    <trkpt lat="49.1229430" lon="6.1785030"><ele>166.2</ele></trkpt>
    <trkpt lat="49.1229670" lon="6.1786080"><ele>166.2</ele></trkpt>
    <trkpt lat="49.1229570" lon="6.1787400"><ele>167.5</ele></trkpt>
    <trkpt lat="49.1229590" lon="6.1787860"><ele>168.0</ele></trkpt>
    <trkpt lat="49.1229660" lon="6.1788150"><ele>168.2</ele></trkpt>
    <trkpt lat="49.1229890" lon="6.1788610"><ele>168.5</ele></trkpt>
    <trkpt lat="49.1229500" lon="6.1789040"><ele>168.8</ele></trkpt>
    <trkpt lat="49.1229240" lon="6.1789370"><ele>168.8</ele></trkpt>
    <trkpt lat="49.1229150" lon="6.1789450"><ele>168.8</ele></trkpt>
    <trkpt lat="49.1228570" lon="6.1789970"><ele>168.5</ele></trkpt>
    <trkpt lat="49.1229230" lon="6.1793380"><ele>168.2</ele></trkpt>
    <trkpt lat="49.1229750" lon="6.1794540"><ele>168.2</ele></trkpt>
    <trkpt lat="49.1231520" lon="6.1797900"><ele>168.0</ele></trkpt>
    <trkpt lat="49.1231630" lon="6.1798260"><ele>168.0</ele></trkpt>
    <trkpt lat="49.1232820" lon="6.1800820"><ele>168.0</ele></trkpt>
    <trkpt lat="49.1232710" lon="6.1801000"><ele>168.0</ele></trkpt>
    <trkpt lat="49.1232460" lon="6.1801280"><ele>168.0</ele></trkpt>
    <trkpt lat="49.1232450" lon="6.1801470"><ele>168.0</ele></trkpt>
    <trkpt lat="49.1232430" lon="6.1801680"><ele>168.0</ele></trkpt>
    <trkpt lat="49.1234440" lon="6.1804990"><ele>168.0</ele></trkpt>
    <trkpt lat="49.1236740" lon="6.1809080"><ele>168.0</ele></trkpt>
    <trkpt lat="49.1237340" lon="6.1810440"><ele>168.0</ele></trkpt>
    <trkpt lat="49.1238170" lon="6.1812460"><ele>167.5</ele></trkpt>
    <trkpt lat="49.1238680" lon="6.1814510"><ele>167.0</ele></trkpt>
    <trkpt lat="49.1238950" lon="6.1815580"><ele>167.5</ele></trkpt>
    <trkpt lat="49.1239590" lon="6.1819980"><ele>168.0</ele></trkpt>
    <trkpt lat="49.1239610" lon="6.1821270"><ele>168.0</ele></trkpt>
    <trkpt lat="49.1238370" lon="6.1821750"><ele>168.2</ele></trkpt>
    <trkpt lat="49.1238540" lon="6.1823060"><ele>168.0</ele></trkpt>
    <trkpt lat="49.1238800" lon="6.1824600"><ele>168.0</ele></trkpt>
    <trkpt lat="49.1238640" lon="6.1825330"><ele>168.0</ele></trkpt>
    <trkpt lat="49.1238710" lon="6.1825940"><ele>168.2</ele></trkpt>
    <trkpt lat="49.1238910" lon="6.1826110"><ele>168.2</ele></trkpt>
    <trkpt lat="49.1239190" lon="6.1826150"><ele>168.2</ele></trkpt>
    <trkpt lat="49.1239330" lon="6.1826160"><ele>168.2</ele></trkpt>
    <trkpt lat="49.1239750" lon="6.1826010"><ele>168.2</ele></trkpt>
    <trkpt lat="49.1239830" lon="6.1827110"><ele>168.5</ele></trkpt>
    <trkpt lat="49.1240260" lon="6.1831100"><ele>168.2</ele></trkpt>
    <trkpt lat="49.1240340" lon="6.1832030"><ele>168.0</ele></trkpt>
    <trkpt lat="49.1240420" lon="6.1832860"><ele>168.0</ele></trkpt>
    <trkpt lat="49.1240800" lon="6.1837000"><ele>168.0</ele></trkpt>
    <trkpt lat="49.1242250" lon="6.1841910"><ele>166.8</ele></trkpt>
    <trkpt lat="49.1242400" lon="6.1842810"><ele>166.5</ele></trkpt>
    <trkpt lat="49.1242390" lon="6.1843720"><ele>166.5</ele></trkpt>
    <trkpt lat="49.1242350" lon="6.1844000"><ele>166.8</ele></trkpt>
    <trkpt lat="49.1242370" lon="6.1844200"><ele>166.5</ele></trkpt>
    <trkpt lat="49.1242660" lon="6.1844330"><ele>166.5</ele></trkpt>
    <trkpt lat="49.1243030" lon="6.1844550"><ele>166.5</ele></trkpt>
    <trkpt lat="49.1243330" lon="6.1844930"><ele>166.5</ele></trkpt>
    <trkpt lat="49.1244050" lon="6.1847310"><ele>167.0</ele></trkpt>
    <trkpt lat="49.1244860" lon="6.1851540"><ele>167.5</ele></trkpt>
    <trkpt lat="49.1245430" lon="6.1853420"><ele>166.5</ele></trkpt>
    <trkpt lat="49.1245540" lon="6.1853760"><ele>166.0</ele></trkpt>
    <trkpt lat="49.1245750" lon="6.1854430"><ele>164.8</ele></trkpt>
    <trkpt lat="49.1245980" lon="6.1854250"><ele>165.0</ele></trkpt>
    <trkpt lat="49.1246110" lon="6.1854530"><ele>165.0</ele></trkpt>
    <trkpt lat="49.1246210" lon="6.1854740"><ele>165.0</ele></trkpt>
    <trkpt lat="49.1247200" lon="6.1854130"><ele>165.0</ele></trkpt>
    <trkpt lat="49.1248910" lon="6.1856530"><ele>165.2</ele></trkpt>
    <trkpt lat="49.1249500" lon="6.1856440"><ele>165.5</ele></trkpt>
    <trkpt lat="49.1249750" lon="6.1859870"><ele>165.8</ele></trkpt>
    <trkpt lat="49.1249780" lon="6.1860300"><ele>165.8</ele></trkpt>
    <trkpt lat="49.1249800" lon="6.1860630"><ele>166.2</ele></trkpt>
    <trkpt lat="49.1250770" lon="6.1859910"><ele>166.2</ele></trkpt>
    <trkpt lat="49.1253050" lon="6.1857730"><ele>165.5</ele></trkpt>
    <trkpt lat="49.1254360" lon="6.1856640"><ele>165.8</ele></trkpt>
    <trkpt lat="49.1254690" lon="6.1856490"><ele>166.0</ele></trkpt>
    <trkpt lat="49.1255490" lon="6.1856750"><ele>167.0</ele></trkpt>
    <trkpt lat="49.1256230" lon="6.1856990"><ele>166.5</ele></trkpt>
    <trkpt lat="49.1256590" lon="6.1857130"><ele>166.2</ele></trkpt>
    <trkpt lat="49.1256970" lon="6.1857280"><ele>166.0</ele></trkpt>
    <trkpt lat="49.1256790" lon="6.1855730"><ele>164.8</ele></trkpt>
    <trkpt lat="49.1258670" lon="6.1856130"><ele>163.2</ele></trkpt>
    <trkpt lat="49.1259320" lon="6.1856500"><ele>163.0</ele></trkpt>
    <trkpt lat="49.1260590" lon="6.1858330"><ele>163.2</ele></trkpt>
    <trkpt lat="49.1261950" lon="6.1859560"><ele>164.8</ele></trkpt>
    <trkpt lat="49.1264090" lon="6.1863000"><ele>163.5</ele></trkpt>
    <trkpt lat="49.1264200" lon="6.1863310"><ele>163.5</ele></trkpt>
    <trkpt lat="49.1264220" lon="6.1863720"><ele>163.5</ele></trkpt>
    <trkpt lat="49.1264150" lon="6.1864220"><ele>163.8</ele></trkpt>
    <trkpt lat="49.1263750" lon="6.1865650"><ele>164.8</ele></trkpt>
    <trkpt lat="49.1263500" lon="6.1866140"><ele>165.0</ele></trkpt>
    <trkpt lat="49.1263160" lon="6.1866590"><ele>165.5</ele></trkpt>
    <trkpt lat="49.1261470" lon="6.1867680"><ele>166.2</ele></trkpt>
    <trkpt lat="49.1260480" lon="6.1868090"><ele>166.8</ele></trkpt>
    <trkpt lat="49.1259030" lon="6.1868980"><ele>167.5</ele></trkpt>
    <trkpt lat="49.1257710" lon="6.1869210"><ele>168.5</ele></trkpt>
    <trkpt lat="49.1257270" lon="6.1869420"><ele>168.8</ele></trkpt>
    <trkpt lat="49.1256850" lon="6.1869820"><ele>169.2</ele></trkpt>
    <trkpt lat="49.1255870" lon="6.1871360"><ele>170.5</ele></trkpt>
    <trkpt lat="49.1255670" lon="6.1871830"><ele>170.8</ele></trkpt>
    <trkpt lat="49.1255540" lon="6.1872690"><ele>171.0</ele></trkpt>
    <trkpt lat="49.1255880" lon="6.1872850"><ele>171.0</ele></trkpt>
    <trkpt lat="49.1256120" lon="6.1873350"><ele>171.2</ele></trkpt>
    <trkpt lat="49.1256260" lon="6.1873740"><ele>171.2</ele></trkpt>
    <trkpt lat="49.1256310" lon="6.1874620"><ele>171.8</ele></trkpt>
    <trkpt lat="49.1256370" lon="6.1875400"><ele>171.5</ele></trkpt>
    <trkpt lat="49.1256200" lon="6.1876200"><ele>171.0</ele></trkpt>
    <trkpt lat="49.1256040" lon="6.1876680"><ele>170.8</ele></trkpt>
    <trkpt lat="49.1255730" lon="6.1877610"><ele>170.8</ele></trkpt>
    <trkpt lat="49.1255690" lon="6.1880300"><ele>170.8</ele></trkpt>
    <trkpt lat="49.1256710" lon="6.1882380"><ele>170.2</ele></trkpt>
    <trkpt lat="49.1256930" lon="6.1882910"><ele>170.5</ele></trkpt>
    <trkpt lat="49.1256710" lon="6.1882380"><ele>170.2</ele></trkpt>
    <trkpt lat="49.1255690" lon="6.1880300"><ele>170.8</ele></trkpt>
    <trkpt lat="49.1255730" lon="6.1877610"><ele>170.8</ele></trkpt>
    <trkpt lat="49.1256040" lon="6.1876680"><ele>170.8</ele></trkpt>
    <trkpt lat="49.1256200" lon="6.1876200"><ele>171.0</ele></trkpt>
    <trkpt lat="49.1255970" lon="6.1876140"><ele>171.2</ele></trkpt>
    <trkpt lat="49.1255280" lon="6.1876130"><ele>171.5</ele></trkpt>
    <trkpt lat="49.1254860" lon="6.1876150"><ele>171.5</ele></trkpt>
    <trkpt lat="49.1254660" lon="6.1878550"><ele>171.0</ele></trkpt>
    <trkpt lat="49.1254470" lon="6.1879000"><ele>171.0</ele></trkpt>
    <trkpt lat="49.1254370" lon="6.1879230"><ele>171.0</ele></trkpt>
    <trkpt lat="49.1253020" lon="6.1878030"><ele>171.0</ele></trkpt>
    <trkpt lat="49.1250720" lon="6.1877010"><ele>171.8</ele></trkpt>
    <trkpt lat="49.1249260" lon="6.1876970"><ele>172.0</ele></trkpt>
    <trkpt lat="49.1247960" lon="6.1877320"><ele>172.0</ele></trkpt>
    <trkpt lat="49.1248300" lon="6.1879180"><ele>174.0</ele></trkpt>
    <trkpt lat="49.1248670" lon="6.1879110"><ele>174.0</ele></trkpt>
    <trkpt lat="49.1248830" lon="6.1879260"><ele>174.5</ele></trkpt>
    <trkpt lat="49.1248950" lon="6.1879640"><ele>175.2</ele></trkpt>
    <trkpt lat="49.1249050" lon="6.1880450"><ele>176.8</ele></trkpt>
    <trkpt lat="49.1249110" lon="6.1880970"><ele>177.5</ele></trkpt>
    <trkpt lat="49.1249170" lon="6.1881490"><ele>178.2</ele></trkpt>
    <trkpt lat="49.1249540" lon="6.1884600"><ele>180.8</ele></trkpt>
    <trkpt lat="49.1250710" lon="6.1892080"><ele>185.5</ele></trkpt>
    <trkpt lat="49.1251080" lon="6.1894130"><ele>187.5</ele></trkpt>
    <trkpt lat="49.1251190" lon="6.1897340"><ele>191.0</ele></trkpt>
    <trkpt lat="49.1251180" lon="6.1900050"><ele>196.5</ele></trkpt>
    <trkpt lat="49.1250960" lon="6.1901540"><ele>195.2</ele></trkpt>
    <trkpt lat="49.1250770" lon="6.1901850"><ele>194.8</ele></trkpt>
    <trkpt lat="49.1250320" lon="6.1902250"><ele>194.2</ele></trkpt>
    <trkpt lat="49.1248180" lon="6.1903140"><ele>196.8</ele></trkpt>
    <trkpt lat="49.1247560" lon="6.1903550"><ele>197.5</ele></trkpt>
    <trkpt lat="49.1244860" lon="6.1905890"><ele>198.5</ele></trkpt>
    <trkpt lat="49.1243260" lon="6.1906670"><ele>199.0</ele></trkpt>
    <trkpt lat="49.1242090" lon="6.1906850"><ele>199.2</ele></trkpt>
    <trkpt lat="49.1239200" lon="6.1907670"><ele>198.2</ele></trkpt>
    <trkpt lat="49.1236840" lon="6.1908530"><ele>198.2</ele></trkpt>
    <trkpt lat="49.1234200" lon="6.1910220"><ele>198.5</ele></trkpt>
    <trkpt lat="49.1233050" lon="6.1911310"><ele>198.5</ele></trkpt>
    <trkpt lat="49.1231610" lon="6.1913460"><ele>200.5</ele></trkpt>
    <trkpt lat="49.1229310" lon="6.1917130"><ele>199.0</ele></trkpt>
    <trkpt lat="49.1227170" lon="6.1920150"><ele>200.2</ele></trkpt>
    <trkpt lat="49.1226190" lon="6.1921320"><ele>201.0</ele></trkpt>
    <trkpt lat="49.1225450" lon="6.1921950"><ele>200.5</ele></trkpt>
    <trkpt lat="49.1224310" lon="6.1922660"><ele>201.8</ele></trkpt>
    <trkpt lat="49.1223140" lon="6.1923280"><ele>203.2</ele></trkpt>
    <trkpt lat="49.1222320" lon="6.1923540"><ele>203.5</ele></trkpt>
    <trkpt lat="49.1220840" lon="6.1923360"><ele>201.8</ele></trkpt>
    <trkpt lat="49.1218190" lon="6.1922660"><ele>199.5</ele></trkpt>
    <trkpt lat="49.1217390" lon="6.1922640"><ele>199.2</ele></trkpt>
    <trkpt lat="49.1215830" lon="6.1923040"><ele>199.0</ele></trkpt>
    <trkpt lat="49.1214840" lon="6.1923140"><ele>199.0</ele></trkpt>
    <trkpt lat="49.1213310" lon="6.1922400"><ele>199.0</ele></trkpt>
    <trkpt lat="49.1208430" lon="6.1920320"><ele>198.5</ele></trkpt>
    <trkpt lat="49.1208320" lon="6.1920350"><ele>198.5</ele></trkpt>
    <trkpt lat="49.1208130" lon="6.1920580"><ele>198.5</ele></trkpt>
    <trkpt lat="49.1206670" lon="6.1920670"><ele>198.0</ele></trkpt>
    <trkpt lat="49.1206670" lon="6.1922340"><ele>198.8</ele></trkpt>
    <trkpt lat="49.1206310" lon="6.1922340"><ele>198.5</ele></trkpt>
    <trkpt lat="49.1206340" lon="6.1919920"><ele>197.5</ele></trkpt>
    <trkpt lat="49.1206290" lon="6.1914720"><ele>197.8</ele></trkpt>
    <trkpt lat="49.1206290" lon="6.1914470"><ele>197.8</ele></trkpt>
    <trkpt lat="49.1206290" lon="6.1914220"><ele>197.8</ele></trkpt>
    <trkpt lat="49.1206230" lon="6.1910130"><ele>197.0</ele></trkpt>
    <trkpt lat="49.1206100" lon="6.1908700"><ele>196.0</ele></trkpt>
    <trkpt lat="49.1205900" lon="6.1908320"><ele>195.8</ele></trkpt>
    <trkpt lat="49.1205570" lon="6.1908040"><ele>195.5</ele></trkpt>
    <trkpt lat="49.1204960" lon="6.1907820"><ele>195.2</ele></trkpt>
    <trkpt lat="49.1202150" lon="6.1907180"><ele>194.0</ele></trkpt>
    <trkpt lat="49.1201210" lon="6.1906680"><ele>193.5</ele></trkpt>
    <trkpt lat="49.1199560" lon="6.1905070"><ele>192.5</ele></trkpt>
    <trkpt lat="49.1199460" lon="6.1905360"><ele>192.5</ele></trkpt>
    <trkpt lat="49.1199350" lon="6.1905690"><ele>192.8</ele></trkpt>
    <trkpt lat="49.1199210" lon="6.1906200"><ele>193.0</ele></trkpt>
    <trkpt lat="49.1199000" lon="6.1906910"><ele>193.2</ele></trkpt>
    <trkpt lat="49.1198810" lon="6.1907100"><ele>193.2</ele></trkpt>
    <trkpt lat="49.1192090" lon="6.1908350"><ele>192.0</ele></trkpt>
    <trkpt lat="49.1191690" lon="6.1907340"><ele>191.5</ele></trkpt>
    <trkpt lat="49.1191160" lon="6.1905390"><ele>191.2</ele></trkpt>
    <trkpt lat="49.1190940" lon="6.1904860"><ele>191.0</ele></trkpt>
    <trkpt lat="49.1189550" lon="6.1903700"><ele>190.8</ele></trkpt>
    <trkpt lat="49.1189360" lon="6.1904140"><ele>191.2</ele></trkpt>
    <trkpt lat="49.1189190" lon="6.1904300"><ele>191.5</ele></trkpt>
    <trkpt lat="49.1188720" lon="6.1904340"><ele>191.5</ele></trkpt>
    <trkpt lat="49.1182210" lon="6.1902350"><ele>189.8</ele></trkpt>
    <trkpt lat="49.1182380" lon="6.1901630"><ele>189.2</ele></trkpt>
    <trkpt lat="49.1181800" lon="6.1899780"><ele>188.2</ele></trkpt>
    <trkpt lat="49.1181900" lon="6.1898950"><ele>187.8</ele></trkpt>
    <trkpt lat="49.1181250" lon="6.1898650"><ele>187.5</ele></trkpt>
    <trkpt lat="49.1180420" lon="6.1898060"><ele>187.2</ele></trkpt>
    <trkpt lat="49.1179420" lon="6.1897350"><ele>186.5</ele></trkpt>
    <trkpt lat="49.1178910" lon="6.1896860"><ele>186.0</ele></trkpt>
    <trkpt lat="49.1178420" lon="6.1896350"><ele>185.5</ele></trkpt>
    <trkpt lat="49.1177260" lon="6.1894830"><ele>184.5</ele></trkpt>
    <trkpt lat="49.1176740" lon="6.1893950"><ele>184.5</ele></trkpt>
    <trkpt lat="49.1176260" lon="6.1892920"><ele>184.5</ele></trkpt>
    <trkpt lat="49.1176030" lon="6.1891690"><ele>184.5</ele></trkpt>
    <trkpt lat="49.1176010" lon="6.1890860"><ele>183.8</ele></trkpt>
    <trkpt lat="49.1176110" lon="6.1889920"><ele>183.2</ele></trkpt>
    <trkpt lat="49.1176430" lon="6.1889040"><ele>182.5</ele></trkpt>
    <trkpt lat="49.1176880" lon="6.1888260"><ele>181.8</ele></trkpt>
    <trkpt lat="49.1177470" lon="6.1887600"><ele>181.5</ele></trkpt>
    <trkpt lat="49.1178280" lon="6.1887120"><ele>181.0</ele></trkpt>
    <trkpt lat="49.1177940" lon="6.1886000"><ele>180.5</ele></trkpt>
    <trkpt lat="49.1177920" lon="6.1885090"><ele>178.2</ele></trkpt>
    <trkpt lat="49.1178700" lon="6.1878120"><ele>177.5</ele></trkpt>
    <trkpt lat="49.1178580" lon="6.1877440"><ele>178.0</ele></trkpt>
    <trkpt lat="49.1178480" lon="6.1877290"><ele>178.0</ele></trkpt>
    <trkpt lat="49.1178090" lon="6.1877140"><ele>177.8</ele></trkpt>
    <trkpt lat="49.1177600" lon="6.1877180"><ele>177.8</ele></trkpt>
    <trkpt lat="49.1176800" lon="6.1877440"><ele>176.8</ele></trkpt>
    <trkpt lat="49.1176720" lon="6.1877550"><ele>176.5</ele></trkpt>
    <trkpt lat="49.1176700" lon="6.1877730"><ele>176.2</ele></trkpt>
    <trkpt lat="49.1176810" lon="6.1877900"><ele>176.2</ele></trkpt>
    <trkpt lat="49.1176960" lon="6.1877950"><ele>176.5</ele></trkpt>
    <trkpt lat="49.1177000" lon="6.1878100"><ele>176.5</ele></trkpt>
    <trkpt lat="49.1176970" lon="6.1878240"><ele>176.2</ele></trkpt>
    <trkpt lat="49.1176870" lon="6.1878320"><ele>176.0</ele></trkpt>
    <trkpt lat="49.1175840" lon="6.1878350"><ele>174.8</ele></trkpt>
    <trkpt lat="49.1175160" lon="6.1878110"><ele>174.0</ele></trkpt>
    <trkpt lat="49.1174540" lon="6.1877450"><ele>174.5</ele></trkpt>
    <trkpt lat="49.1174260" lon="6.1877360"><ele>174.8</ele></trkpt>
    <trkpt lat="49.1174100" lon="6.1875770"><ele>176.8</ele></trkpt>
    <trkpt lat="49.1173930" lon="6.1861480"><ele>173.0</ele></trkpt>
    <trkpt lat="49.1175020" lon="6.1861470"><ele>173.0</ele></trkpt>
    <trkpt lat="49.1175590" lon="6.1861450"><ele>172.0</ele></trkpt>
    <trkpt lat="49.1176250" lon="6.1860280"><ele>172.0</ele></trkpt>
    <trkpt lat="49.1177710" lon="6.1858500"><ele>172.2</ele></trkpt>
    <trkpt lat="49.1178010" lon="6.1858090"><ele>172.2</ele></trkpt>
    <trkpt lat="49.1178170" lon="6.1857490"><ele>172.2</ele></trkpt>
    <trkpt lat="49.1178270" lon="6.1856710"><ele>172.2</ele></trkpt>
    <trkpt lat="49.1178300" lon="6.1855640"><ele>172.5</ele></trkpt>
    <trkpt lat="49.1178320" lon="6.1855250"><ele>172.5</ele></trkpt>
    <trkpt lat="49.1178220" lon="6.1854350"><ele>172.5</ele></trkpt>
    <trkpt lat="49.1178070" lon="6.1853590"><ele>172.5</ele></trkpt>
    <trkpt lat="49.1177970" lon="6.1852170"><ele>172.5</ele></trkpt>
    <trkpt lat="49.1177950" lon="6.1851900"><ele>172.8</ele></trkpt>
    <trkpt lat="49.1178230" lon="6.1851770"><ele>172.8</ele></trkpt>
    <trkpt lat="49.1178150" lon="6.1851240"><ele>172.8</ele></trkpt>
    <trkpt lat="49.1178090" lon="6.1850790"><ele>172.8</ele></trkpt>
    <trkpt lat="49.1178390" lon="6.1850720"><ele>172.8</ele></trkpt>
    <trkpt lat="49.1178300" lon="6.1849900"><ele>172.8</ele></trkpt>
    <trkpt lat="49.1177790" lon="6.1850040"><ele>172.8</ele></trkpt>
    <trkpt lat="49.1177740" lon="6.1848800"><ele>172.5</ele></trkpt>
    <trkpt lat="49.1177740" lon="6.1848590"><ele>172.2</ele></trkpt>
    <trkpt lat="49.1177720" lon="6.1848150"><ele>172.2</ele></trkpt>
    <trkpt lat="49.1177670" lon="6.1846580"><ele>172.0</ele></trkpt>
    <trkpt lat="49.1177430" lon="6.1839440"><ele>171.2</ele></trkpt>
    <trkpt lat="49.1177170" lon="6.1832730"><ele>171.0</ele></trkpt>
    <trkpt lat="49.1177160" lon="6.1832350"><ele>171.0</ele></trkpt>
    <trkpt lat="49.1177130" lon="6.1831370"><ele>171.0</ele></trkpt>
    <trkpt lat="49.1177080" lon="6.1830570"><ele>171.0</ele></trkpt>
    <trkpt lat="49.1177060" lon="6.1830180"><ele>171.2</ele></trkpt>
    <trkpt lat="49.1176860" lon="6.1826620"><ele>171.0</ele></trkpt>
    <trkpt lat="49.1176890" lon="6.1824910"><ele>171.0</ele></trkpt>
    <trkpt lat="49.1177000" lon="6.1823110"><ele>171.0</ele></trkpt>
    <trkpt lat="49.1177420" lon="6.1819420"><ele>171.0</ele></trkpt>
    <trkpt lat="49.1177620" lon="6.1817930"><ele>171.0</ele></trkpt>
    <trkpt lat="49.1177220" lon="6.1817350"><ele>171.0</ele></trkpt>
    <trkpt lat="49.1176870" lon="6.1816500"><ele>170.8</ele></trkpt>
    <trkpt lat="49.1174780" lon="6.1811380"><ele>170.0</ele></trkpt>
    <trkpt lat="49.1174330" lon="6.1810260"><ele>170.0</ele></trkpt>
    <trkpt lat="49.1174070" lon="6.1809630"><ele>170.0</ele></trkpt>
    <trkpt lat="49.1173670" lon="6.1809000"><ele>170.0</ele></trkpt>
    <trkpt lat="49.1169900" lon="6.1802980"><ele>169.0</ele></trkpt>
    <trkpt lat="49.1169210" lon="6.1801880"><ele>169.0</ele></trkpt>
    <trkpt lat="49.1168720" lon="6.1801100"><ele>169.0</ele></trkpt>
    <trkpt lat="49.1168190" lon="6.1800400"><ele>169.0</ele></trkpt>
    <trkpt lat="49.1168050" lon="6.1800200"><ele>169.0</ele></trkpt>
    <trkpt lat="49.1167810" lon="6.1799840"><ele>169.0</ele></trkpt>
    <trkpt lat="49.1167340" lon="6.1798660"><ele>169.0</ele></trkpt>
    <trkpt lat="49.1167240" lon="6.1798020"><ele>169.0</ele></trkpt>
    <trkpt lat="49.1167200" lon="6.1795940"><ele>169.0</ele></trkpt>
    <trkpt lat="49.1167260" lon="6.1794470"><ele>169.0</ele></trkpt>
    <trkpt lat="49.1167370" lon="6.1791540"><ele>169.8</ele></trkpt>
    <trkpt lat="49.1167390" lon="6.1791100"><ele>170.0</ele></trkpt>
    <trkpt lat="49.1167410" lon="6.1790470"><ele>170.0</ele></trkpt>
    <trkpt lat="49.1167480" lon="6.1788700"><ele>170.0</ele></trkpt>
    <trkpt lat="49.1167490" lon="6.1788320"><ele>170.2</ele></trkpt>
    <trkpt lat="49.1167550" lon="6.1787960"><ele>170.5</ele></trkpt>
    <trkpt lat="49.1167900" lon="6.1785530"><ele>172.2</ele></trkpt>
    <trkpt lat="49.1168450" lon="6.1782950"><ele>173.2</ele></trkpt>
    <trkpt lat="49.1168970" lon="6.1780910"><ele>173.0</ele></trkpt>
    <trkpt lat="49.1166880" lon="6.1779150"><ele>173.5</ele></trkpt>
    <trkpt lat="49.1164140" lon="6.1776850"><ele>173.8</ele></trkpt>
    <trkpt lat="49.1163770" lon="6.1776540"><ele>174.0</ele></trkpt>
    <trkpt lat="49.1163200" lon="6.1776130"><ele>174.0</ele></trkpt>
    <trkpt lat="49.1161750" lon="6.1775060"><ele>174.0</ele></trkpt>
    <trkpt lat="49.1160140" lon="6.1774070"><ele>174.0</ele></trkpt>
    <trkpt lat="49.1158090" lon="6.1772820"><ele>174.0</ele></trkpt>
    <trkpt lat="49.1155220" lon="6.1770330"><ele>175.0</ele></trkpt>
    <trkpt lat="49.1153870" lon="6.1768670"><ele>174.0</ele></trkpt>
  </trkseg></trk>
</gpx>