<?xml version="1.0" encoding="UTF-8"?>
<kml xmlns="http://www.opengis.net/kml/2.2"><Document>
  <name>La Seille et le Sablon</name><description>4.9 km. D+ 10 m. 29 % de chemins. La descente vers le Sablon, puis la remontee par les jardins Pelt et le parc de la Seille : on rentre le long de l'eau, a plat et sur l'herbe.</description>
  <Style id="depart"><IconStyle><scale>1.2</scale><Icon><href>http://maps.google.com/mapfiles/kml/paddle/grn-circle.png</href></Icon></IconStyle></Style>
  <Style id="etape"><IconStyle><Icon><href>http://maps.google.com/mapfiles/kml/paddle/wht-blank.png</href></Icon></IconStyle></Style>
    <Placemark><name>Depart : Rue des Parmentiers, Metz</name><description>Depart des deux boucles vers Borny, dans la Nouvelle Ville. A dix minutes a pied de la gare, dont il partage les commodites.</description><styleUrl>#depart</styleUrl><Point><coordinates>6.1768700,49.1153870,0</coordinates></Point></Placemark>
    <Placemark><name>1. Gare de Metz, parvis</name><description>Point de ralliement des boucles a pied : a moins d'un quart d'heure de marche pour tout le monde. Abrite, cafe ouvert tot, toilettes.</description><styleUrl>#etape</styleUrl><Point><coordinates>6.1770130,49.1092770,0</coordinates></Point></Placemark>
    <Placemark><name>2. Square Loiseau de Persuis, Sablon</name><description>Coeur du Sablon, a mi-chemin entre la gare et les roselieres.</description><styleUrl>#etape</styleUrl><Point><coordinates>6.1783190,49.1007230,0</coordinates></Point></Placemark>
    <Placemark><name>3. Jardins Jean-Marie Pelt</name><description>Prolongement sud du parc de la Seille, prairies et passerelles.</description><styleUrl>#etape</styleUrl><Point><coordinates>6.1857570,49.1065930,0</coordinates></Point></Placemark>
    <Placemark><name>4. Parc de la Seille</name><description>Prairies humides et roselieres au bord de la Seille. Herons.</description><styleUrl>#etape</styleUrl><Point><coordinates>6.1849680,49.1066100,0</coordinates></Point></Placemark>
    <Style id="t1"><LineStyle><color>ff7C6A3F</color><width>4</width></LineStyle></Style>
    <Placemark><name>La Seille et le Sablon</name><description>4.9 km. D+ 10 m. 29 % de chemins. La descente vers le Sablon, puis la remontee par les jardins Pelt et le parc de la Seille : on rentre le long de l'eau, a plat et sur l'herbe.</description><styleUrl>#t1</styleUrl><LineString><tessellate>1</tessellate><coordinates>6.1768670,49.1153870,174 6.1766270,49.1151930,174 6.1763740,49.1150400,174 6.1761790,49.1149300,174 6.1761630,49.1149200,174 6.1759210,49.1147900,174 6.1763650,49.1146430,174 6.1766400,49.1145180,174 6.1770090,49.1143590,174 6.1769710,49.1143230,174 6.1769480,49.1143010,174 6.1768800,49.1142300,174 6.1768190,49.1141940,174 6.1764480,49.1140080,174 6.1763770,49.1139730,174 6.1764170,49.1139380,174 6.1765460,49.1138400,174 6.1766900,49.1137550,173 6.1771290,49.1134950,172 6.1772320,49.1134340,172 6.1772110,49.1134190,172 6.1771580,49.1133810,172 6.1770930,49.1133110,172 6.1770840,49.1131200,173 6.1770730,49.1128790,172 6.1770910,49.1128480,172 6.1771630,49.1127910,172 6.1771240,49.1126890,172 6.1771060,49.1126360,172 6.1770810,49.1123240,172 6.1771020,49.1123020,172 6.1770720,49.1122290,173 6.1770620,49.1121780,173 6.1770570,49.1121110,173 6.1770450,49.1120240,173 6.1770250,49.1118110,173 6.1770220,49.1117780,173 6.1770240,49.1117430,174 6.1770900,49.1117400,173 6.1771600,49.1117280,173 6.1771580,49.1116960,173 6.1771560,49.1116650,173 6.1771560,49.1116320,173 6.1771550,49.1115790,173 6.1771530,49.1114960,174 6.1771520,49.1114620,174 6.1771540,49.1114050,174 6.1771150,49.1113850,174 6.1771080,49.1113740,174 6.1771340,49.1109830,174 6.1771360,49.1107120,174 6.1771460,49.1106040,174 6.1771470,49.1105950,174 6.1771500,49.1105680,174 6.1770570,49.1105310,174 6.1769460,49.1104880,174 6.1769440,49.1104060,174 6.1766380,49.1102540,174 6.1766610,49.1102330,174 6.1767370,49.1101660,174 6.1767800,49.1101280,174 6.1769620,49.1100150,174 6.1770100,49.1099770,174 6.1770060,49.1099000,176 6.1770370,49.1098720,176 6.1771340,49.1097880,178 6.1773040,49.1096300,180 6.1773630,49.1095730,180 6.1773130,49.1095400,180 6.1772910,49.1095290,180 6.1771660,49.1094690,180 6.1771030,49.1094370,180 6.1771540,49.1093930,180 6.1769770,49.1093080,179 6.1771540,49.1093930,180 6.1771030,49.1094370,180 6.1771660,49.1094690,180 6.1772910,49.1095290,180 6.1773130,49.1095400,180 6.1773630,49.1095730,180 6.1774310,49.1096070,180 6.1774510,49.1095900,180 6.1776440,49.1094230,179 6.1777310,49.1093450,179 6.1778550,49.1092350,179 6.1779350,49.1091650,179 6.1781230,49.1090000,179 6.1785370,49.1086340,176 6.1785780,49.1085970,176 6.1789650,49.1086370,174 6.1790320,49.1086290,174 6.1792300,49.1086030,172 6.1794770,49.1085900,172 6.1795900,49.1084890,172 6.1796210,49.1084460,172 6.1796610,49.1084180,172 6.1794600,49.1082810,172 6.1791090,49.1080580,170 6.1792220,49.1079530,172 6.1792570,49.1078480,174 6.1791630,49.1078230,175 6.1791290,49.1077910,175 6.1791160,49.1077560,175 6.1791480,49.1075750,174 6.1791580,49.1075590,174 6.1791790,49.1075560,174 6.1791850,49.1075080,174 6.1791920,49.1074580,173 6.1791970,49.1074210,173 6.1791980,49.1074090,172 6.1792010,49.1073880,172 6.1793030,49.1073940,172 6.1793070,49.1073610,172 6.1793120,49.1073310,171 6.1793180,49.1072870,171 6.1793190,49.1072750,170 6.1792880,49.1072430,170 6.1792830,49.1072120,170 6.1792680,49.1072110,170 6.1792250,49.1072090,170 6.1791730,49.1072070,170 6.1791320,49.1072050,170 6.1791450,49.1071530,170 6.1791200,49.1071560,170 6.1790740,49.1071570,170 6.1785570,49.1071240,170 6.1784740,49.1071130,170 6.1784050,49.1070880,170 6.1782550,49.1070150,170 6.1780970,49.1069090,170 6.1789090,49.1064410,169 6.1789310,49.1064140,169 6.1789930,49.1059670,169 6.1789410,49.1059530,169 6.1788870,49.1059190,169 6.1786500,49.1056310,169 6.1786180,49.1055780,169 6.1785940,49.1055450,169 6.1785480,49.1054960,169 6.1785180,49.1054540,170 6.1784870,49.1054230,170 6.1784140,49.1053480,170 6.1783100,49.1051920,170 6.1782230,49.1050560,170 6.1781960,49.1049330,170 6.1781740,49.1048840,170 6.1781140,49.1047660,170 6.1780890,49.1047120,170 6.1780570,49.1046950,170 6.1780210,49.1046760,170 6.1779900,49.1046160,170 6.1779200,49.1044620,170 6.1778990,49.1044200,170 6.1778950,49.1043880,170 6.1778780,49.1043410,170 6.1778640,49.1043220,170 6.1777970,49.1041410,170 6.1777560,49.1040230,170 6.1777200,49.1038950,170 6.1776890,49.1037880,170 6.1776620,49.1036890,170 6.1776350,49.1035970,170 6.1776090,49.1035040,170 6.1775870,49.1033650,171 6.1775940,49.1033310,171 6.1775570,49.1032330,171 6.1775890,49.1032280,171 6.1776180,49.1032230,171 6.1776760,49.1032170,171 6.1777360,49.1032110,171 6.1776920,49.1030350,171 6.1776380,49.1027410,170 6.1776830,49.1026450,170 6.1776480,49.1022740,170 6.1776420,49.1018880,170 6.1776640,49.1018880,170 6.1779130,49.1019090,170 6.1779230,49.1018740,170 6.1780250,49.1018440,170 6.1781700,49.1018430,170 6.1782910,49.1018260,170 6.1783480,49.1018310,170 6.1783560,49.1017870,170 6.1785460,49.1017870,170 6.1785300,49.1016580,170 6.1785380,49.1015960,170 6.1785020,49.1015950,170 6.1785090,49.1015640,170 6.1785170,49.1015260,170 6.1785510,49.1013740,170 6.1783980,49.1013600,170 6.1783810,49.1013060,170 6.1783960,49.1012490,170 6.1783840,49.1012250,170 6.1782930,49.1010420,170 6.1783260,49.1009210,170 6.1783510,49.1007190,170 6.1783200,49.1007150,170 6.1783510,49.1007190,170 6.1783260,49.1009210,170 6.1782930,49.1010420,170 6.1783840,49.1012250,170 6.1783960,49.1012490,170 6.1783810,49.1013060,170 6.1783980,49.1013600,170 6.1785510,49.1013740,170 6.1785170,49.1015260,170 6.1785090,49.1015640,170 6.1785020,49.1015950,170 6.1785380,49.1015960,170 6.1785300,49.1016580,170 6.1785460,49.1017870,170 6.1788010,49.1018110,170 6.1790490,49.1018330,170 6.1793020,49.1018600,170 6.1795110,49.1018780,170 6.1795410,49.1018810,170 6.1795740,49.1018840,170 6.1797050,49.1018270,170 6.1797650,49.1018070,170 6.1798120,49.1018490,170 6.1798110,49.1018780,170 6.1799110,49.1018840,170 6.1799990,49.1018890,170 6.1799840,49.1020120,170 6.1799980,49.1020440,170 6.1799510,49.1023310,170 6.1799340,49.1023620,169 6.1799180,49.1025050,169 6.1799380,49.1025230,169 6.1799300,49.1025300,169 6.1799250,49.1025700,169 6.1803190,49.1025790,170 6.1818510,49.1026200,172 6.1819780,49.1026230,172 6.1819930,49.1027860,172 6.1820040,49.1030720,172 6.1820050,49.1031530,172 6.1820070,49.1033510,172 6.1819930,49.1036840,172 6.1819880,49.1037640,172 6.1819810,49.1038910,172 6.1819740,49.1039690,172 6.1819320,49.1043440,172 6.1819300,49.1043830,172 6.1819280,49.1044030,172 6.1819970,49.1044090,172 6.1820430,49.1044130,172 6.1820990,49.1044690,172 6.1820880,49.1045110,172 6.1827110,49.1045840,171 6.1827860,49.1045920,171 6.1827680,49.1046620,171 6.1829360,49.1046810,170 6.1829260,49.1047200,170 6.1829800,49.1047260,170 6.1830460,49.1047320,169 6.1831930,49.1047470,169 6.1834260,49.1047580,170 6.1836540,49.1047810,170 6.1837500,49.1048020,170 6.1838100,49.1048240,170 6.1838460,49.1048890,170 6.1839220,49.1048930,169 6.1840080,49.1048970,169 6.1839600,49.1051830,170 6.1842910,49.1052610,170 6.1843310,49.1052710,170 6.1842580,49.1057230,170 6.1844420,49.1057350,170 6.1850890,49.1057780,169 6.1851930,49.1057870,169 6.1852920,49.1057910,169 6.1853020,49.1057920,169 6.1853150,49.1057930,168 6.1853470,49.1057950,168 6.1853860,49.1057970,168 6.1854240,49.1058000,168 6.1855070,49.1058050,167 6.1855360,49.1059540,167 6.1855950,49.1060930,166 6.1854740,49.1062390,167 6.1854540,49.1062780,167 6.1854800,49.1062830,167 6.1855000,49.1062950,166 6.1855390,49.1063380,166 6.1855610,49.1064330,166 6.1855940,49.1065220,166 6.1856540,49.1066190,165 6.1856660,49.1066380,165 6.1856730,49.1066710,165 6.1854630,49.1066560,166 6.1853470,49.1066420,168 6.1853250,49.1066420,168 6.1852180,49.1066400,168 6.1851740,49.1066390,168 6.1851470,49.1066370,169 6.1850780,49.1066320,169 6.1849620,49.1066240,170 6.1849640,49.1066090,169 6.1849620,49.1066240,170 6.1847110,49.1066060,170 6.1839010,49.1074370,170 6.1838590,49.1074340,170 6.1836340,49.1074180,170 6.1836170,49.1075120,170 6.1834120,49.1075020,170 6.1833290,49.1074970,170 6.1832440,49.1074910,170 6.1832290,49.1075150,170 6.1831850,49.1075310,170 6.1830140,49.1075180,171 6.1830050,49.1075710,172 6.1829990,49.1076110,172 6.1829890,49.1077060,172 6.1829870,49.1077260,173 6.1825490,49.1076960,171 6.1812390,49.1076120,171 6.1811800,49.1076210,171 6.1811230,49.1076290,171 6.1810350,49.1076610,171 6.1809750,49.1077000,171 6.1809290,49.1077440,171 6.1807420,49.1080150,171 6.1806420,49.1081610,171 6.1803450,49.1086530,172 6.1802700,49.1086080,172 6.1802210,49.1087830,172 6.1801550,49.1088080,172 6.1801180,49.1088420,172 6.1800570,49.1089470,172 6.1801370,49.1089690,172 6.1801890,49.1089850,173 6.1801350,49.1090570,173 6.1798980,49.1094690,173 6.1790850,49.1108380,172 6.1790420,49.1109020,172 6.1790250,49.1109300,172 6.1791430,49.1109830,172 6.1790440,49.1110830,172 6.1790080,49.1111160,172 6.1789390,49.1111550,172 6.1789100,49.1112790,172 6.1788200,49.1115270,172 6.1788020,49.1115870,172 6.1787750,49.1116760,172 6.1787570,49.1117320,172 6.1787390,49.1117920,172 6.1787140,49.1118060,172 6.1786900,49.1118380,172 6.1786240,49.1118290,172 6.1785990,49.1118250,172 6.1785410,49.1118160,172 6.1784030,49.1122030,172 6.1784020,49.1122710,172 6.1784370,49.1123030,172 6.1784750,49.1123560,172 6.1784690,49.1125250,171 6.1784690,49.1125350,171 6.1784850,49.1126330,171 6.1784890,49.1126550,171 6.1784930,49.1126750,171 6.1785190,49.1127060,171 6.1785030,49.1128520,171 6.1784810,49.1129500,171 6.1784310,49.1132230,171 6.1784080,49.1133240,171 6.1783750,49.1133740,171 6.1783200,49.1134780,171 6.1782470,49.1135520,171 6.1782480,49.1136600,171 6.1782300,49.1138140,171 6.1782120,49.1138680,171 6.1781770,49.1139240,171 6.1781230,49.1139770,171 6.1780930,49.1140020,171 6.1780590,49.1140180,171 6.1773110,49.1142490,172 6.1771560,49.1143000,173 6.1770090,49.1143590,174 6.1766400,49.1145180,174 6.1763650,49.1146430,174 6.1759210,49.1147900,174 6.1761630,49.1149200,174 6.1761790,49.1149300,174 6.1763740,49.1150400,174 6.1766270,49.1151930,174 6.1768670,49.1153870,175</coordinates></LineString></Placemark>
</Document></kml>