<?xml version="1.0" encoding="UTF-8"?>
<gpx version="1.1" creator="olifant"
     xmlns="http://www.topografix.com/GPX/1/1"
     xmlns:xsi="http://www.w3.org/2001/XMLSchema-instance"
     xsi:schemaLocation="http://www.topografix.com/GPX/1/1 http://www.topografix.com/GPX/1/1/gpx.xsd">
  <metadata><name>La Seille et le fort de Queuleu</name><desc>10.3 km. D+ 61 m. 47 % de chemins. La plus courte, et deja presque moitie chemin : les roselieres de la Seille, le bois du fort de Queuleu, le coteau du Pas du Loup, retour par les jardins de Montigny.</desc></metadata>
  <wpt lat="49.1092770" lon="6.1770130"><name>Gare de Metz, parvis</name><desc>Point de ralliement des boucles a pied : a moins d'un quart d'heure de marche pour tout le monde. Abrite, cafe ouvert tot, toilettes.</desc></wpt>
  <wpt lat="49.1066100" lon="6.1849680"><name>Parc de la Seille</name><desc>Prairies humides et roselieres au bord de la Seille. Herons.</desc></wpt>
  <wpt lat="49.0984520" lon="6.1954340"><name>Fort de Queuleu</name><desc>Fort du XIXe siecle, memorial de la Resistance. Le bois autour est ouvert et sillonne de chemins.</desc></wpt>
  <wpt lat="49.0893650" lon="6.1900890"><name>Parc du Pas du Loup</name><desc>Coteau boise au sud du fort de Queuleu, sentiers en terre.</desc></wpt>
  <wpt lat="49.0874750" lon="6.1631230"><name>Montigny-les-Metz</name><desc>Retour par le sud, jardins ouvriers et bord de Moselle.</desc></wpt>
  <trk><name>La Seille et le fort de Queuleu</name><trkseg>
    <trkpt lat="49.1093080" lon="6.1769770"><ele>179.5</ele></trkpt>
    <trkpt lat="49.1093930" lon="6.1771540"><ele>179.8</ele></trkpt>
    <trkpt lat="49.1094370" lon="6.1771030"><ele>179.8</ele></trkpt>
    <trkpt lat="49.1094690" lon="6.1771660"><ele>179.8</ele></trkpt>
    <trkpt lat="49.1095290" lon="6.1772910"><ele>179.8</ele></trkpt>
    <trkpt lat="49.1095400" lon="6.1773130"><ele>179.8</ele></trkpt>
    <trkpt lat="49.1095730" lon="6.1773630"><ele>179.5</ele></trkpt>
    <trkpt lat="49.1096070" lon="6.1774310"><ele>179.5</ele></trkpt>
    <trkpt lat="49.1095900" lon="6.1774510"><ele>179.5</ele></trkpt>
    <trkpt lat="49.1094230" lon="6.1776440"><ele>179.0</ele></trkpt>
    <trkpt lat="49.1093450" lon="6.1777310"><ele>179.0</ele></trkpt>
    <trkpt lat="49.1092350" lon="6.1778550"><ele>179.0</ele></trkpt>
    <trkpt lat="49.1091650" lon="6.1779350"><ele>178.8</ele></trkpt>
    <trkpt lat="49.1090000" lon="6.1781230"><ele>179.0</ele></trkpt>
    <trkpt lat="49.1086340" lon="6.1785370"><ele>176.5</ele></trkpt>
    <trkpt lat="49.1085970" lon="6.1785780"><ele>175.8</ele></trkpt>
    <trkpt lat="49.1086370" lon="6.1789650"><ele>174.5</ele></trkpt>
    <trkpt lat="49.1086290" lon="6.1790320"><ele>173.5</ele></trkpt>
    <trkpt lat="49.1086030" lon="6.1792300"><ele>171.8</ele></trkpt>
    <trkpt lat="49.1085900" lon="6.1794770"><ele>171.8</ele></trkpt>
    <trkpt lat="49.1084890" lon="6.1795900"><ele>171.8</ele></trkpt>
    <trkpt lat="49.1086990" lon="6.1799530"><ele>172.0</ele></trkpt>
    <trkpt lat="49.1087230" lon="6.1800090"><ele>172.0</ele></trkpt>
    <trkpt lat="49.1087070" lon="6.1800320"><ele>172.0</ele></trkpt>
    <trkpt lat="49.1086810" lon="6.1800720"><ele>172.0</ele></trkpt>
    <trkpt lat="49.1086560" lon="6.1801050"><ele>172.0</ele></trkpt>
    <trkpt lat="49.1086420" lon="6.1801210"><ele>172.0</ele></trkpt>
    <trkpt lat="49.1085990" lon="6.1801710"><ele>172.0</ele></trkpt>
    <trkpt lat="49.1085640" lon="6.1801950"><ele>172.0</ele></trkpt>
    <trkpt lat="49.1083640" lon="6.1803040"><ele>171.8</ele></trkpt>
    <trkpt lat="49.1081720" lon="6.1804210"><ele>171.5</ele></trkpt>
    <trkpt lat="49.1081500" lon="6.1804690"><ele>171.5</ele></trkpt>
    <trkpt lat="49.1080360" lon="6.1805360"><ele>171.0</ele></trkpt>
    <trkpt lat="49.1080420" lon="6.1806140"><ele>171.0</ele></trkpt>
    <trkpt lat="49.1080150" lon="6.1807420"><ele>171.0</ele></trkpt>
    <trkpt lat="49.1077440" lon="6.1809290"><ele>171.0</ele></trkpt>
    <trkpt lat="49.1077000" lon="6.1809750"><ele>171.0</ele></trkpt>
    <trkpt lat="49.1076610" lon="6.1810350"><ele>171.0</ele></trkpt>
    <trkpt lat="49.1076290" lon="6.1811230"><ele>171.0</ele></trkpt>
    <trkpt lat="49.1076210" lon="6.1811800"><ele>171.0</ele></trkpt>
    <trkpt lat="49.1076120" lon="6.1812390"><ele>171.0</ele></trkpt>
    <trkpt lat="49.1076960" lon="6.1825490"><ele>171.0</ele></trkpt>
    <trkpt lat="49.1077260" lon="6.1829870"><ele>172.8</ele></trkpt>
    <trkpt lat="49.1077060" lon="6.1829890"><ele>172.5</ele></trkpt>
    <trkpt lat="49.1076110" lon="6.1829990"><ele>171.8</ele></trkpt>
    <trkpt lat="49.1075710" lon="6.1830050"><ele>171.5</ele></trkpt>
    <trkpt lat="49.1075180" lon="6.1830140"><ele>171.0</ele></trkpt>
    <trkpt lat="49.1075310" lon="6.1831850"><ele>170.5</ele></trkpt>
    <trkpt lat="49.1075150" lon="6.1832290"><ele>170.2</ele></trkpt>
    <trkpt lat="49.1074910" lon="6.1832440"><ele>170.2</ele></trkpt>
    <trkpt lat="49.1074970" lon="6.1833290"><ele>170.0</ele></trkpt>
    <trkpt lat="49.1075020" lon="6.1834120"><ele>170.0</ele></trkpt>
    <trkpt lat="49.1075120" lon="6.1836170"><ele>170.0</ele></trkpt>
    <trkpt lat="49.1074180" lon="6.1836340"><ele>170.0</ele></trkpt>
    <trkpt lat="49.1074340" lon="6.1838590"><ele>170.0</ele></trkpt>
    <trkpt lat="49.1074370" lon="6.1839010"><ele>169.8</ele></trkpt>
    <trkpt lat="49.1066060" lon="6.1847110"><ele>169.8</ele></trkpt>
    <trkpt lat="49.1066240" lon="6.1849620"><ele>169.8</ele></trkpt>
    <trkpt lat="49.1066090" lon="6.1849640"><ele>168.8</ele></trkpt>
    <trkpt lat="49.1063120" lon="6.1850090"><ele>168.8</ele></trkpt>
    <trkpt lat="49.1061660" lon="6.1851430"><ele>168.8</ele></trkpt>
    <trkpt lat="49.1060850" lon="6.1852270"><ele>169.0</ele></trkpt>
    <trkpt lat="49.1058050" lon="6.1855070"><ele>167.2</ele></trkpt>
    <trkpt lat="49.1055370" lon="6.1857570"><ele>166.0</ele></trkpt>
    <trkpt lat="49.1053470" lon="6.1856800"><ele>166.0</ele></trkpt>
    <trkpt lat="49.1051920" lon="6.1856370"><ele>166.2</ele></trkpt>
    <trkpt lat="49.1049580" lon="6.1856370"><ele>166.2</ele></trkpt>
    <trkpt lat="49.1048890" lon="6.1856480"><ele>166.2</ele></trkpt>
    <trkpt lat="49.1047800" lon="6.1856840"><ele>166.0</ele></trkpt>
    <trkpt lat="49.1046910" lon="6.1857520"><ele>165.2</ele></trkpt>
    <trkpt lat="49.1045240" lon="6.1858460"><ele>165.2</ele></trkpt>
    <trkpt lat="49.1043850" lon="6.1858970"><ele>166.0</ele></trkpt>
    <trkpt lat="49.1042080" lon="6.1859790"><ele>166.2</ele></trkpt>
    <trkpt lat="49.1039590" lon="6.1860670"><ele>165.2</ele></trkpt>
    <trkpt lat="49.1034710" lon="6.1860860"><ele>165.5</ele></trkpt>
    <trkpt lat="49.1031920" lon="6.1863350"><ele>165.0</ele></trkpt>
    <trkpt lat="49.1025860" lon="6.1864150"><ele>165.0</ele></trkpt>
    <trkpt lat="49.1021940" lon="6.1864740"><ele>166.0</ele></trkpt>
    <trkpt lat="49.1021550" lon="6.1864800"><ele>166.2</ele></trkpt>
    <trkpt lat="49.1021370" lon="6.1864820"><ele>166.5</ele></trkpt>
    <trkpt lat="49.1021220" lon="6.1864840"><ele>166.8</ele></trkpt>
    <trkpt lat="49.1021060" lon="6.1864870"><ele>167.0</ele></trkpt>
    <trkpt lat="49.1020830" lon="6.1864900"><ele>167.2</ele></trkpt>
    <trkpt lat="49.1020640" lon="6.1864920"><ele>167.5</ele></trkpt>
    <trkpt lat="49.1020450" lon="6.1864950"><ele>167.8</ele></trkpt>
    <trkpt lat="49.1020230" lon="6.1864980"><ele>168.0</ele></trkpt>
    <trkpt lat="49.1020040" lon="6.1865010"><ele>168.2</ele></trkpt>
    <trkpt lat="49.1019670" lon="6.1865050"><ele>168.5</ele></trkpt>
    <trkpt lat="49.1019350" lon="6.1864960"><ele>168.8</ele></trkpt>
    <trkpt lat="49.1018920" lon="6.1867280"><ele>168.5</ele></trkpt>
    <trkpt lat="49.1018400" lon="6.1868080"><ele>168.2</ele></trkpt>
    <trkpt lat="49.1017250" lon="6.1868500"><ele>168.8</ele></trkpt>
    <trkpt lat="49.1013120" lon="6.1869180"><ele>169.0</ele></trkpt>
    <trkpt lat="49.1013220" lon="6.1870680"><ele>169.2</ele></trkpt>
    <trkpt lat="49.1012120" lon="6.1870870"><ele>169.0</ele></trkpt>
    <trkpt lat="49.1009570" lon="6.1871300"><ele>169.0</ele></trkpt>
    <trkpt lat="49.1008470" lon="6.1872290"><ele>169.0</ele></trkpt>
    <trkpt lat="49.1006410" lon="6.1874520"><ele>169.8</ele></trkpt>
    <trkpt lat="49.1006450" lon="6.1874980"><ele>169.8</ele></trkpt>
    <trkpt lat="49.1006370" lon="6.1875000"><ele>169.8</ele></trkpt>
    <trkpt lat="49.1005900" lon="6.1875120"><ele>169.8</ele></trkpt>
    <trkpt lat="49.1005390" lon="6.1875180"><ele>169.5</ele></trkpt>
    <trkpt lat="49.1005420" lon="6.1875850"><ele>168.2</ele></trkpt>
    <trkpt lat="49.1006100" lon="6.1884670"><ele>168.8</ele></trkpt>
    <trkpt lat="49.1005760" lon="6.1884960"><ele>169.0</ele></trkpt>
    <trkpt lat="49.1006010" lon="6.1885710"><ele>169.5</ele></trkpt>
    <trkpt lat="49.1006110" lon="6.1886570"><ele>169.8</ele></trkpt>
    <trkpt lat="49.1006260" lon="6.1887110"><ele>170.0</ele></trkpt>
    <trkpt lat="49.1006890" lon="6.1893440"><ele>173.5</ele></trkpt>
    <trkpt lat="49.1006970" lon="6.1894840"><ele>174.0</ele></trkpt>
    <trkpt lat="49.1006930" lon="6.1897220"><ele>174.8</ele></trkpt>
    <trkpt lat="49.1006880" lon="6.1899800"><ele>175.2</ele></trkpt>
    <trkpt lat="49.1006920" lon="6.1902010"><ele>175.2</ele></trkpt>
    <trkpt lat="49.1007160" lon="6.1905000"><ele>175.5</ele></trkpt>
    <trkpt lat="49.1008020" lon="6.1911310"><ele>175.8</ele></trkpt>
    <trkpt lat="49.1004680" lon="6.1912260"><ele>174.8</ele></trkpt>
    <trkpt lat="49.1004040" lon="6.1912440"><ele>174.5</ele></trkpt>
    <trkpt lat="49.1002020" lon="6.1912920"><ele>174.5</ele></trkpt>
    <trkpt lat="49.1001980" lon="6.1913320"><ele>174.5</ele></trkpt>
    <trkpt lat="49.1001830" lon="6.1913780"><ele>174.8</ele></trkpt>
    <trkpt lat="49.1001410" lon="6.1915380"><ele>176.0</ele></trkpt>
    <trkpt lat="49.1001030" lon="6.1916010"><ele>176.5</ele></trkpt>
    <trkpt lat="49.1000510" lon="6.1917820"><ele>177.0</ele></trkpt>
    <trkpt lat="49.0999620" lon="6.1922070"><ele>178.8</ele></trkpt>
    <trkpt lat="49.0999160" lon="6.1923330"><ele>178.8</ele></trkpt>
    <trkpt lat="49.0998850" lon="6.1923760"><ele>178.8</ele></trkpt>
    <trkpt lat="49.0998380" lon="6.1924630"><ele>178.8</ele></trkpt>
    <trkpt lat="49.0997980" lon="6.1926080"><ele>178.8</ele></trkpt>
    <trkpt lat="49.0997850" lon="6.1927750"><ele>179.0</ele></trkpt>
    <trkpt lat="49.0997990" lon="6.1929260"><ele>179.8</ele></trkpt>
    <trkpt lat="49.0998340" lon="6.1930810"><ele>180.2</ele></trkpt>
    <trkpt lat="49.1000280" lon="6.1935910"><ele>182.0</ele></trkpt>
    <trkpt lat="49.1000410" lon="6.1936250"><ele>182.0</ele></trkpt>
    <trkpt lat="49.0995470" lon="6.1940260"><ele>179.8</ele></trkpt>
    <trkpt lat="49.0994980" lon="6.1940650"><ele>179.8</ele></trkpt>
    <trkpt lat="49.0994790" lon="6.1940790"><ele>179.8</ele></trkpt>
    <trkpt lat="49.0994590" lon="6.1940940"><ele>179.8</ele></trkpt>
    <trkpt lat="49.0991140" lon="6.1944260"><ele>181.8</ele></trkpt>
    <trkpt lat="49.0989540" lon="6.1946190"><ele>182.5</ele></trkpt>
    <trkpt lat="49.0989180" lon="6.1946840"><ele>182.8</ele></trkpt>
    <trkpt lat="49.0988850" lon="6.1947850"><ele>183.0</ele></trkpt>
    <trkpt lat="49.0988640" lon="6.1948910"><ele>183.2</ele></trkpt>
    <trkpt lat="49.0988690" lon="6.1949670"><ele>183.5</ele></trkpt>
    <trkpt lat="49.0988870" lon="6.1950220"><ele>184.0</ele></trkpt>
    <trkpt lat="49.0987100" lon="6.1950980"><ele>183.0</ele></trkpt>
    <trkpt lat="49.0985050" lon="6.1952140"><ele>181.5</ele></trkpt>
    <trkpt lat="49.0984270" lon="6.1952350"><ele>180.2</ele></trkpt>
    <trkpt lat="49.0985050" lon="6.1952140"><ele>181.5</ele></trkpt>
    <trkpt lat="49.0985100" lon="6.1950340"><ele>181.0</ele></trkpt>
    <trkpt lat="49.0985050" lon="6.1948850"><ele>180.2</ele></trkpt>
    <trkpt lat="49.0985150" lon="6.1947710"><ele>179.8</ele></trkpt>
    <trkpt lat="49.0985610" lon="6.1946390"><ele>179.5</ele></trkpt>
    <trkpt lat="49.0986270" lon="6.1943170"><ele>178.5</ele></trkpt>
    <trkpt lat="49.0986510" lon="6.1942190"><ele>178.5</ele></trkpt>
    <trkpt lat="49.0986540" lon="6.1941860"><ele>178.2</ele></trkpt>
    <trkpt lat="49.0985800" lon="6.1941490"><ele>178.0</ele></trkpt>
    <trkpt lat="49.0983820" lon="6.1937840"><ele>177.8</ele></trkpt>
    <trkpt lat="49.0983510" lon="6.1936930"><ele>177.8</ele></trkpt>
    <trkpt lat="49.0983420" lon="6.1936310"><ele>177.8</ele></trkpt>
    <trkpt lat="49.0983520" lon="6.1935260"><ele>177.8</ele></trkpt>
    <trkpt lat="49.0983660" lon="6.1934860"><ele>177.8</ele></trkpt>
    <trkpt lat="49.0984250" lon="6.1933910"><ele>177.5</ele></trkpt>
    <trkpt lat="49.0985060" lon="6.1932360"><ele>177.2</ele></trkpt>
    <trkpt lat="49.0985370" lon="6.1931400"><ele>177.2</ele></trkpt>
    <trkpt lat="49.0985910" lon="6.1930510"><ele>177.0</ele></trkpt>
    <trkpt lat="49.0986330" lon="6.1928660"><ele>176.8</ele></trkpt>
    <trkpt lat="49.0986090" lon="6.1927790"><ele>177.0</ele></trkpt>
    <trkpt lat="49.0986040" lon="6.1926990"><ele>176.5</ele></trkpt>
    <trkpt lat="49.0986100" lon="6.1926610"><ele>176.5</ele></trkpt>
    <trkpt lat="49.0986280" lon="6.1926100"><ele>176.2</ele></trkpt>
    <trkpt lat="49.0985980" lon="6.1925880"><ele>176.2</ele></trkpt>
    <trkpt lat="49.0985750" lon="6.1925560"><ele>176.2</ele></trkpt>
    <trkpt lat="49.0984850" lon="6.1927170"><ele>177.2</ele></trkpt>
    <trkpt lat="49.0984500" lon="6.1927790"><ele>177.5</ele></trkpt>
    <trkpt lat="49.0983490" lon="6.1929740"><ele>177.8</ele></trkpt>
    <trkpt lat="49.0983070" lon="6.1929350"><ele>178.0</ele></trkpt>
    <trkpt lat="49.0982740" lon="6.1929040"><ele>178.0</ele></trkpt>
    <trkpt lat="49.0975010" lon="6.1921610"><ele>185.0</ele></trkpt>
    <trkpt lat="49.0974510" lon="6.1921020"><ele>185.8</ele></trkpt>
    <trkpt lat="49.0974070" lon="6.1920060"><ele>186.5</ele></trkpt>
    <trkpt lat="49.0973440" lon="6.1918720"><ele>187.0</ele></trkpt>
    <trkpt lat="49.0973010" lon="6.1918030"><ele>187.2</ele></trkpt>
    <trkpt lat="49.0972470" lon="6.1917620"><ele>187.8</ele></trkpt>
    <trkpt lat="49.0971430" lon="6.1917410"><ele>188.2</ele></trkpt>
    <trkpt lat="49.0967020" lon="6.1917510"><ele>189.8</ele></trkpt>
    <trkpt lat="49.0966150" lon="6.1917510"><ele>190.0</ele></trkpt>
    <trkpt lat="49.0958860" lon="6.1917700"><ele>190.5</ele></trkpt>
    <trkpt lat="49.0947700" lon="6.1918610"><ele>192.8</ele></trkpt>
    <trkpt lat="49.0938080" lon="6.1919490"><ele>192.2</ele></trkpt>
    <trkpt lat="49.0933360" lon="6.1919660"><ele>189.0</ele></trkpt>
    <trkpt lat="49.0928670" lon="6.1921280"><ele>185.5</ele></trkpt>
    <trkpt lat="49.0927980" lon="6.1921800"><ele>185.0</ele></trkpt>
    <trkpt lat="49.0927160" lon="6.1922950"><ele>185.0</ele></trkpt>
    <trkpt lat="49.0926440" lon="6.1925050"><ele>185.5</ele></trkpt>
    <trkpt lat="49.0924590" lon="6.1926680"><ele>185.5</ele></trkpt>
    <trkpt lat="49.0922260" lon="6.1928080"><ele>186.0</ele></trkpt>
    <trkpt lat="49.0921520" lon="6.1929000"><ele>186.5</ele></trkpt>
    <trkpt lat="49.0919710" lon="6.1929680"><ele>187.5</ele></trkpt>
    <trkpt lat="49.0917390" lon="6.1930420"><ele>187.8</ele></trkpt>
    <trkpt lat="49.0916400" lon="6.1931400"><ele>188.5</ele></trkpt>
    <trkpt lat="49.0914590" lon="6.1934200"><ele>189.2</ele></trkpt>
    <trkpt lat="49.0914110" lon="6.1934730"><ele>189.5</ele></trkpt>
    <trkpt lat="49.0913740" lon="6.1934900"><ele>189.5</ele></trkpt>
    <trkpt lat="49.0913290" lon="6.1934960"><ele>190.0</ele></trkpt>
    <trkpt lat="49.0912830" lon="6.1934590"><ele>190.5</ele></trkpt>
    <trkpt lat="49.0912670" lon="6.1933780"><ele>191.2</ele></trkpt>
    <trkpt lat="49.0912760" lon="6.1932820"><ele>191.8</ele></trkpt>
    <trkpt lat="49.0912970" lon="6.1931800"><ele>192.2</ele></trkpt>
    <trkpt lat="49.0913050" lon="6.1930330"><ele>193.2</ele></trkpt>
    <trkpt lat="49.0912940" lon="6.1929410"><ele>193.8</ele></trkpt>
    <trkpt lat="49.0912730" lon="6.1928770"><ele>194.2</ele></trkpt>
    <trkpt lat="49.0912340" lon="6.1928310"><ele>194.8</ele></trkpt>
    <trkpt lat="49.0911820" lon="6.1928280"><ele>195.2</ele></trkpt>
    <trkpt lat="49.0910780" lon="6.1928900"><ele>196.2</ele></trkpt>
    <trkpt lat="49.0908360" lon="6.1930640"><ele>196.8</ele></trkpt>
    <trkpt lat="49.0907950" lon="6.1930600"><ele>197.2</ele></trkpt>
    <trkpt lat="49.0908370" lon="6.1928220"><ele>198.5</ele></trkpt>
    <trkpt lat="49.0908630" lon="6.1925430"><ele>200.8</ele></trkpt>
    <trkpt lat="49.0908720" lon="6.1923060"><ele>201.8</ele></trkpt>
    <trkpt lat="49.0908700" lon="6.1921890"><ele>202.0</ele></trkpt>
    <trkpt lat="49.0908000" lon="6.1919990"><ele>203.0</ele></trkpt>
    <trkpt lat="49.0907450" lon="6.1919370"><ele>203.2</ele></trkpt>
    <trkpt lat="49.0907220" lon="6.1916020"><ele>203.0</ele></trkpt>
    <trkpt lat="49.0906890" lon="6.1914910"><ele>203.0</ele></trkpt>
    <trkpt lat="49.0906270" lon="6.1913860"><ele>202.8</ele></trkpt>
    <trkpt lat="49.0905440" lon="6.1912830"><ele>202.8</ele></trkpt>
    <trkpt lat="49.0903640" lon="6.1911660"><ele>202.2</ele></trkpt>
    <trkpt lat="49.0902270" lon="6.1911200"><ele>202.0</ele></trkpt>
    <trkpt lat="49.0898550" lon="6.1910450"><ele>201.5</ele></trkpt>
    <trkpt lat="49.0897650" lon="6.1909690"><ele>200.5</ele></trkpt>
    <trkpt lat="49.0897530" lon="6.1908350"><ele>199.2</ele></trkpt>
    <trkpt lat="49.0897560" lon="6.1906600"><ele>198.0</ele></trkpt>
    <trkpt lat="49.0897790" lon="6.1904450"><ele>196.5</ele></trkpt>
    <trkpt lat="49.0898260" lon="6.1901750"><ele>194.2</ele></trkpt>
    <trkpt lat="49.0898180" lon="6.1900410"><ele>193.8</ele></trkpt>
    <trkpt lat="49.0897900" lon="6.1899040"><ele>193.2</ele></trkpt>
    <trkpt lat="49.0896440" lon="6.1897570"><ele>192.5</ele></trkpt>
    <trkpt lat="49.0894580" lon="6.1896360"><ele>190.8</ele></trkpt>
    <trkpt lat="49.0894220" lon="6.1896250"><ele>189.8</ele></trkpt>
    <trkpt lat="49.0894580" lon="6.1896360"><ele>190.8</ele></trkpt>
    <trkpt lat="49.0896440" lon="6.1897570"><ele>192.5</ele></trkpt>
    <trkpt lat="49.0897900" lon="6.1899040"><ele>193.2</ele></trkpt>
    <trkpt lat="49.0898040" lon="6.1897860"><ele>193.0</ele></trkpt>
    <trkpt lat="49.0898100" lon="6.1895460"><ele>191.5</ele></trkpt>
    <trkpt lat="49.0897730" lon="6.1893760"><ele>190.2</ele></trkpt>
    <trkpt lat="49.0896660" lon="6.1885010"><ele>187.8</ele></trkpt>
    <trkpt lat="49.0896380" lon="6.1883230"><ele>186.0</ele></trkpt>
    <trkpt lat="49.0896140" lon="6.1881940"><ele>185.2</ele></trkpt>
    <trkpt lat="49.0895600" lon="6.1880300"><ele>184.2</ele></trkpt>
    <trkpt lat="49.0894640" lon="6.1878870"><ele>184.8</ele></trkpt>
    <trkpt lat="49.0893620" lon="6.1877720"><ele>185.0</ele></trkpt>
    <trkpt lat="49.0891900" lon="6.1876280"><ele>184.5</ele></trkpt>
    <trkpt lat="49.0891130" lon="6.1875800"><ele>184.5</ele></trkpt>
    <trkpt lat="49.0889980" lon="6.1875260"><ele>184.5</ele></trkpt>
    <trkpt lat="49.0890060" lon="6.1874740"><ele>183.8</ele></trkpt>
    <trkpt lat="49.0891690" lon="6.1874070"><ele>181.2</ele></trkpt>
    <trkpt lat="49.0892500" lon="6.1873930"><ele>179.5</ele></trkpt>
    <trkpt lat="49.0893060" lon="6.1873730"><ele>178.2</ele></trkpt>
    <trkpt lat="49.0893460" lon="6.1871820"><ele>175.8</ele></trkpt>
    <trkpt lat="49.0893470" lon="6.1870980"><ele>175.5</ele></trkpt>
    <trkpt lat="49.0893370" lon="6.1870130"><ele>175.0</ele></trkpt>
    <trkpt lat="49.0892780" lon="6.1868340"><ele>174.8</ele></trkpt>
    <trkpt lat="49.0892060" lon="6.1865860"><ele>173.5</ele></trkpt>
    <trkpt lat="49.0891920" lon="6.1864800"><ele>173.0</ele></trkpt>
    <trkpt lat="49.0891850" lon="6.1862970"><ele>172.0</ele></trkpt>
    <trkpt lat="49.0891410" lon="6.1860950"><ele>170.8</ele></trkpt>
    <trkpt lat="49.0891340" lon="6.1859800"><ele>169.8</ele></trkpt>
    <trkpt lat="49.0891260" lon="6.1859440"><ele>169.5</ele></trkpt>
    <trkpt lat="49.0891940" lon="6.1859090"><ele>169.2</ele></trkpt>
    <trkpt lat="49.0892250" lon="6.1858830"><ele>169.2</ele></trkpt>
    <trkpt lat="49.0892820" lon="6.1858150"><ele>169.0</ele></trkpt>
    <trkpt lat="49.0893050" lon="6.1857730"><ele>169.0</ele></trkpt>
    <trkpt lat="49.0893330" lon="6.1857150"><ele>169.0</ele></trkpt>
    <trkpt lat="49.0892290" lon="6.1855460"><ele>168.8</ele></trkpt>
    <trkpt lat="49.0894050" lon="6.1853500"><ele>168.2</ele></trkpt>
    <trkpt lat="49.0894370" lon="6.1852320"><ele>168.0</ele></trkpt>
    <trkpt lat="49.0894490" lon="6.1851180"><ele>167.8</ele></trkpt>
    <trkpt lat="49.0894450" lon="6.1849750"><ele>167.8</ele></trkpt>
    <trkpt lat="49.0894360" lon="6.1848780"><ele>168.0</ele></trkpt>
    <trkpt lat="49.0894070" lon="6.1847000"><ele>167.8</ele></trkpt>
    <trkpt lat="49.0893570" lon="6.1844360"><ele>167.2</ele></trkpt>
    <trkpt lat="49.0892920" lon="6.1842230"><ele>166.8</ele></trkpt>
    <trkpt lat="49.0892390" lon="6.1841080"><ele>167.0</ele></trkpt>
    <trkpt lat="49.0886270" lon="6.1829350"><ele>167.8</ele></trkpt>
    <trkpt lat="49.0884580" lon="6.1825680"><ele>168.2</ele></trkpt>
    <trkpt lat="49.0884240" lon="6.1824190"><ele>168.5</ele></trkpt>
    <trkpt lat="49.0884020" lon="6.1822950"><ele>168.8</ele></trkpt>
    <trkpt lat="49.0883940" lon="6.1821830"><ele>169.0</ele></trkpt>
    <trkpt lat="49.0883970" lon="6.1821380"><ele>169.2</ele></trkpt>
    <trkpt lat="49.0884310" lon="6.1819930"><ele>169.0</ele></trkpt>
    <trkpt lat="49.0884660" lon="6.1819160"><ele>168.5</ele></trkpt>
    <trkpt lat="49.0884740" lon="6.1818680"><ele>168.5</ele></trkpt>
    <trkpt lat="49.0885020" lon="6.1818660"><ele>168.0</ele></trkpt>
    <trkpt lat="49.0889180" lon="6.1818400"><ele>169.0</ele></trkpt>
    <trkpt lat="49.0889430" lon="6.1818390"><ele>169.2</ele></trkpt>
    <trkpt lat="49.0889970" lon="6.1818730"><ele>169.5</ele></trkpt>
    <trkpt lat="49.0889890" lon="6.1819450"><ele>169.5</ele></trkpt>
    <trkpt lat="49.0889970" lon="6.1822910"><ele>168.2</ele></trkpt>
    <trkpt lat="49.0889420" lon="6.1822790"><ele>168.0</ele></trkpt>
    <trkpt lat="49.0889010" lon="6.1821820"><ele>168.0</ele></trkpt>
    <trkpt lat="49.0888700" lon="6.1820120"><ele>168.5</ele></trkpt>
    <trkpt lat="49.0888630" lon="6.1816480"><ele>168.5</ele></trkpt>
    <trkpt lat="49.0888470" lon="6.1815350"><ele>169.0</ele></trkpt>
    <trkpt lat="49.0888120" lon="6.1814260"><ele>169.0</ele></trkpt>
    <trkpt lat="49.0885520" lon="6.1810360"><ele>169.5</ele></trkpt>
    <trkpt lat="49.0884010" lon="6.1805580"><ele>167.5</ele></trkpt>
    <trkpt lat="49.0883040" lon="6.1803940"><ele>167.2</ele></trkpt>
    <trkpt lat="49.0880770" lon="6.1800810"><ele>167.0</ele></trkpt>
    <trkpt lat="49.0877560" lon="6.1796750"><ele>167.0</ele></trkpt>
    <trkpt lat="49.0876970" lon="6.1795450"><ele>167.2</ele></trkpt>
    <trkpt lat="49.0876400" lon="6.1793560"><ele>167.5</ele></trkpt>
    <trkpt lat="49.0873270" lon="6.1780390"><ele>168.2</ele></trkpt>
    <trkpt lat="49.0872470" lon="6.1776570"><ele>169.0</ele></trkpt>
    <trkpt lat="49.0872460" lon="6.1776090"><ele>169.0</ele></trkpt>
    <trkpt lat="49.0872440" lon="6.1775450"><ele>169.0</ele></trkpt>
    <trkpt lat="49.0873290" lon="6.1775550"><ele>169.0</ele></trkpt>
    <trkpt lat="49.0875100" lon="6.1775190"><ele>169.0</ele></trkpt>
    <trkpt lat="49.0881880" lon="6.1772040"><ele>170.8</ele></trkpt>
    <trkpt lat="49.0882220" lon="6.1771600"><ele>171.2</ele></trkpt>
    <trkpt lat="49.0882310" lon="6.1771140"><ele>171.2</ele></trkpt>
    <trkpt lat="49.0882350" lon="6.1770700"><ele>171.2</ele></trkpt>
    <trkpt lat="49.0882250" lon="6.1769830"><ele>171.5</ele></trkpt>
    <trkpt lat="49.0881910" lon="6.1768910"><ele>171.2</ele></trkpt>
    <trkpt lat="49.0880960" lon="6.1767520"><ele>171.0</ele></trkpt>
    <trkpt lat="49.0878210" lon="6.1764140"><ele>170.8</ele></trkpt>
    <trkpt lat="49.0876970" lon="6.1762070"><ele>170.5</ele></trkpt>
    <trkpt lat="49.0875610" lon="6.1759500"><ele>170.5</ele></trkpt>
    <trkpt lat="49.0874430" lon="6.1756920"><ele>171.0</ele></trkpt>
    <trkpt lat="49.0873650" lon="6.1754740"><ele>171.0</ele></trkpt>
    <trkpt lat="49.0872180" lon="6.1749770"><ele>171.0</ele></trkpt>
    <trkpt lat="49.0864340" lon="6.1724470"><ele>172.2</ele></trkpt>
    <trkpt lat="49.0860160" lon="6.1711480"><ele>174.5</ele></trkpt>
    <trkpt lat="49.0859920" lon="6.1711000"><ele>174.5</ele></trkpt>
    <trkpt lat="49.0863250" lon="6.1708200"><ele>177.5</ele></trkpt>
    <trkpt lat="49.0869840" lon="6.1703580"><ele>182.8</ele></trkpt>
    <trkpt lat="49.0872680" lon="6.1701740"><ele>183.8</ele></trkpt>
    <trkpt lat="49.0877760" lon="6.1698170"><ele>185.8</ele></trkpt>
    <trkpt lat="49.0877660" lon="6.1697780"><ele>185.8</ele></trkpt>
    <trkpt lat="49.0877640" lon="6.1697700"><ele>185.8</ele></trkpt>
    <trkpt lat="49.0877670" lon="6.1697480"><ele>185.8</ele></trkpt>
    <trkpt lat="49.0877930" lon="6.1697320"><ele>186.0</ele></trkpt>
    <trkpt lat="49.0877990" lon="6.1697280"><ele>186.0</ele></trkpt>
    <trkpt lat="49.0878040" lon="6.1697250"><ele>186.0</ele></trkpt>
    <trkpt lat="49.0878300" lon="6.1697100"><ele>186.0</ele></trkpt>
    <trkpt lat="49.0878680" lon="6.1696880"><ele>186.0</ele></trkpt>
    <trkpt lat="49.0878740" lon="6.1696840"><ele>186.0</ele></trkpt>
    <trkpt lat="49.0878810" lon="6.1696670"><ele>186.0</ele></trkpt>
    <trkpt lat="49.0879420" lon="6.1695280"><ele>186.2</ele></trkpt>
    <trkpt lat="49.0882290" lon="6.1688520"><ele>186.0</ele></trkpt>
    <trkpt lat="49.0882000" lon="6.1687090"><ele>186.0</ele></trkpt>
    <trkpt lat="49.0881730" lon="6.1685790"><ele>186.0</ele></trkpt>
    <trkpt lat="49.0881460" lon="6.1684490"><ele>186.0</ele></trkpt>
    <trkpt lat="49.0883710" lon="6.1679820"><ele>186.0</ele></trkpt>
    <trkpt lat="49.0883480" lon="6.1676760"><ele>186.0</ele></trkpt>
    <trkpt lat="49.0884370" lon="6.1676590"><ele>186.0</ele></trkpt>
    <trkpt lat="49.0885350" lon="6.1675370"><ele>186.0</ele></trkpt>
    <trkpt lat="49.0885250" lon="6.1673260"><ele>186.5</ele></trkpt>
    <trkpt lat="49.0884930" lon="6.1668900"><ele>187.2</ele></trkpt>
    <trkpt lat="49.0884750" lon="6.1666300"><ele>188.2</ele></trkpt>
    <trkpt lat="49.0884530" lon="6.1663330"><ele>187.0</ele></trkpt>
    <trkpt lat="49.0884470" lon="6.1662500"><ele>186.8</ele></trkpt>
    <trkpt lat="49.0884180" lon="6.1658420"><ele>186.2</ele></trkpt>
    <trkpt lat="49.0883550" lon="6.1658160"><ele>186.0</ele></trkpt>
    <trkpt lat="49.0882650" lon="6.1657170"><ele>186.0</ele></trkpt>
    <trkpt lat="49.0882210" lon="6.1656800"><ele>186.0</ele></trkpt>
    <trkpt lat="49.0882350" lon="6.1656000"><ele>186.0</ele></trkpt>
    <trkpt lat="49.0881320" lon="6.1655610"><ele>186.0</ele></trkpt>
    <trkpt lat="49.0879690" lon="6.1654880"><ele>186.0</ele></trkpt>
    <trkpt lat="49.0878090" lon="6.1654040"><ele>186.2</ele></trkpt>
    <trkpt lat="49.0877880" lon="6.1653920"><ele>186.2</ele></trkpt>
    <trkpt lat="49.0875770" lon="6.1651130"><ele>186.5</ele></trkpt>
    <trkpt lat="49.0875190" lon="6.1650360"><ele>186.8</ele></trkpt>
    <trkpt lat="49.0874710" lon="6.1649790"><ele>186.8</ele></trkpt>
    <trkpt lat="49.0874930" lon="6.1649320"><ele>186.8</ele></trkpt>
    <trkpt lat="49.0875040" lon="6.1648800"><ele>186.5</ele></trkpt>
    <trkpt lat="49.0875010" lon="6.1647910"><ele>186.0</ele></trkpt>
    <trkpt lat="49.0874410" lon="6.1639920"><ele>186.0</ele></trkpt>
    <trkpt lat="49.0874330" lon="6.1638890"><ele>186.0</ele></trkpt>
    <trkpt lat="49.0874270" lon="6.1638150"><ele>186.0</ele></trkpt>
    <trkpt lat="49.0873930" lon="6.1633870"><ele>186.0</ele></trkpt>
    <trkpt lat="49.0873740" lon="6.1631400"><ele>186.0</ele></trkpt>
    <trkpt lat="49.0873930" lon="6.1633870"><ele>186.0</ele></trkpt>
    <trkpt lat="49.0874270" lon="6.1638150"><ele>186.0</ele></trkpt>
    <trkpt lat="49.0874330" lon="6.1638890"><ele>186.0</ele></trkpt>
    <trkpt lat="49.0874410" lon="6.1639920"><ele>186.0</ele></trkpt>
    <trkpt lat="49.0875010" lon="6.1647910"><ele>186.0</ele></trkpt>
    <trkpt lat="49.0875040" lon="6.1648800"><ele>186.5</ele></trkpt>
    <trkpt lat="49.0874930" lon="6.1649320"><ele>186.8</ele></trkpt>
    <trkpt lat="49.0874710" lon="6.1649790"><ele>186.8</ele></trkpt>
    <trkpt lat="49.0875190" lon="6.1650360"><ele>186.8</ele></trkpt>
    <trkpt lat="49.0875770" lon="6.1651130"><ele>186.5</ele></trkpt>
    <trkpt lat="49.0877880" lon="6.1653920"><ele>186.2</ele></trkpt>
    <trkpt lat="49.0878090" lon="6.1654040"><ele>186.2</ele></trkpt>
    <trkpt lat="49.0879690" lon="6.1654880"><ele>186.0</ele></trkpt>
    <trkpt lat="49.0881320" lon="6.1655610"><ele>186.0</ele></trkpt>
    <trkpt lat="49.0882350" lon="6.1656000"><ele>186.0</ele></trkpt>
    <trkpt lat="49.0884030" lon="6.1656420"><ele>186.2</ele></trkpt>
    <trkpt lat="49.0885180" lon="6.1656570"><ele>186.5</ele></trkpt>
    <trkpt lat="49.0886850" lon="6.1656620"><ele>187.0</ele></trkpt>
    <trkpt lat="49.0889010" lon="6.1656470"><ele>187.0</ele></trkpt>
    <trkpt lat="49.0889640" lon="6.1656500"><ele>187.0</ele></trkpt>
    <trkpt lat="49.0890310" lon="6.1656750"><ele>187.0</ele></trkpt>
    <trkpt lat="49.0891020" lon="6.1657030"><ele>187.0</ele></trkpt>
    <trkpt lat="49.0891680" lon="6.1657460"><ele>187.0</ele></trkpt>
    <trkpt lat="49.0892340" lon="6.1657870"><ele>187.0</ele></trkpt>
    <trkpt lat="49.0896950" lon="6.1660790"><ele>187.0</ele></trkpt>
    <trkpt lat="49.0900200" lon="6.1662420"><ele>186.2</ele></trkpt>
    <trkpt lat="49.0901610" lon="6.1663040"><ele>186.0</ele></trkpt>
    <trkpt lat="49.0902570" lon="6.1663480"><ele>186.0</ele></trkpt>
    <trkpt lat="49.0902790" lon="6.1663600"><ele>186.0</ele></trkpt>
    <trkpt lat="49.0905160" lon="6.1664960"><ele>186.0</ele></trkpt>
    <trkpt lat="49.0905340" lon="6.1665060"><ele>186.0</ele></trkpt>
    <trkpt lat="49.0907750" lon="6.1666460"><ele>186.0</ele></trkpt>
    <trkpt lat="49.0910070" lon="6.1667710"><ele>186.2</ele></trkpt>
    <trkpt lat="49.0914980" lon="6.1670350"><ele>186.0</ele></trkpt>
    <trkpt lat="49.0919000" lon="6.1672830"><ele>186.0</ele></trkpt>
    <trkpt lat="49.0918880" lon="6.1673280"><ele>186.0</ele></trkpt>
    <trkpt lat="49.0918790" lon="6.1673750"><ele>186.0</ele></trkpt>
    <trkpt lat="49.0918130" lon="6.1679120"><ele>186.0</ele></trkpt>
    <trkpt lat="49.0917970" lon="6.1681070"><ele>186.0</ele></trkpt>
    <trkpt lat="49.0917930" lon="6.1682590"><ele>186.0</ele></trkpt>
    <trkpt lat="49.0917850" lon="6.1687460"><ele>186.0</ele></trkpt>
    <trkpt lat="49.0917790" lon="6.1692690"><ele>186.0</ele></trkpt>
    <trkpt lat="49.0917970" lon="6.1697140"><ele>186.0</ele></trkpt>
    <trkpt lat="49.0917990" lon="6.1697590"><ele>185.8</ele></trkpt>
    <trkpt lat="49.0919410" lon="6.1697710"><ele>185.8</ele></trkpt>
    <trkpt lat="49.0921410" lon="6.1697960"><ele>185.0</ele></trkpt>
    <trkpt lat="49.0925960" lon="6.1698510"><ele>185.2</ele></trkpt>
    <trkpt lat="49.0930000" lon="6.1698740"><ele>184.5</ele></trkpt>
    <trkpt lat="49.0931260" lon="6.1698820"><ele>184.2</ele></trkpt>
    <trkpt lat="49.0931460" lon="6.1699680"><ele>184.5</ele></trkpt>
    <trkpt lat="49.0931620" lon="6.1700350"><ele>184.5</ele></trkpt>
    <trkpt lat="49.0931710" lon="6.1700540"><ele>184.5</ele></trkpt>
    <trkpt lat="49.0931460" lon="6.1700820"><ele>184.5</ele></trkpt>
    <trkpt lat="49.0934520" lon="6.1711940"><ele>185.0</ele></trkpt>
    <trkpt lat="49.0934710" lon="6.1711980"><ele>184.8</ele></trkpt>
    <trkpt lat="49.0934900" lon="6.1712300"><ele>184.5</ele></trkpt>
    <trkpt lat="49.0934900" lon="6.1712520"><ele>184.5</ele></trkpt>
    <trkpt lat="49.0934750" lon="6.1712850"><ele>184.5</ele></trkpt>
    <trkpt lat="49.0935350" lon="6.1714990"><ele>184.0</ele></trkpt>
    <trkpt lat="49.0935510" lon="6.1715990"><ele>184.0</ele></trkpt>
    <trkpt lat="49.0936040" lon="6.1717850"><ele>184.0</ele></trkpt>
    <trkpt lat="49.0936700" lon="6.1720130"><ele>183.8</ele></trkpt>
    <trkpt lat="49.0936940" lon="6.1720730"><ele>183.5</ele></trkpt>
    <trkpt lat="49.0936720" lon="6.1720980"><ele>183.8</ele></trkpt>
    <trkpt lat="49.0936480" lon="6.1721250"><ele>183.8</ele></trkpt>
    <trkpt lat="49.0934880" lon="6.1723110"><ele>183.8</ele></trkpt>
    <trkpt lat="49.0932940" lon="6.1725180"><ele>184.0</ele></trkpt>
    <trkpt lat="49.0928980" lon="6.1729180"><ele>185.2</ele></trkpt>
    <trkpt lat="49.0927430" lon="6.1730750"><ele>185.0</ele></trkpt>
    <trkpt lat="49.0926740" lon="6.1731530"><ele>185.5</ele></trkpt>
    <trkpt lat="49.0926480" lon="6.1732000"><ele>185.5</ele></trkpt>
    <trkpt lat="49.0926060" lon="6.1732920"><ele>185.8</ele></trkpt>
    <trkpt lat="49.0926500" lon="6.1733800"><ele>185.8</ele></trkpt>
    <trkpt lat="49.0926980" lon="6.1735380"><ele>185.8</ele></trkpt>
    <trkpt lat="49.0927110" lon="6.1735820"><ele>185.8</ele></trkpt>
    <trkpt lat="49.0927240" lon="6.1736300"><ele>185.5</ele></trkpt>
    <trkpt lat="49.0927340" lon="6.1736620"><ele>185.5</ele></trkpt>
    <trkpt lat="49.0927720" lon="6.1736550"><ele>185.5</ele></trkpt>
    <trkpt lat="49.0928160" lon="6.1737750"><ele>185.5</ele></trkpt>
    <trkpt lat="49.0929720" lon="6.1742720"><ele>185.0</ele></trkpt>
    <trkpt lat="49.0931050" lon="6.1745240"><ele>184.8</ele></trkpt>
    <trkpt lat="49.0932070" lon="6.1746850"><ele>184.8</ele></trkpt>
    <trkpt lat="49.0932510" lon="6.1747230"><ele>184.8</ele></trkpt>
    <trkpt lat="49.0932880" lon="6.1747250"><ele>185.8</ele></trkpt>
    <trkpt lat="49.0932390" lon="6.1748130"><ele>184.5</ele></trkpt>
    <trkpt lat="49.0931950" lon="6.1749200"><ele>183.8</ele></trkpt>
    <trkpt lat="49.0932410" lon="6.1750120"><ele>184.5</ele></trkpt>
    <trkpt lat="49.0932780" lon="6.1750680"><ele>185.2</ele></trkpt>
    <trkpt lat="49.0933570" lon="6.1751330"><ele>185.8</ele></trkpt>
    <trkpt lat="49.0934860" lon="6.1752820"><ele>185.2</ele></trkpt>
    <trkpt lat="49.0937240" lon="6.1755380"><ele>185.0</ele></trkpt>
    <trkpt lat="49.0940230" lon="6.1758700"><ele>183.8</ele></trkpt>
    <trkpt lat="49.0943880" lon="6.1762650"><ele>181.2</ele></trkpt>
    <trkpt lat="49.0944180" lon="6.1763080"><ele>181.2</ele></trkpt>
    <trkpt lat="49.0945650" lon="6.1764680"><ele>180.2</ele></trkpt>
    <trkpt lat="49.0945930" lon="6.1764840"><ele>180.0</ele></trkpt>
    <trkpt lat="49.0946360" lon="6.1764990"><ele>179.8</ele></trkpt>
    <trkpt lat="49.0946830" lon="6.1765770"><ele>179.2</ele></trkpt>
    <trkpt lat="49.0947220" lon="6.1765700"><ele>179.2</ele></trkpt>
    <trkpt lat="49.0947940" lon="6.1765570"><ele>179.0</ele></trkpt>
    <trkpt lat="49.0948980" lon="6.1765490"><ele>178.8</ele></trkpt>
    <trkpt lat="49.0950680" lon="6.1768100"><ele>177.0</ele></trkpt>
    <trkpt lat="49.0952730" lon="6.1770370"><ele>175.0</ele></trkpt>
    <trkpt lat="49.0953280" lon="6.1770360"><ele>174.8</ele></trkpt>
    <trkpt lat="49.0955160" lon="6.1771870"><ele>174.2</ele></trkpt>
    <trkpt lat="49.0957510" lon="6.1773740"><ele>173.0</ele></trkpt>
    <trkpt lat="49.0962880" lon="6.1778220"><ele>171.8</ele></trkpt>
    <trkpt lat="49.0964880" lon="6.1779440"><ele>171.8</ele></trkpt>
    <trkpt lat="49.0965860" lon="6.1780210"><ele>171.2</ele></trkpt>
    <trkpt lat="49.0966360" lon="6.1780500"><ele>171.0</ele></trkpt>
    <trkpt lat="49.0968480" lon="6.1781220"><ele>171.0</ele></trkpt>
    <trkpt lat="49.0969580" lon="6.1781570"><ele>170.8</ele></trkpt>
    <trkpt lat="49.0970990" lon="6.1781930"><ele>170.5</ele></trkpt>
    <trkpt lat="49.0972430" lon="6.1782150"><ele>170.2</ele></trkpt>
    <trkpt lat="49.0973390" lon="6.1782250"><ele>170.0</ele></trkpt>
    <trkpt lat="49.0975440" lon="6.1782220"><ele>170.0</ele></trkpt>
    <trkpt lat="49.0976650" lon="6.1782250"><ele>170.0</ele></trkpt>
    <trkpt lat="49.0977860" lon="6.1782180"><ele>170.2</ele></trkpt>
    <trkpt lat="49.0978570" lon="6.1782020"><ele>170.2</ele></trkpt>
    <trkpt lat="49.0981690" lon="6.1781250"><ele>170.8</ele></trkpt>
    <trkpt lat="49.0982660" lon="6.1780970"><ele>170.8</ele></trkpt>
    <trkpt lat="49.0987800" lon="6.1779700"><ele>171.0</ele></trkpt>
    <trkpt lat="49.0988950" lon="6.1779500"><ele>171.0</ele></trkpt>
    <trkpt lat="49.0990510" lon="6.1779010"><ele>171.0</ele></trkpt>
    <trkpt lat="49.0991790" lon="6.1778420"><ele>171.0</ele></trkpt>
    <trkpt lat="49.0998490" lon="6.1776080"><ele>171.5</ele></trkpt>
    <trkpt lat="49.0999550" lon="6.1775670"><ele>171.8</ele></trkpt>
    <trkpt lat="49.0999720" lon="6.1775200"><ele>171.8</ele></trkpt>
    <trkpt lat="49.0999900" lon="6.1775140"><ele>171.8</ele></trkpt>
    <trkpt lat="49.1000350" lon="6.1775010"><ele>171.8</ele></trkpt>
    <trkpt lat="49.1000730" lon="6.1774910"><ele>172.0</ele></trkpt>
    <trkpt lat="49.1001210" lon="6.1774790"><ele>172.0</ele></trkpt>
    <trkpt lat="49.1002970" lon="6.1774540"><ele>171.8</ele></trkpt>
    <trkpt lat="49.1005370" lon="6.1774230"><ele>171.0</ele></trkpt>
    <trkpt lat="49.1005910" lon="6.1774280"><ele>171.0</ele></trkpt>
    <trkpt lat="49.1006770" lon="6.1774370"><ele>171.0</ele></trkpt>
    <trkpt lat="49.1008100" lon="6.1774380"><ele>171.0</ele></trkpt>
    <trkpt lat="49.1009100" lon="6.1774080"><ele>171.0</ele></trkpt>
    <trkpt lat="49.1011020" lon="6.1773890"><ele>171.0</ele></trkpt>
    <trkpt lat="49.1011490" lon="6.1773960"><ele>170.8</ele></trkpt>
    <trkpt lat="49.1012010" lon="6.1773800"><ele>171.0</ele></trkpt>
    <trkpt lat="49.1015010" lon="6.1773780"><ele>171.0</ele></trkpt>
    <trkpt lat="49.1015520" lon="6.1773810"><ele>171.0</ele></trkpt>
    <trkpt lat="49.1016020" lon="6.1773840"><ele>171.0</ele></trkpt>
    <trkpt lat="49.1016160" lon="6.1774260"><ele>171.0</ele></trkpt>
    <trkpt lat="49.1016370" lon="6.1774260"><ele>171.0</ele></trkpt>
    <trkpt lat="49.1018030" lon="6.1774300"><ele>171.0</ele></trkpt>
    <trkpt lat="49.1023550" lon="6.1774400"><ele>171.0</ele></trkpt>
    <trkpt lat="49.1023890" lon="6.1773860"><ele>171.0</ele></trkpt>
    <trkpt lat="49.1027580" lon="6.1774270"><ele>171.0</ele></trkpt>
    <trkpt lat="49.1030510" lon="6.1774810"><ele>171.0</ele></trkpt>
    <trkpt lat="49.1030750" lon="6.1774970"><ele>171.0</ele></trkpt>
    <trkpt lat="49.1031000" lon="6.1775140"><ele>171.0</ele></trkpt>
    <trkpt lat="49.1031510" lon="6.1775290"><ele>171.0</ele></trkpt>
    <trkpt lat="49.1031830" lon="6.1775380"><ele>171.0</ele></trkpt>
    <trkpt lat="49.1031910" lon="6.1775410"><ele>171.0</ele></trkpt>
    <trkpt lat="49.1032330" lon="6.1775570"><ele>171.0</ele></trkpt>
    <trkpt lat="49.1033310" lon="6.1775940"><ele>171.0</ele></trkpt>
    <trkpt lat="49.1033650" lon="6.1775870"><ele>170.8</ele></trkpt>
    <trkpt lat="49.1035040" lon="6.1776090"><ele>170.5</ele></trkpt>
    <trkpt lat="49.1035970" lon="6.1776350"><ele>170.5</ele></trkpt>
    <trkpt lat="49.1036890" lon="6.1776620"><ele>170.2</ele></trkpt>
    <trkpt lat="49.1037880" lon="6.1776890"><ele>170.0</ele></trkpt>
    <trkpt lat="49.1038950" lon="6.1777200"><ele>170.0</ele></trkpt>
    <trkpt lat="49.1040230" lon="6.1777560"><ele>170.0</ele></trkpt>
    <trkpt lat="49.1041410" lon="6.1777970"><ele>170.0</ele></trkpt>
    <trkpt lat="49.1043220" lon="6.1778640"><ele>170.0</ele></trkpt>
    <trkpt lat="49.1043410" lon="6.1778780"><ele>170.0</ele></trkpt>
    <trkpt lat="49.1043880" lon="6.1778950"><ele>170.0</ele></trkpt>
    <trkpt lat="49.1044200" lon="6.1778990"><ele>170.0</ele></trkpt>
    <trkpt lat="49.1044620" lon="6.1779200"><ele>170.0</ele></trkpt>
    <trkpt lat="49.1046160" lon="6.1779900"><ele>170.0</ele></trkpt>
    <trkpt lat="49.1046760" lon="6.1780210"><ele>170.0</ele></trkpt>
    <trkpt lat="49.1046950" lon="6.1780570"><ele>170.0</ele></trkpt>
    <trkpt lat="49.1047120" lon="6.1780890"><ele>170.0</ele></trkpt>
    <trkpt lat="49.1047660" lon="6.1781140"><ele>170.0</ele></trkpt>
    <trkpt lat="49.1048840" lon="6.1781740"><ele>170.0</ele></trkpt>
    <trkpt lat="49.1049330" lon="6.1781960"><ele>170.0</ele></trkpt>
    <trkpt lat="49.1050560" lon="6.1782230"><ele>170.0</ele></trkpt>
    <trkpt lat="49.1051920" lon="6.1783100"><ele>170.0</ele></trkpt>
    <trkpt lat="49.1053480" lon="6.1784140"><ele>169.8</ele></trkpt>
    <trkpt lat="49.1054230" lon="6.1784870"><ele>169.5</ele></trkpt>
    <trkpt lat="49.1054540" lon="6.1785180"><ele>169.5</ele></trkpt>
    <trkpt lat="49.1054960" lon="6.1785480"><ele>169.2</ele></trkpt>
    <trkpt lat="49.1055450" lon="6.1785940"><ele>169.0</ele></trkpt>
    <trkpt lat="49.1055780" lon="6.1786180"><ele>169.0</ele></trkpt>
    <trkpt lat="49.1056310" lon="6.1786500"><ele>169.0</ele></trkpt>
    <trkpt lat="49.1059190" lon="6.1788870"><ele>168.8</ele></trkpt>
    <trkpt lat="49.1059530" lon="6.1789410"><ele>169.0</ele></trkpt>
    <trkpt lat="49.1059670" lon="6.1789930"><ele>169.0</ele></trkpt>
    <trkpt lat="49.1064140" lon="6.1789310"><ele>169.0</ele></trkpt>
    <trkpt lat="49.1064410" lon="6.1789090"><ele>169.0</ele></trkpt>
    <trkpt lat="49.1069090" lon="6.1780970"><ele>170.0</ele></trkpt>
    <trkpt lat="49.1070150" lon="6.1782550"><ele>169.8</ele></trkpt>
    <trkpt lat="49.1070880" lon="6.1784050"><ele>170.0</ele></trkpt>
    <trkpt lat="49.1071130" lon="6.1784740"><ele>170.0</ele></trkpt>
    <trkpt lat="49.1071240" lon="6.1785570"><ele>170.0</ele></trkpt>
    <trkpt lat="49.1071570" lon="6.1790740"><ele>170.0</ele></trkpt>
    <trkpt lat="49.1071560" lon="6.1791200"><ele>170.0</ele></trkpt>
    <trkpt lat="49.1071530" lon="6.1791450"><ele>170.0</ele></trkpt>
    <trkpt lat="49.1072050" lon="6.1791320"><ele>170.0</ele></trkpt>
    <trkpt lat="49.1072070" lon="6.1791730"><ele>170.0</ele></trkpt>
    <trkpt lat="49.1072090" lon="6.1792250"><ele>170.0</ele></trkpt>
    <trkpt lat="49.1072110" lon="6.1792680"><ele>170.0</ele></trkpt>
    <trkpt lat="49.1072120" lon="6.1792830"><ele>170.0</ele></trkpt>
    <trkpt lat="49.1072430" lon="6.1792880"><ele>170.2</ele></trkpt>
    <trkpt lat="49.1072750" lon="6.1793190"><ele>170.5</ele></trkpt>
    <trkpt lat="49.1072870" lon="6.1793180"><ele>170.8</ele></trkpt>
    <trkpt lat="49.1073310" lon="6.1793120"><ele>171.2</ele></trkpt>
    <trkpt lat="49.1073610" lon="6.1793070"><ele>171.5</ele></trkpt>
    <trkpt lat="49.1073940" lon="6.1793030"><ele>172.0</ele></trkpt>
    <trkpt lat="49.1074160" lon="6.1792990"><ele>172.2</ele></trkpt>
    <trkpt lat="49.1074090" lon="6.1791980"><ele>172.5</ele></trkpt>
    <trkpt lat="49.1074210" lon="6.1791970"><ele>172.8</ele></trkpt>
    <trkpt lat="49.1074580" lon="6.1791920"><ele>173.2</ele></trkpt>
    <trkpt lat="49.1075080" lon="6.1791850"><ele>173.8</ele></trkpt>
    <trkpt lat="49.1075560" lon="6.1791790"><ele>174.2</ele></trkpt>
    <trkpt lat="49.1075590" lon="6.1791580"><ele>174.2</ele></trkpt>
    <trkpt lat="49.1075750" lon="6.1791480"><ele>174.5</ele></trkpt>
    <trkpt lat="49.1077560" lon="6.1791160"><ele>175.2</ele></trkpt>
    <trkpt lat="49.1077910" lon="6.1791290"><ele>175.2</ele></trkpt>
    <trkpt lat="49.1078230" lon="6.1791630"><ele>174.8</ele></trkpt>
    <trkpt lat="49.1078480" lon="6.1792570"><ele>174.5</ele></trkpt>
    <trkpt lat="49.1079530" lon="6.1792220"><ele>172.5</ele></trkpt>
    <trkpt lat="49.1080580" lon="6.1791090"><ele>170.0</ele></trkpt>
    <trkpt lat="49.1082810" lon="6.1794600"><ele>171.5</ele></trkpt>
    <trkpt lat="49.1084180" lon="6.1796610"><ele>171.8</ele></trkpt>
    <trkpt lat="49.1084460" lon="6.1796210"><ele>171.8</ele></trkpt>
    <trkpt lat="49.1084890" lon="6.1795900"><ele>171.8</ele></trkpt>
    <trkpt lat="49.1085900" lon="6.1794770"><ele>171.8</ele></trkpt>
    <trkpt lat="49.1086030" lon="6.1792300"><ele>171.8</ele></trkpt>
    <trkpt lat="49.1086290" lon="6.1790320"><ele>173.5</ele></trkpt>
    <trkpt lat="49.1086370" lon="6.1789650"><ele>174.5</ele></trkpt>
    <trkpt lat="49.1085970" lon="6.1785780"><ele>175.8</ele></trkpt>
    <trkpt lat="49.1086340" lon="6.1785370"><ele>176.5</ele></trkpt>
    <trkpt lat="49.1090000" lon="6.1781230"><ele>179.0</ele></trkpt>
    <trkpt lat="49.1091650" lon="6.1779350"><ele>178.8</ele></trkpt>
    <trkpt lat="49.1092350" lon="6.1778550"><ele>179.0</ele></trkpt>
    <trkpt lat="49.1093450" lon="6.1777310"><ele>179.0</ele></trkpt>
    <trkpt lat="49.1094230" lon="6.1776440"><ele>179.0</ele></trkpt>
    <trkpt lat="49.1095900" lon="6.1774510"><ele>179.5</ele></trkpt>
    <trkpt lat="49.1096070" lon="6.1774310"><ele>179.5</ele></trkpt>
    <trkpt lat="49.1095730" lon="6.1773630"><ele>179.5</ele></trkpt>
    <trkpt lat="49.1095400" lon="6.1773130"><ele>179.8</ele></trkpt>
    <trkpt lat="49.1095290" lon="6.1772910"><ele>179.8</ele></trkpt>
    <trkpt lat="49.1094690" lon="6.1771660"><ele>179.8</ele></trkpt>
    <trkpt lat="49.1094370" lon="6.1771030"><ele>179.8</ele></trkpt>
    <trkpt lat="49.1093930" lon="6.1771540"><ele>179.8</ele></trkpt>
    <trkpt lat="49.1093080" lon="6.1769770"><ele>179.2</ele></trkpt>
  </trkseg></trk>
</gpx>