<?xml version="1.0" encoding="UTF-8"?>
<kml xmlns="http://www.opengis.net/kml/2.2"><Document>
  <name>La Seille et le fort de Queuleu</name><description>10.3 km. D+ 61 m. 47 % de chemins. La plus courte, et deja presque moitie chemin : les roselieres de la Seille, le bois du fort de Queuleu, le coteau du Pas du Loup, retour par les jardins de Montigny.</description>
  <Style id="depart"><IconStyle><scale>1.2</scale><Icon><href>http://maps.google.com/mapfiles/kml/paddle/grn-circle.png</href></Icon></IconStyle></Style>
  <Style id="etape"><IconStyle><Icon><href>http://maps.google.com/mapfiles/kml/paddle/wht-blank.png</href></Icon></IconStyle></Style>
    <Placemark><name>Depart : Gare de Metz, parvis</name><description>Point de ralliement des boucles a pied : a moins d'un quart d'heure de marche pour tout le monde. Abrite, cafe ouvert tot, toilettes.</description><styleUrl>#depart</styleUrl><Point><coordinates>6.1770130,49.1092770,0</coordinates></Point></Placemark>
    <Placemark><name>1. Parc de la Seille</name><description>Prairies humides et roselieres au bord de la Seille. Herons.</description><styleUrl>#etape</styleUrl><Point><coordinates>6.1849680,49.1066100,0</coordinates></Point></Placemark>
    <Placemark><name>2. Fort de Queuleu</name><description>Fort du XIXe siecle, memorial de la Resistance. Le bois autour est ouvert et sillonne de chemins.</description><styleUrl>#etape</styleUrl><Point><coordinates>6.1954340,49.0984520,0</coordinates></Point></Placemark>
    <Placemark><name>3. Parc du Pas du Loup</name><description>Coteau boise au sud du fort de Queuleu, sentiers en terre.</description><styleUrl>#etape</styleUrl><Point><coordinates>6.1900890,49.0893650,0</coordinates></Point></Placemark>
    <Placemark><name>4. Montigny-les-Metz</name><description>Retour par le sud, jardins ouvriers et bord de Moselle.</description><styleUrl>#etape</styleUrl><Point><coordinates>6.1631230,49.0874750,0</coordinates></Point></Placemark>
    <Style id="t1"><LineStyle><color>ff1E3B34</color><width>4</width></LineStyle></Style>
    <Placemark><name>La Seille et le fort de Queuleu</name><description>10.3 km. D+ 61 m. 47 % de chemins. La plus courte, et deja presque moitie chemin : les roselieres de la Seille, le bois du fort de Queuleu, le coteau du Pas du Loup, retour par les jardins de Montigny.</description><styleUrl>#t1</styleUrl><LineString><tessellate>1</tessellate><coordinates>6.1769770,49.1093080,180 6.1771540,49.1093930,180 6.1771030,49.1094370,180 6.1771660,49.1094690,180 6.1772910,49.1095290,180 6.1773130,49.1095400,180 6.1773630,49.1095730,180 6.1774310,49.1096070,180 6.1774510,49.1095900,180 6.1776440,49.1094230,179 6.1777310,49.1093450,179 6.1778550,49.1092350,179 6.1779350,49.1091650,179 6.1781230,49.1090000,179 6.1785370,49.1086340,176 6.1785780,49.1085970,176 6.1789650,49.1086370,174 6.1790320,49.1086290,174 6.1792300,49.1086030,172 6.1794770,49.1085900,172 6.1795900,49.1084890,172 6.1799530,49.1086990,172 6.1800090,49.1087230,172 6.1800320,49.1087070,172 6.1800720,49.1086810,172 6.1801050,49.1086560,172 6.1801210,49.1086420,172 6.1801710,49.1085990,172 6.1801950,49.1085640,172 6.1803040,49.1083640,172 6.1804210,49.1081720,172 6.1804690,49.1081500,172 6.1805360,49.1080360,171 6.1806140,49.1080420,171 6.1807420,49.1080150,171 6.1809290,49.1077440,171 6.1809750,49.1077000,171 6.1810350,49.1076610,171 6.1811230,49.1076290,171 6.1811800,49.1076210,171 6.1812390,49.1076120,171 6.1825490,49.1076960,171 6.1829870,49.1077260,173 6.1829890,49.1077060,172 6.1829990,49.1076110,172 6.1830050,49.1075710,172 6.1830140,49.1075180,171 6.1831850,49.1075310,170 6.1832290,49.1075150,170 6.1832440,49.1074910,170 6.1833290,49.1074970,170 6.1834120,49.1075020,170 6.1836170,49.1075120,170 6.1836340,49.1074180,170 6.1838590,49.1074340,170 6.1839010,49.1074370,170 6.1847110,49.1066060,170 6.1849620,49.1066240,170 6.1849640,49.1066090,169 6.1850090,49.1063120,169 6.1851430,49.1061660,169 6.1852270,49.1060850,169 6.1855070,49.1058050,167 6.1857570,49.1055370,166 6.1856800,49.1053470,166 6.1856370,49.1051920,166 6.1856370,49.1049580,166 6.1856480,49.1048890,166 6.1856840,49.1047800,166 6.1857520,49.1046910,165 6.1858460,49.1045240,165 6.1858970,49.1043850,166 6.1859790,49.1042080,166 6.1860670,49.1039590,165 6.1860860,49.1034710,166 6.1863350,49.1031920,165 6.1864150,49.1025860,165 6.1864740,49.1021940,166 6.1864800,49.1021550,166 6.1864820,49.1021370,166 6.1864840,49.1021220,167 6.1864870,49.1021060,167 6.1864900,49.1020830,167 6.1864920,49.1020640,168 6.1864950,49.1020450,168 6.1864980,49.1020230,168 6.1865010,49.1020040,168 6.1865050,49.1019670,168 6.1864960,49.1019350,169 6.1867280,49.1018920,168 6.1868080,49.1018400,168 6.1868500,49.1017250,169 6.1869180,49.1013120,169 6.1870680,49.1013220,169 6.1870870,49.1012120,169 6.1871300,49.1009570,169 6.1872290,49.1008470,169 6.1874520,49.1006410,170 6.1874980,49.1006450,170 6.1875000,49.1006370,170 6.1875120,49.1005900,170 6.1875180,49.1005390,170 6.1875850,49.1005420,168 6.1884670,49.1006100,169 6.1884960,49.1005760,169 6.1885710,49.1006010,170 6.1886570,49.1006110,170 6.1887110,49.1006260,170 6.1893440,49.1006890,174 6.1894840,49.1006970,174 6.1897220,49.1006930,175 6.1899800,49.1006880,175 6.1902010,49.1006920,175 6.1905000,49.1007160,176 6.1911310,49.1008020,176 6.1912260,49.1004680,175 6.1912440,49.1004040,174 6.1912920,49.1002020,174 6.1913320,49.1001980,174 6.1913780,49.1001830,175 6.1915380,49.1001410,176 6.1916010,49.1001030,176 6.1917820,49.1000510,177 6.1922070,49.0999620,179 6.1923330,49.0999160,179 6.1923760,49.0998850,179 6.1924630,49.0998380,179 6.1926080,49.0997980,179 6.1927750,49.0997850,179 6.1929260,49.0997990,180 6.1930810,49.0998340,180 6.1935910,49.1000280,182 6.1936250,49.1000410,182 6.1940260,49.0995470,180 6.1940650,49.0994980,180 6.1940790,49.0994790,180 6.1940940,49.0994590,180 6.1944260,49.0991140,182 6.1946190,49.0989540,182 6.1946840,49.0989180,183 6.1947850,49.0988850,183 6.1948910,49.0988640,183 6.1949670,49.0988690,184 6.1950220,49.0988870,184 6.1950980,49.0987100,183 6.1952140,49.0985050,182 6.1952350,49.0984270,180 6.1952140,49.0985050,182 6.1950340,49.0985100,181 6.1948850,49.0985050,180 6.1947710,49.0985150,180 6.1946390,49.0985610,180 6.1943170,49.0986270,178 6.1942190,49.0986510,178 6.1941860,49.0986540,178 6.1941490,49.0985800,178 6.1937840,49.0983820,178 6.1936930,49.0983510,178 6.1936310,49.0983420,178 6.1935260,49.0983520,178 6.1934860,49.0983660,178 6.1933910,49.0984250,178 6.1932360,49.0985060,177 6.1931400,49.0985370,177 6.1930510,49.0985910,177 6.1928660,49.0986330,177 6.1927790,49.0986090,177 6.1926990,49.0986040,176 6.1926610,49.0986100,176 6.1926100,49.0986280,176 6.1925880,49.0985980,176 6.1925560,49.0985750,176 6.1927170,49.0984850,177 6.1927790,49.0984500,178 6.1929740,49.0983490,178 6.1929350,49.0983070,178 6.1929040,49.0982740,178 6.1921610,49.0975010,185 6.1921020,49.0974510,186 6.1920060,49.0974070,186 6.1918720,49.0973440,187 6.1918030,49.0973010,187 6.1917620,49.0972470,188 6.1917410,49.0971430,188 6.1917510,49.0967020,190 6.1917510,49.0966150,190 6.1917700,49.0958860,190 6.1918610,49.0947700,193 6.1919490,49.0938080,192 6.1919660,49.0933360,189 6.1921280,49.0928670,186 6.1921800,49.0927980,185 6.1922950,49.0927160,185 6.1925050,49.0926440,186 6.1926680,49.0924590,186 6.1928080,49.0922260,186 6.1929000,49.0921520,186 6.1929680,49.0919710,188 6.1930420,49.0917390,188 6.1931400,49.0916400,188 6.1934200,49.0914590,189 6.1934730,49.0914110,190 6.1934900,49.0913740,190 6.1934960,49.0913290,190 6.1934590,49.0912830,190 6.1933780,49.0912670,191 6.1932820,49.0912760,192 6.1931800,49.0912970,192 6.1930330,49.0913050,193 6.1929410,49.0912940,194 6.1928770,49.0912730,194 6.1928310,49.0912340,195 6.1928280,49.0911820,195 6.1928900,49.0910780,196 6.1930640,49.0908360,197 6.1930600,49.0907950,197 6.1928220,49.0908370,198 6.1925430,49.0908630,201 6.1923060,49.0908720,202 6.1921890,49.0908700,202 6.1919990,49.0908000,203 6.1919370,49.0907450,203 6.1916020,49.0907220,203 6.1914910,49.0906890,203 6.1913860,49.0906270,203 6.1912830,49.0905440,203 6.1911660,49.0903640,202 6.1911200,49.0902270,202 6.1910450,49.0898550,202 6.1909690,49.0897650,200 6.1908350,49.0897530,199 6.1906600,49.0897560,198 6.1904450,49.0897790,196 6.1901750,49.0898260,194 6.1900410,49.0898180,194 6.1899040,49.0897900,193 6.1897570,49.0896440,192 6.1896360,49.0894580,191 6.1896250,49.0894220,190 6.1896360,49.0894580,191 6.1897570,49.0896440,192 6.1899040,49.0897900,193 6.1897860,49.0898040,193 6.1895460,49.0898100,192 6.1893760,49.0897730,190 6.1885010,49.0896660,188 6.1883230,49.0896380,186 6.1881940,49.0896140,185 6.1880300,49.0895600,184 6.1878870,49.0894640,185 6.1877720,49.0893620,185 6.1876280,49.0891900,184 6.1875800,49.0891130,184 6.1875260,49.0889980,184 6.1874740,49.0890060,184 6.1874070,49.0891690,181 6.1873930,49.0892500,180 6.1873730,49.0893060,178 6.1871820,49.0893460,176 6.1870980,49.0893470,176 6.1870130,49.0893370,175 6.1868340,49.0892780,175 6.1865860,49.0892060,174 6.1864800,49.0891920,173 6.1862970,49.0891850,172 6.1860950,49.0891410,171 6.1859800,49.0891340,170 6.1859440,49.0891260,170 6.1859090,49.0891940,169 6.1858830,49.0892250,169 6.1858150,49.0892820,169 6.1857730,49.0893050,169 6.1857150,49.0893330,169 6.1855460,49.0892290,169 6.1853500,49.0894050,168 6.1852320,49.0894370,168 6.1851180,49.0894490,168 6.1849750,49.0894450,168 6.1848780,49.0894360,168 6.1847000,49.0894070,168 6.1844360,49.0893570,167 6.1842230,49.0892920,167 6.1841080,49.0892390,167 6.1829350,49.0886270,168 6.1825680,49.0884580,168 6.1824190,49.0884240,168 6.1822950,49.0884020,169 6.1821830,49.0883940,169 6.1821380,49.0883970,169 6.1819930,49.0884310,169 6.1819160,49.0884660,168 6.1818680,49.0884740,168 6.1818660,49.0885020,168 6.1818400,49.0889180,169 6.1818390,49.0889430,169 6.1818730,49.0889970,170 6.1819450,49.0889890,170 6.1822910,49.0889970,168 6.1822790,49.0889420,168 6.1821820,49.0889010,168 6.1820120,49.0888700,168 6.1816480,49.0888630,168 6.1815350,49.0888470,169 6.1814260,49.0888120,169 6.1810360,49.0885520,170 6.1805580,49.0884010,168 6.1803940,49.0883040,167 6.1800810,49.0880770,167 6.1796750,49.0877560,167 6.1795450,49.0876970,167 6.1793560,49.0876400,168 6.1780390,49.0873270,168 6.1776570,49.0872470,169 6.1776090,49.0872460,169 6.1775450,49.0872440,169 6.1775550,49.0873290,169 6.1775190,49.0875100,169 6.1772040,49.0881880,171 6.1771600,49.0882220,171 6.1771140,49.0882310,171 6.1770700,49.0882350,171 6.1769830,49.0882250,172 6.1768910,49.0881910,171 6.1767520,49.0880960,171 6.1764140,49.0878210,171 6.1762070,49.0876970,170 6.1759500,49.0875610,170 6.1756920,49.0874430,171 6.1754740,49.0873650,171 6.1749770,49.0872180,171 6.1724470,49.0864340,172 6.1711480,49.0860160,174 6.1711000,49.0859920,174 6.1708200,49.0863250,178 6.1703580,49.0869840,183 6.1701740,49.0872680,184 6.1698170,49.0877760,186 6.1697780,49.0877660,186 6.1697700,49.0877640,186 6.1697480,49.0877670,186 6.1697320,49.0877930,186 6.1697280,49.0877990,186 6.1697250,49.0878040,186 6.1697100,49.0878300,186 6.1696880,49.0878680,186 6.1696840,49.0878740,186 6.1696670,49.0878810,186 6.1695280,49.0879420,186 6.1688520,49.0882290,186 6.1687090,49.0882000,186 6.1685790,49.0881730,186 6.1684490,49.0881460,186 6.1679820,49.0883710,186 6.1676760,49.0883480,186 6.1676590,49.0884370,186 6.1675370,49.0885350,186 6.1673260,49.0885250,186 6.1668900,49.0884930,187 6.1666300,49.0884750,188 6.1663330,49.0884530,187 6.1662500,49.0884470,187 6.1658420,49.0884180,186 6.1658160,49.0883550,186 6.1657170,49.0882650,186 6.1656800,49.0882210,186 6.1656000,49.0882350,186 6.1655610,49.0881320,186 6.1654880,49.0879690,186 6.1654040,49.0878090,186 6.1653920,49.0877880,186 6.1651130,49.0875770,186 6.1650360,49.0875190,187 6.1649790,49.0874710,187 6.1649320,49.0874930,187 6.1648800,49.0875040,186 6.1647910,49.0875010,186 6.1639920,49.0874410,186 6.1638890,49.0874330,186 6.1638150,49.0874270,186 6.1633870,49.0873930,186 6.1631400,49.0873740,186 6.1633870,49.0873930,186 6.1638150,49.0874270,186 6.1638890,49.0874330,186 6.1639920,49.0874410,186 6.1647910,49.0875010,186 6.1648800,49.0875040,186 6.1649320,49.0874930,187 6.1649790,49.0874710,187 6.1650360,49.0875190,187 6.1651130,49.0875770,186 6.1653920,49.0877880,186 6.1654040,49.0878090,186 6.1654880,49.0879690,186 6.1655610,49.0881320,186 6.1656000,49.0882350,186 6.1656420,49.0884030,186 6.1656570,49.0885180,186 6.1656620,49.0886850,187 6.1656470,49.0889010,187 6.1656500,49.0889640,187 6.1656750,49.0890310,187 6.1657030,49.0891020,187 6.1657460,49.0891680,187 6.1657870,49.0892340,187 6.1660790,49.0896950,187 6.1662420,49.0900200,186 6.1663040,49.0901610,186 6.1663480,49.0902570,186 6.1663600,49.0902790,186 6.1664960,49.0905160,186 6.1665060,49.0905340,186 6.1666460,49.0907750,186 6.1667710,49.0910070,186 6.1670350,49.0914980,186 6.1672830,49.0919000,186 6.1673280,49.0918880,186 6.1673750,49.0918790,186 6.1679120,49.0918130,186 6.1681070,49.0917970,186 6.1682590,49.0917930,186 6.1687460,49.0917850,186 6.1692690,49.0917790,186 6.1697140,49.0917970,186 6.1697590,49.0917990,186 6.1697710,49.0919410,186 6.1697960,49.0921410,185 6.1698510,49.0925960,185 6.1698740,49.0930000,184 6.1698820,49.0931260,184 6.1699680,49.0931460,184 6.1700350,49.0931620,184 6.1700540,49.0931710,184 6.1700820,49.0931460,184 6.1711940,49.0934520,185 6.1711980,49.0934710,185 6.1712300,49.0934900,184 6.1712520,49.0934900,184 6.1712850,49.0934750,184 6.1714990,49.0935350,184 6.1715990,49.0935510,184 6.1717850,49.0936040,184 6.1720130,49.0936700,184 6.1720730,49.0936940,184 6.1720980,49.0936720,184 6.1721250,49.0936480,184 6.1723110,49.0934880,184 6.1725180,49.0932940,184 6.1729180,49.0928980,185 6.1730750,49.0927430,185 6.1731530,49.0926740,186 6.1732000,49.0926480,186 6.1732920,49.0926060,186 6.1733800,49.0926500,186 6.1735380,49.0926980,186 6.1735820,49.0927110,186 6.1736300,49.0927240,186 6.1736620,49.0927340,186 6.1736550,49.0927720,186 6.1737750,49.0928160,186 6.1742720,49.0929720,185 6.1745240,49.0931050,185 6.1746850,49.0932070,185 6.1747230,49.0932510,185 6.1747250,49.0932880,186 6.1748130,49.0932390,184 6.1749200,49.0931950,184 6.1750120,49.0932410,184 6.1750680,49.0932780,185 6.1751330,49.0933570,186 6.1752820,49.0934860,185 6.1755380,49.0937240,185 6.1758700,49.0940230,184 6.1762650,49.0943880,181 6.1763080,49.0944180,181 6.1764680,49.0945650,180 6.1764840,49.0945930,180 6.1764990,49.0946360,180 6.1765770,49.0946830,179 6.1765700,49.0947220,179 6.1765570,49.0947940,179 6.1765490,49.0948980,179 6.1768100,49.0950680,177 6.1770370,49.0952730,175 6.1770360,49.0953280,175 6.1771870,49.0955160,174 6.1773740,49.0957510,173 6.1778220,49.0962880,172 6.1779440,49.0964880,172 6.1780210,49.0965860,171 6.1780500,49.0966360,171 6.1781220,49.0968480,171 6.1781570,49.0969580,171 6.1781930,49.0970990,170 6.1782150,49.0972430,170 6.1782250,49.0973390,170 6.1782220,49.0975440,170 6.1782250,49.0976650,170 6.1782180,49.0977860,170 6.1782020,49.0978570,170 6.1781250,49.0981690,171 6.1780970,49.0982660,171 6.1779700,49.0987800,171 6.1779500,49.0988950,171 6.1779010,49.0990510,171 6.1778420,49.0991790,171 6.1776080,49.0998490,172 6.1775670,49.0999550,172 6.1775200,49.0999720,172 6.1775140,49.0999900,172 6.1775010,49.1000350,172 6.1774910,49.1000730,172 6.1774790,49.1001210,172 6.1774540,49.1002970,172 6.1774230,49.1005370,171 6.1774280,49.1005910,171 6.1774370,49.1006770,171 6.1774380,49.1008100,171 6.1774080,49.1009100,171 6.1773890,49.1011020,171 6.1773960,49.1011490,171 6.1773800,49.1012010,171 6.1773780,49.1015010,171 6.1773810,49.1015520,171 6.1773840,49.1016020,171 6.1774260,49.1016160,171 6.1774260,49.1016370,171 6.1774300,49.1018030,171 6.1774400,49.1023550,171 6.1773860,49.1023890,171 6.1774270,49.1027580,171 6.1774810,49.1030510,171 6.1774970,49.1030750,171 6.1775140,49.1031000,171 6.1775290,49.1031510,171 6.1775380,49.1031830,171 6.1775410,49.1031910,171 6.1775570,49.1032330,171 6.1775940,49.1033310,171 6.1775870,49.1033650,171 6.1776090,49.1035040,170 6.1776350,49.1035970,170 6.1776620,49.1036890,170 6.1776890,49.1037880,170 6.1777200,49.1038950,170 6.1777560,49.1040230,170 6.1777970,49.1041410,170 6.1778640,49.1043220,170 6.1778780,49.1043410,170 6.1778950,49.1043880,170 6.1778990,49.1044200,170 6.1779200,49.1044620,170 6.1779900,49.1046160,170 6.1780210,49.1046760,170 6.1780570,49.1046950,170 6.1780890,49.1047120,170 6.1781140,49.1047660,170 6.1781740,49.1048840,170 6.1781960,49.1049330,170 6.1782230,49.1050560,170 6.1783100,49.1051920,170 6.1784140,49.1053480,170 6.1784870,49.1054230,170 6.1785180,49.1054540,170 6.1785480,49.1054960,169 6.1785940,49.1055450,169 6.1786180,49.1055780,169 6.1786500,49.1056310,169 6.1788870,49.1059190,169 6.1789410,49.1059530,169 6.1789930,49.1059670,169 6.1789310,49.1064140,169 6.1789090,49.1064410,169 6.1780970,49.1069090,170 6.1782550,49.1070150,170 6.1784050,49.1070880,170 6.1784740,49.1071130,170 6.1785570,49.1071240,170 6.1790740,49.1071570,170 6.1791200,49.1071560,170 6.1791450,49.1071530,170 6.1791320,49.1072050,170 6.1791730,49.1072070,170 6.1792250,49.1072090,170 6.1792680,49.1072110,170 6.1792830,49.1072120,170 6.1792880,49.1072430,170 6.1793190,49.1072750,170 6.1793180,49.1072870,171 6.1793120,49.1073310,171 6.1793070,49.1073610,172 6.1793030,49.1073940,172 6.1792990,49.1074160,172 6.1791980,49.1074090,172 6.1791970,49.1074210,173 6.1791920,49.1074580,173 6.1791850,49.1075080,174 6.1791790,49.1075560,174 6.1791580,49.1075590,174 6.1791480,49.1075750,174 6.1791160,49.1077560,175 6.1791290,49.1077910,175 6.1791630,49.1078230,175 6.1792570,49.1078480,174 6.1792220,49.1079530,172 6.1791090,49.1080580,170 6.1794600,49.1082810,172 6.1796610,49.1084180,172 6.1796210,49.1084460,172 6.1795900,49.1084890,172 6.1794770,49.1085900,172 6.1792300,49.1086030,172 6.1790320,49.1086290,174 6.1789650,49.1086370,174 6.1785780,49.1085970,176 6.1785370,49.1086340,176 6.1781230,49.1090000,179 6.1779350,49.1091650,179 6.1778550,49.1092350,179 6.1777310,49.1093450,179 6.1776440,49.1094230,179 6.1774510,49.1095900,180 6.1774310,49.1096070,180 6.1773630,49.1095730,180 6.1773130,49.1095400,180 6.1772910,49.1095290,180 6.1771660,49.1094690,180 6.1771030,49.1094370,180 6.1771540,49.1093930,180 6.1769770,49.1093080,179</coordinates></LineString></Placemark>
</Document></kml>