<?xml version="1.0" encoding="UTF-8"?>
<kml xmlns="http://www.opengis.net/kml/2.2"><Document>
  <name>La Seille en amont</name><description>15.2 km. D+ 31 m. 54 % de chemins. La plus verte du lot : plein sud le long de la Seille jusqu'aux prairies inondables de Marly, retour par les jardins de Montigny. Plate de bout en bout.</description>
  <Style id="depart"><IconStyle><scale>1.2</scale><Icon><href>http://maps.google.com/mapfiles/kml/paddle/grn-circle.png</href></Icon></IconStyle></Style>
  <Style id="etape"><IconStyle><Icon><href>http://maps.google.com/mapfiles/kml/paddle/wht-blank.png</href></Icon></IconStyle></Style>
    <Placemark><name>Depart : Gare de Metz, parvis</name><description>Point de ralliement des boucles a pied : a moins d'un quart d'heure de marche pour tout le monde. Abrite, cafe ouvert tot, toilettes.</description><styleUrl>#depart</styleUrl><Point><coordinates>6.1770130,49.1092770,0</coordinates></Point></Placemark>
    <Placemark><name>1. Parc de la Seille</name><description>Prairies humides et roselieres au bord de la Seille. Herons.</description><styleUrl>#etape</styleUrl><Point><coordinates>6.1849680,49.1066100,0</coordinates></Point></Placemark>
    <Placemark><name>2. Bord de Seille, Marly</name><description>La Seille en amont de Metz, prairies inondables et ripisylve.</description><styleUrl>#etape</styleUrl><Point><coordinates>6.1557480,49.0651140,0</coordinates></Point></Placemark>
    <Placemark><name>3. Montigny-les-Metz</name><description>Retour par le sud, jardins ouvriers et bord de Moselle.</description><styleUrl>#etape</styleUrl><Point><coordinates>6.1631230,49.0874750,0</coordinates></Point></Placemark>
    <Style id="t1"><LineStyle><color>ff5A6E2F</color><width>4</width></LineStyle></Style>
    <Placemark><name>La Seille en amont</name><description>15.2 km. D+ 31 m. 54 % de chemins. La plus verte du lot : plein sud le long de la Seille jusqu'aux prairies inondables de Marly, retour par les jardins de Montigny. Plate de bout en bout.</description><styleUrl>#t1</styleUrl><LineString><tessellate>1</tessellate><coordinates>6.1769770,49.1093080,180 6.1771540,49.1093930,180 6.1771030,49.1094370,180 6.1771660,49.1094690,180 6.1772910,49.1095290,180 6.1773130,49.1095400,180 6.1773630,49.1095730,180 6.1774310,49.1096070,180 6.1774510,49.1095900,180 6.1776440,49.1094230,179 6.1777310,49.1093450,179 6.1778550,49.1092350,179 6.1779350,49.1091650,179 6.1781230,49.1090000,179 6.1785370,49.1086340,176 6.1785780,49.1085970,176 6.1789650,49.1086370,174 6.1790320,49.1086290,174 6.1792300,49.1086030,172 6.1794770,49.1085900,172 6.1795900,49.1084890,172 6.1799530,49.1086990,172 6.1800090,49.1087230,172 6.1800320,49.1087070,172 6.1800720,49.1086810,172 6.1801050,49.1086560,172 6.1801210,49.1086420,172 6.1801710,49.1085990,172 6.1801950,49.1085640,172 6.1803040,49.1083640,172 6.1804210,49.1081720,172 6.1804690,49.1081500,172 6.1805360,49.1080360,171 6.1806140,49.1080420,171 6.1807420,49.1080150,171 6.1809290,49.1077440,171 6.1809750,49.1077000,171 6.1810350,49.1076610,171 6.1811230,49.1076290,171 6.1811800,49.1076210,171 6.1812390,49.1076120,171 6.1825490,49.1076960,171 6.1829870,49.1077260,173 6.1829890,49.1077060,172 6.1829990,49.1076110,172 6.1830050,49.1075710,172 6.1830140,49.1075180,171 6.1831850,49.1075310,170 6.1832290,49.1075150,170 6.1832440,49.1074910,170 6.1833290,49.1074970,170 6.1834120,49.1075020,170 6.1836170,49.1075120,170 6.1836340,49.1074180,170 6.1838590,49.1074340,170 6.1839010,49.1074370,170 6.1847110,49.1066060,170 6.1849620,49.1066240,170 6.1849640,49.1066090,169 6.1850090,49.1063120,169 6.1851430,49.1061660,169 6.1852270,49.1060850,169 6.1855070,49.1058050,167 6.1857570,49.1055370,166 6.1856800,49.1053470,166 6.1856370,49.1051920,166 6.1856370,49.1049580,166 6.1856480,49.1048890,166 6.1856840,49.1047800,166 6.1857520,49.1046910,165 6.1858460,49.1045240,165 6.1858970,49.1043850,166 6.1859790,49.1042080,166 6.1860670,49.1039590,165 6.1860860,49.1034710,166 6.1863350,49.1031920,165 6.1864150,49.1025860,165 6.1864740,49.1021940,166 6.1864800,49.1021550,166 6.1864820,49.1021370,166 6.1864840,49.1021220,167 6.1864870,49.1021060,167 6.1864900,49.1020830,167 6.1864920,49.1020640,168 6.1864950,49.1020450,168 6.1864980,49.1020230,168 6.1865010,49.1020040,168 6.1865050,49.1019670,168 6.1864960,49.1019350,169 6.1867280,49.1018920,168 6.1868080,49.1018400,168 6.1868500,49.1017250,169 6.1869180,49.1013120,169 6.1870680,49.1013220,169 6.1870870,49.1012120,169 6.1871300,49.1009570,169 6.1872290,49.1008470,169 6.1874520,49.1006410,170 6.1874980,49.1006450,170 6.1875000,49.1006370,170 6.1875120,49.1005900,170 6.1875180,49.1005390,170 6.1875850,49.1005420,168 6.1875910,49.1005140,168 6.1876210,49.1004860,168 6.1876410,49.1004490,168 6.1876580,49.1003440,168 6.1876560,49.0999240,167 6.1876390,49.0996890,167 6.1876120,49.0996000,167 6.1875720,49.0995130,167 6.1875460,49.0994200,167 6.1875320,49.0993200,167 6.1873920,49.0989860,167 6.1873730,49.0989160,167 6.1873130,49.0987740,167 6.1872720,49.0987040,167 6.1871350,49.0982780,167 6.1868530,49.0974750,166 6.1867940,49.0973420,167 6.1867510,49.0972660,167 6.1865790,49.0967660,166 6.1865030,49.0964670,166 6.1864790,49.0963180,166 6.1864610,49.0961620,166 6.1864430,49.0958610,166 6.1864310,49.0957970,166 6.1863890,49.0957530,167 6.1863210,49.0957160,167 6.1862170,49.0956780,167 6.1861020,49.0956470,168 6.1860310,49.0956190,168 6.1859600,49.0955760,168 6.1858160,49.0954560,168 6.1857670,49.0953750,168 6.1857430,49.0952820,168 6.1857320,49.0951820,168 6.1857620,49.0947420,168 6.1858360,49.0945800,168 6.1858650,49.0945020,168 6.1858650,49.0944210,168 6.1858380,49.0942770,168 6.1857350,49.0938920,168 6.1856390,49.0935920,168 6.1856220,49.0934850,168 6.1855710,49.0932780,169 6.1855470,49.0932200,169 6.1855170,49.0927890,168 6.1854870,49.0927230,168 6.1854800,49.0926880,168 6.1854840,49.0925640,168 6.1854300,49.0923700,167 6.1854180,49.0922700,167 6.1854580,49.0921070,166 6.1854640,49.0920160,166 6.1854520,49.0919330,166 6.1853900,49.0917560,166 6.1853870,49.0915260,166 6.1854100,49.0914130,166 6.1854130,49.0913510,166 6.1853900,49.0913000,166 6.1853420,49.0912430,167 6.1851670,49.0911100,167 6.1848570,49.0907200,168 6.1844980,49.0903360,167 6.1843230,49.0901290,168 6.1842060,49.0900220,168 6.1841060,49.0899430,168 6.1839540,49.0898480,168 6.1836690,49.0896950,168 6.1833890,49.0894910,167 6.1833280,49.0894480,167 6.1827450,49.0891540,168 6.1825630,49.0890570,168 6.1824700,49.0890270,168 6.1822910,49.0889970,168 6.1822790,49.0889420,168 6.1821820,49.0889010,168 6.1820120,49.0888700,168 6.1816480,49.0888630,168 6.1815350,49.0888470,169 6.1814260,49.0888120,169 6.1810360,49.0885520,170 6.1805580,49.0884010,168 6.1803940,49.0883040,167 6.1800810,49.0880770,167 6.1796750,49.0877560,167 6.1795450,49.0876970,167 6.1795740,49.0876540,167 6.1795440,49.0876120,167 6.1793710,49.0874870,167 6.1792990,49.0873910,167 6.1792180,49.0873030,167 6.1790890,49.0871110,166 6.1789270,49.0869500,167 6.1785890,49.0865680,166 6.1784380,49.0863550,166 6.1783990,49.0861210,167 6.1784230,49.0859720,166 6.1787220,49.0854590,167 6.1788310,49.0851420,167 6.1788650,49.0848820,167 6.1789230,49.0845710,167 6.1789810,49.0844130,166 6.1791230,49.0840790,166 6.1792240,49.0839320,166 6.1793800,49.0838050,166 6.1795160,49.0837090,166 6.1797000,49.0836220,167 6.1799030,49.0835670,166 6.1807700,49.0832880,167 6.1809440,49.0832200,166 6.1817850,49.0828340,167 6.1820770,49.0826860,166 6.1821600,49.0826070,166 6.1822410,49.0825700,166 6.1823180,49.0825060,166 6.1824210,49.0824110,166 6.1825110,49.0823010,167 6.1825710,49.0821710,167 6.1826270,49.0820760,166 6.1827090,49.0818870,166 6.1827690,49.0816700,167 6.1828380,49.0815270,167 6.1829970,49.0811360,167 6.1832370,49.0806290,167 6.1833070,49.0804470,167 6.1833940,49.0802730,168 6.1834010,49.0800600,168 6.1833370,49.0798720,168 6.1833090,49.0798390,168 6.1832740,49.0798190,168 6.1832560,49.0797920,168 6.1832540,49.0796930,168 6.1831950,49.0793760,167 6.1830880,49.0791770,168 6.1830660,49.0790860,167 6.1829750,49.0789770,167 6.1828540,49.0788590,168 6.1828000,49.0787760,168 6.1827750,49.0787530,168 6.1828460,49.0786790,168 6.1828830,49.0786080,168 6.1829060,49.0784710,168 6.1828670,49.0783700,168 6.1827760,49.0782870,168 6.1826030,49.0782030,168 6.1824520,49.0781140,168 6.1823800,49.0780270,168 6.1822810,49.0777260,168 6.1822180,49.0776760,168 6.1820780,49.0775860,168 6.1820600,49.0775300,168 6.1821610,49.0772850,168 6.1821630,49.0772740,168 6.1818780,49.0772030,169 6.1818160,49.0771670,168 6.1815590,49.0771080,168 6.1813120,49.0770130,168 6.1810550,49.0768720,168 6.1809620,49.0767950,168 6.1808700,49.0767460,168 6.1804320,49.0765990,168 6.1802420,49.0765490,168 6.1799680,49.0764890,169 6.1798800,49.0764540,168 6.1798460,49.0764220,168 6.1797940,49.0763730,168 6.1797570,49.0763030,169 6.1797200,49.0761880,169 6.1796900,49.0760360,170 6.1796800,49.0759370,170 6.1797330,49.0753280,169 6.1797450,49.0752720,169 6.1797160,49.0752710,169 6.1795100,49.0752640,170 6.1794570,49.0752620,170 6.1780980,49.0751870,170 6.1757770,49.0748880,171 6.1757650,49.0748150,171 6.1757750,49.0747150,171 6.1758450,49.0745100,171 6.1760630,49.0741110,171 6.1761180,49.0739690,171 6.1761640,49.0738120,171 6.1761730,49.0736730,172 6.1761590,49.0734650,172 6.1761200,49.0732770,173 6.1760870,49.0730340,173 6.1760710,49.0728270,174 6.1760650,49.0726680,174 6.1760910,49.0723940,174 6.1761010,49.0721190,174 6.1761000,49.0719490,174 6.1760820,49.0717370,174 6.1760260,49.0715790,174 6.1759370,49.0714080,174 6.1758310,49.0712490,175 6.1757210,49.0711090,175 6.1756290,49.0710310,175 6.1755260,49.0709780,176 6.1753650,49.0709170,176 6.1751050,49.0708310,176 6.1739870,49.0705120,179 6.1732320,49.0702650,181 6.1730130,49.0701770,181 6.1727590,49.0700640,181 6.1724090,49.0698750,181 6.1720890,49.0696590,180 6.1714910,49.0691940,181 6.1712340,49.0689850,180 6.1710310,49.0687950,180 6.1706850,49.0684070,181 6.1706110,49.0683210,181 6.1703570,49.0679370,182 6.1702960,49.0679520,181 6.1699040,49.0682030,179 6.1698520,49.0681750,179 6.1693150,49.0680650,178 6.1692230,49.0680330,178 6.1691360,49.0679880,178 6.1690560,49.0679310,178 6.1687250,49.0676770,178 6.1685980,49.0675840,178 6.1684520,49.0674780,178 6.1684190,49.0674530,178 6.1683110,49.0673690,178 6.1682660,49.0673410,178 6.1682110,49.0673190,178 6.1681450,49.0672990,177 6.1680720,49.0672900,177 6.1679380,49.0672930,177 6.1679110,49.0672950,177 6.1667920,49.0673890,175 6.1666020,49.0674060,175 6.1664530,49.0674120,175 6.1663860,49.0674070,175 6.1663320,49.0673940,175 6.1662170,49.0673500,174 6.1655450,49.0669980,174 6.1652090,49.0668680,174 6.1648790,49.0667250,173 6.1645850,49.0665750,173 6.1643170,49.0664230,172 6.1641300,49.0662920,172 6.1640990,49.0663120,172 6.1639970,49.0663730,172 6.1639070,49.0664050,172 6.1634620,49.0665560,172 6.1633350,49.0665810,172 6.1632200,49.0665960,172 6.1628580,49.0666250,172 6.1625750,49.0666600,171 6.1618440,49.0667690,171 6.1617180,49.0667930,171 6.1615970,49.0668280,171 6.1614910,49.0668690,171 6.1613950,49.0669210,171 6.1611390,49.0671100,171 6.1610410,49.0671920,171 6.1608570,49.0671940,171 6.1606360,49.0672210,171 6.1603990,49.0672840,171 6.1602970,49.0673250,171 6.1602000,49.0673770,171 6.1601300,49.0674260,171 6.1600100,49.0675620,171 6.1599660,49.0676380,171 6.1599400,49.0677150,171 6.1599200,49.0685150,171 6.1599320,49.0686060,171 6.1598080,49.0686250,171 6.1587790,49.0687280,171 6.1585430,49.0687540,170 6.1582660,49.0687880,169 6.1581230,49.0688280,169 6.1580400,49.0688240,169 6.1577300,49.0687260,169 6.1576500,49.0686430,170 6.1573580,49.0678470,169 6.1572530,49.0674390,169 6.1571480,49.0668350,169 6.1571640,49.0664440,169 6.1570960,49.0660760,169 6.1570020,49.0657990,169 6.1568550,49.0654190,169 6.1567400,49.0648920,169 6.1566240,49.0647670,169 6.1565050,49.0646780,169 6.1566240,49.0647670,169 6.1567400,49.0648920,169 6.1568550,49.0654190,169 6.1570020,49.0657990,169 6.1570960,49.0660760,169 6.1571640,49.0664440,169 6.1571480,49.0668350,169 6.1572530,49.0674390,169 6.1573580,49.0678470,169 6.1576500,49.0686430,170 6.1575620,49.0686790,169 6.1572050,49.0688310,169 6.1571590,49.0688530,170 6.1574330,49.0690610,168 6.1574650,49.0691590,169 6.1575020,49.0692240,169 6.1576160,49.0693240,168 6.1576380,49.0693970,169 6.1576380,49.0694810,169 6.1575750,49.0696600,169 6.1575310,49.0697250,169 6.1574850,49.0698650,169 6.1574670,49.0699540,169 6.1574760,49.0701260,169 6.1574720,49.0702790,169 6.1574590,49.0703640,169 6.1574140,49.0704760,169 6.1573520,49.0705660,169 6.1571830,49.0707760,169 6.1569800,49.0709820,169 6.1568160,49.0711320,169 6.1566900,49.0712890,169 6.1565830,49.0714560,168 6.1564500,49.0716080,168 6.1561780,49.0718360,169 6.1559190,49.0720250,169 6.1558250,49.0721070,169 6.1557460,49.0722670,169 6.1556880,49.0723500,168 6.1556050,49.0724430,168 6.1555340,49.0725400,169 6.1553710,49.0728350,168 6.1553100,49.0729220,169 6.1550410,49.0731890,169 6.1548920,49.0732830,169 6.1549290,49.0734680,169 6.1549770,49.0736270,169 6.1550660,49.0737600,169 6.1553510,49.0741490,170 6.1553910,49.0742410,169 6.1546320,49.0745690,170 6.1545720,49.0746190,170 6.1545030,49.0746620,170 6.1544090,49.0747010,170 6.1516480,49.0759850,174 6.1512760,49.0761550,174 6.1512390,49.0761680,174 6.1511970,49.0761870,175 6.1511390,49.0762160,175 6.1509130,49.0763130,176 6.1505490,49.0763460,177 6.1504840,49.0763600,177 6.1505640,49.0764990,177 6.1506040,49.0775730,182 6.1505930,49.0776290,182 6.1505680,49.0776740,182 6.1505070,49.0777070,182 6.1505830,49.0777720,183 6.1507630,49.0778330,183 6.1507810,49.0781510,183 6.1511770,49.0781380,183 6.1512110,49.0781370,182 6.1512640,49.0781360,182 6.1512860,49.0787720,184 6.1512870,49.0787980,184 6.1512730,49.0788560,184 6.1512830,49.0789230,184 6.1513090,49.0789540,184 6.1510400,49.0791150,185 6.1510650,49.0791350,185 6.1520010,49.0799340,185 6.1534170,49.0809840,184 6.1535440,49.0812710,184 6.1537440,49.0814770,184 6.1545960,49.0821930,183 6.1545250,49.0822780,184 6.1544570,49.0823420,184 6.1543650,49.0823940,183 6.1538490,49.0826990,183 6.1531650,49.0830620,184 6.1531020,49.0831160,185 6.1530580,49.0831730,185 6.1531060,49.0832050,185 6.1535670,49.0835210,184 6.1538750,49.0837220,185 6.1540250,49.0838110,185 6.1542230,49.0839170,184 6.1545410,49.0840680,185 6.1549060,49.0842150,185 6.1550790,49.0842770,185 6.1554290,49.0843860,184 6.1555870,49.0844290,184 6.1559040,49.0845030,184 6.1562420,49.0845670,184 6.1564370,49.0845980,184 6.1568050,49.0846430,184 6.1572140,49.0846690,184 6.1574470,49.0846740,183 6.1575200,49.0846760,183 6.1575040,49.0847720,183 6.1574990,49.0848000,183 6.1574950,49.0848190,183 6.1574900,49.0848470,183 6.1575810,49.0848580,183 6.1577520,49.0848790,183 6.1577890,49.0849060,183 6.1579780,49.0849240,183 6.1587020,49.0849700,182 6.1590060,49.0850090,183 6.1596340,49.0851340,183 6.1598390,49.0851860,183 6.1598580,49.0851490,183 6.1600030,49.0851860,184 6.1600610,49.0852000,184 6.1601440,49.0852210,184 6.1604380,49.0852980,184 6.1606240,49.0853550,184 6.1613480,49.0856110,186 6.1612560,49.0857310,185 6.1611990,49.0857690,184 6.1615250,49.0859170,184 6.1617890,49.0860100,184 6.1618510,49.0860460,185 6.1618570,49.0860730,185 6.1618480,49.0861350,184 6.1617720,49.0862730,184 6.1617960,49.0863610,185 6.1619770,49.0864620,186 6.1620150,49.0864840,186 6.1620710,49.0865150,186 6.1618750,49.0866150,186 6.1612420,49.0871230,185 6.1613530,49.0872780,185 6.1613190,49.0872880,185 6.1613420,49.0873250,185 6.1616320,49.0872840,186 6.1618830,49.0872790,186 6.1621520,49.0872970,186 6.1628020,49.0873480,186 6.1630110,49.0873640,186 6.1631400,49.0873740,186 6.1633870,49.0873930,186 6.1638150,49.0874270,186 6.1638890,49.0874330,186 6.1639920,49.0874410,186 6.1647910,49.0875010,186 6.1648800,49.0875040,186 6.1649320,49.0874930,187 6.1649790,49.0874710,187 6.1650360,49.0875190,187 6.1651130,49.0875770,186 6.1653920,49.0877880,186 6.1654040,49.0878090,186 6.1654880,49.0879690,186 6.1655610,49.0881320,186 6.1656000,49.0882350,186 6.1656420,49.0884030,186 6.1656570,49.0885180,186 6.1656620,49.0886850,187 6.1656470,49.0889010,187 6.1656500,49.0889640,187 6.1656750,49.0890310,187 6.1657030,49.0891020,187 6.1657460,49.0891680,187 6.1657870,49.0892340,187 6.1660790,49.0896950,187 6.1662420,49.0900200,186 6.1663040,49.0901610,186 6.1663480,49.0902570,186 6.1663600,49.0902790,186 6.1664960,49.0905160,186 6.1665060,49.0905340,186 6.1666460,49.0907750,186 6.1667710,49.0910070,186 6.1670350,49.0914980,186 6.1672830,49.0919000,186 6.1673280,49.0918880,186 6.1673750,49.0918790,186 6.1679120,49.0918130,186 6.1681070,49.0917970,186 6.1682590,49.0917930,186 6.1687460,49.0917850,186 6.1692690,49.0917790,186 6.1697140,49.0917970,186 6.1697590,49.0917990,186 6.1697710,49.0919410,186 6.1697960,49.0921410,185 6.1698510,49.0925960,185 6.1698740,49.0930000,184 6.1698820,49.0931260,184 6.1699680,49.0931460,184 6.1700350,49.0931620,184 6.1700540,49.0931710,184 6.1700820,49.0931460,184 6.1711940,49.0934520,185 6.1711980,49.0934710,185 6.1712300,49.0934900,184 6.1712520,49.0934900,184 6.1712850,49.0934750,184 6.1714990,49.0935350,184 6.1715990,49.0935510,184 6.1717850,49.0936040,184 6.1720130,49.0936700,184 6.1720730,49.0936940,184 6.1720980,49.0936720,184 6.1721250,49.0936480,184 6.1723110,49.0934880,184 6.1725180,49.0932940,184 6.1729180,49.0928980,185 6.1730750,49.0927430,185 6.1731530,49.0926740,186 6.1732000,49.0926480,186 6.1732920,49.0926060,186 6.1733800,49.0926500,186 6.1735380,49.0926980,186 6.1735820,49.0927110,186 6.1736300,49.0927240,186 6.1736620,49.0927340,186 6.1736550,49.0927720,186 6.1737750,49.0928160,186 6.1742720,49.0929720,185 6.1745240,49.0931050,185 6.1746850,49.0932070,185 6.1747230,49.0932510,185 6.1747250,49.0932880,186 6.1748130,49.0932390,184 6.1749200,49.0931950,184 6.1750120,49.0932410,184 6.1750680,49.0932780,185 6.1751330,49.0933570,186 6.1752820,49.0934860,185 6.1755380,49.0937240,185 6.1758700,49.0940230,184 6.1762650,49.0943880,181 6.1763080,49.0944180,181 6.1764680,49.0945650,180 6.1764840,49.0945930,180 6.1764990,49.0946360,180 6.1765770,49.0946830,179 6.1765700,49.0947220,179 6.1765570,49.0947940,179 6.1765490,49.0948980,179 6.1768100,49.0950680,177 6.1770370,49.0952730,175 6.1770360,49.0953280,175 6.1771870,49.0955160,174 6.1773740,49.0957510,173 6.1778220,49.0962880,172 6.1779440,49.0964880,172 6.1780210,49.0965860,171 6.1780500,49.0966360,171 6.1781220,49.0968480,171 6.1781570,49.0969580,171 6.1781930,49.0970990,170 6.1782150,49.0972430,170 6.1782250,49.0973390,170 6.1782220,49.0975440,170 6.1782250,49.0976650,170 6.1782180,49.0977860,170 6.1782020,49.0978570,170 6.1781250,49.0981690,171 6.1780970,49.0982660,171 6.1779700,49.0987800,171 6.1779500,49.0988950,171 6.1779010,49.0990510,171 6.1778420,49.0991790,171 6.1776080,49.0998490,172 6.1775670,49.0999550,172 6.1775200,49.0999720,172 6.1775140,49.0999900,172 6.1775010,49.1000350,172 6.1774910,49.1000730,172 6.1774790,49.1001210,172 6.1774540,49.1002970,172 6.1774230,49.1005370,171 6.1774280,49.1005910,171 6.1774370,49.1006770,171 6.1774380,49.1008100,171 6.1774080,49.1009100,171 6.1773890,49.1011020,171 6.1773960,49.1011490,171 6.1773800,49.1012010,171 6.1773780,49.1015010,171 6.1773810,49.1015520,171 6.1773840,49.1016020,171 6.1774260,49.1016160,171 6.1774260,49.1016370,171 6.1774300,49.1018030,171 6.1774400,49.1023550,171 6.1773860,49.1023890,171 6.1774270,49.1027580,171 6.1774810,49.1030510,171 6.1774970,49.1030750,171 6.1775140,49.1031000,171 6.1775290,49.1031510,171 6.1775380,49.1031830,171 6.1775410,49.1031910,171 6.1775570,49.1032330,171 6.1775940,49.1033310,171 6.1775870,49.1033650,171 6.1776090,49.1035040,170 6.1776350,49.1035970,170 6.1776620,49.1036890,170 6.1776890,49.1037880,170 6.1777200,49.1038950,170 6.1777560,49.1040230,170 6.1777970,49.1041410,170 6.1778640,49.1043220,170 6.1778780,49.1043410,170 6.1778950,49.1043880,170 6.1778990,49.1044200,170 6.1779200,49.1044620,170 6.1779900,49.1046160,170 6.1780210,49.1046760,170 6.1780570,49.1046950,170 6.1780890,49.1047120,170 6.1781140,49.1047660,170 6.1781740,49.1048840,170 6.1781960,49.1049330,170 6.1782230,49.1050560,170 6.1783100,49.1051920,170 6.1784140,49.1053480,170 6.1784870,49.1054230,170 6.1785180,49.1054540,170 6.1785480,49.1054960,169 6.1785940,49.1055450,169 6.1786180,49.1055780,169 6.1786500,49.1056310,169 6.1788870,49.1059190,169 6.1789410,49.1059530,169 6.1789930,49.1059670,169 6.1789310,49.1064140,169 6.1789090,49.1064410,169 6.1780970,49.1069090,170 6.1782550,49.1070150,170 6.1784050,49.1070880,170 6.1784740,49.1071130,170 6.1785570,49.1071240,170 6.1790740,49.1071570,170 6.1791200,49.1071560,170 6.1791450,49.1071530,170 6.1791320,49.1072050,170 6.1791730,49.1072070,170 6.1792250,49.1072090,170 6.1792680,49.1072110,170 6.1792830,49.1072120,170 6.1792880,49.1072430,170 6.1793190,49.1072750,170 6.1793180,49.1072870,171 6.1793120,49.1073310,171 6.1793070,49.1073610,172 6.1793030,49.1073940,172 6.1792990,49.1074160,172 6.1791980,49.1074090,172 6.1791970,49.1074210,173 6.1791920,49.1074580,173 6.1791850,49.1075080,174 6.1791790,49.1075560,174 6.1791580,49.1075590,174 6.1791480,49.1075750,174 6.1791160,49.1077560,175 6.1791290,49.1077910,175 6.1791630,49.1078230,175 6.1792570,49.1078480,174 6.1792220,49.1079530,172 6.1791090,49.1080580,170 6.1794600,49.1082810,172 6.1796610,49.1084180,172 6.1796210,49.1084460,172 6.1795900,49.1084890,172 6.1794770,49.1085900,172 6.1792300,49.1086030,172 6.1790320,49.1086290,174 6.1789650,49.1086370,174 6.1785780,49.1085970,176 6.1785370,49.1086340,176 6.1781230,49.1090000,179 6.1779350,49.1091650,179 6.1778550,49.1092350,179 6.1777310,49.1093450,179 6.1776440,49.1094230,179 6.1774510,49.1095900,180 6.1774310,49.1096070,180 6.1773630,49.1095730,180 6.1773130,49.1095400,180 6.1772910,49.1095290,180 6.1771660,49.1094690,180 6.1771030,49.1094370,180 6.1771540,49.1093930,180 6.1769770,49.1093080,179</coordinates></LineString></Placemark>
</Document></kml>