<?xml version="1.0" encoding="UTF-8"?>
<gpx version="1.1" creator="olifant"
     xmlns="http://www.topografix.com/GPX/1/1"
     xmlns:xsi="http://www.w3.org/2001/XMLSchema-instance"
     xsi:schemaLocation="http://www.topografix.com/GPX/1/1 http://www.topografix.com/GPX/1/1/gpx.xsd">
  <metadata><name>La Seille en amont</name><desc>15.2 km. D+ 31 m. 54 % de chemins. La plus verte du lot : plein sud le long de la Seille jusqu'aux prairies inondables de Marly, retour par les jardins de Montigny. Plate de bout en bout.</desc></metadata>
  <wpt lat="49.1092770" lon="6.1770130"><name>Gare de Metz, parvis</name><desc>Point de ralliement des boucles a pied : a moins d'un quart d'heure de marche pour tout le monde. Abrite, cafe ouvert tot, toilettes.</desc></wpt>
  <wpt lat="49.1066100" lon="6.1849680"><name>Parc de la Seille</name><desc>Prairies humides et roselieres au bord de la Seille. Herons.</desc></wpt>
  <wpt lat="49.0651140" lon="6.1557480"><name>Bord de Seille, Marly</name><desc>La Seille en amont de Metz, prairies inondables et ripisylve.</desc></wpt>
  <wpt lat="49.0874750" lon="6.1631230"><name>Montigny-les-Metz</name><desc>Retour par le sud, jardins ouvriers et bord de Moselle.</desc></wpt>
  <trk><name>La Seille en amont</name><trkseg>
    <trkpt lat="49.1093080" lon="6.1769770"><ele>179.5</ele></trkpt>
    <trkpt lat="49.1093930" lon="6.1771540"><ele>179.8</ele></trkpt>
    <trkpt lat="49.1094370" lon="6.1771030"><ele>179.8</ele></trkpt>
    <trkpt lat="49.1094690" lon="6.1771660"><ele>179.8</ele></trkpt>
    <trkpt lat="49.1095290" lon="6.1772910"><ele>179.8</ele></trkpt>
    <trkpt lat="49.1095400" lon="6.1773130"><ele>179.8</ele></trkpt>
    <trkpt lat="49.1095730" lon="6.1773630"><ele>179.5</ele></trkpt>
    <trkpt lat="49.1096070" lon="6.1774310"><ele>179.5</ele></trkpt>
    <trkpt lat="49.1095900" lon="6.1774510"><ele>179.5</ele></trkpt>
    <trkpt lat="49.1094230" lon="6.1776440"><ele>179.0</ele></trkpt>
    <trkpt lat="49.1093450" lon="6.1777310"><ele>179.0</ele></trkpt>
    <trkpt lat="49.1092350" lon="6.1778550"><ele>179.0</ele></trkpt>
    <trkpt lat="49.1091650" lon="6.1779350"><ele>178.8</ele></trkpt>
    <trkpt lat="49.1090000" lon="6.1781230"><ele>179.0</ele></trkpt>
    <trkpt lat="49.1086340" lon="6.1785370"><ele>176.5</ele></trkpt>
    <trkpt lat="49.1085970" lon="6.1785780"><ele>175.8</ele></trkpt>
    <trkpt lat="49.1086370" lon="6.1789650"><ele>174.5</ele></trkpt>
    <trkpt lat="49.1086290" lon="6.1790320"><ele>173.5</ele></trkpt>
    <trkpt lat="49.1086030" lon="6.1792300"><ele>171.8</ele></trkpt>
    <trkpt lat="49.1085900" lon="6.1794770"><ele>171.8</ele></trkpt>
    <trkpt lat="49.1084890" lon="6.1795900"><ele>171.8</ele></trkpt>
    <trkpt lat="49.1086990" lon="6.1799530"><ele>172.0</ele></trkpt>
    <trkpt lat="49.1087230" lon="6.1800090"><ele>172.0</ele></trkpt>
    <trkpt lat="49.1087070" lon="6.1800320"><ele>172.0</ele></trkpt>
    <trkpt lat="49.1086810" lon="6.1800720"><ele>172.0</ele></trkpt>
    <trkpt lat="49.1086560" lon="6.1801050"><ele>172.0</ele></trkpt>
    <trkpt lat="49.1086420" lon="6.1801210"><ele>172.0</ele></trkpt>
    <trkpt lat="49.1085990" lon="6.1801710"><ele>172.0</ele></trkpt>
    <trkpt lat="49.1085640" lon="6.1801950"><ele>172.0</ele></trkpt>
    <trkpt lat="49.1083640" lon="6.1803040"><ele>171.8</ele></trkpt>
    <trkpt lat="49.1081720" lon="6.1804210"><ele>171.5</ele></trkpt>
    <trkpt lat="49.1081500" lon="6.1804690"><ele>171.5</ele></trkpt>
    <trkpt lat="49.1080360" lon="6.1805360"><ele>171.0</ele></trkpt>
    <trkpt lat="49.1080420" lon="6.1806140"><ele>171.0</ele></trkpt>
    <trkpt lat="49.1080150" lon="6.1807420"><ele>171.0</ele></trkpt>
    <trkpt lat="49.1077440" lon="6.1809290"><ele>171.0</ele></trkpt>
    <trkpt lat="49.1077000" lon="6.1809750"><ele>171.0</ele></trkpt>
    <trkpt lat="49.1076610" lon="6.1810350"><ele>171.0</ele></trkpt>
    <trkpt lat="49.1076290" lon="6.1811230"><ele>171.0</ele></trkpt>
    <trkpt lat="49.1076210" lon="6.1811800"><ele>171.0</ele></trkpt>
    <trkpt lat="49.1076120" lon="6.1812390"><ele>171.0</ele></trkpt>
    <trkpt lat="49.1076960" lon="6.1825490"><ele>171.0</ele></trkpt>
    <trkpt lat="49.1077260" lon="6.1829870"><ele>172.8</ele></trkpt>
    <trkpt lat="49.1077060" lon="6.1829890"><ele>172.5</ele></trkpt>
    <trkpt lat="49.1076110" lon="6.1829990"><ele>171.8</ele></trkpt>
    <trkpt lat="49.1075710" lon="6.1830050"><ele>171.5</ele></trkpt>
    <trkpt lat="49.1075180" lon="6.1830140"><ele>171.0</ele></trkpt>
    <trkpt lat="49.1075310" lon="6.1831850"><ele>170.5</ele></trkpt>
    <trkpt lat="49.1075150" lon="6.1832290"><ele>170.2</ele></trkpt>
    <trkpt lat="49.1074910" lon="6.1832440"><ele>170.2</ele></trkpt>
    <trkpt lat="49.1074970" lon="6.1833290"><ele>170.0</ele></trkpt>
    <trkpt lat="49.1075020" lon="6.1834120"><ele>170.0</ele></trkpt>
    <trkpt lat="49.1075120" lon="6.1836170"><ele>170.0</ele></trkpt>
    <trkpt lat="49.1074180" lon="6.1836340"><ele>170.0</ele></trkpt>
    <trkpt lat="49.1074340" lon="6.1838590"><ele>170.0</ele></trkpt>
    <trkpt lat="49.1074370" lon="6.1839010"><ele>169.8</ele></trkpt>
    <trkpt lat="49.1066060" lon="6.1847110"><ele>169.8</ele></trkpt>
    <trkpt lat="49.1066240" lon="6.1849620"><ele>169.8</ele></trkpt>
    <trkpt lat="49.1066090" lon="6.1849640"><ele>168.8</ele></trkpt>
    <trkpt lat="49.1063120" lon="6.1850090"><ele>168.8</ele></trkpt>
    <trkpt lat="49.1061660" lon="6.1851430"><ele>168.8</ele></trkpt>
    <trkpt lat="49.1060850" lon="6.1852270"><ele>169.0</ele></trkpt>
    <trkpt lat="49.1058050" lon="6.1855070"><ele>167.2</ele></trkpt>
    <trkpt lat="49.1055370" lon="6.1857570"><ele>166.0</ele></trkpt>
    <trkpt lat="49.1053470" lon="6.1856800"><ele>166.0</ele></trkpt>
    <trkpt lat="49.1051920" lon="6.1856370"><ele>166.2</ele></trkpt>
    <trkpt lat="49.1049580" lon="6.1856370"><ele>166.2</ele></trkpt>
    <trkpt lat="49.1048890" lon="6.1856480"><ele>166.2</ele></trkpt>
    <trkpt lat="49.1047800" lon="6.1856840"><ele>166.0</ele></trkpt>
    <trkpt lat="49.1046910" lon="6.1857520"><ele>165.2</ele></trkpt>
    <trkpt lat="49.1045240" lon="6.1858460"><ele>165.2</ele></trkpt>
    <trkpt lat="49.1043850" lon="6.1858970"><ele>166.0</ele></trkpt>
    <trkpt lat="49.1042080" lon="6.1859790"><ele>166.2</ele></trkpt>
    <trkpt lat="49.1039590" lon="6.1860670"><ele>165.2</ele></trkpt>
    <trkpt lat="49.1034710" lon="6.1860860"><ele>165.5</ele></trkpt>
    <trkpt lat="49.1031920" lon="6.1863350"><ele>165.0</ele></trkpt>
    <trkpt lat="49.1025860" lon="6.1864150"><ele>165.0</ele></trkpt>
    <trkpt lat="49.1021940" lon="6.1864740"><ele>166.0</ele></trkpt>
    <trkpt lat="49.1021550" lon="6.1864800"><ele>166.2</ele></trkpt>
    <trkpt lat="49.1021370" lon="6.1864820"><ele>166.5</ele></trkpt>
    <trkpt lat="49.1021220" lon="6.1864840"><ele>166.8</ele></trkpt>
    <trkpt lat="49.1021060" lon="6.1864870"><ele>167.0</ele></trkpt>
    <trkpt lat="49.1020830" lon="6.1864900"><ele>167.2</ele></trkpt>
    <trkpt lat="49.1020640" lon="6.1864920"><ele>167.5</ele></trkpt>
    <trkpt lat="49.1020450" lon="6.1864950"><ele>167.8</ele></trkpt>
    <trkpt lat="49.1020230" lon="6.1864980"><ele>168.0</ele></trkpt>
    <trkpt lat="49.1020040" lon="6.1865010"><ele>168.2</ele></trkpt>
    <trkpt lat="49.1019670" lon="6.1865050"><ele>168.5</ele></trkpt>
    <trkpt lat="49.1019350" lon="6.1864960"><ele>168.8</ele></trkpt>
    <trkpt lat="49.1018920" lon="6.1867280"><ele>168.5</ele></trkpt>
    <trkpt lat="49.1018400" lon="6.1868080"><ele>168.2</ele></trkpt>
    <trkpt lat="49.1017250" lon="6.1868500"><ele>168.8</ele></trkpt>
    <trkpt lat="49.1013120" lon="6.1869180"><ele>169.0</ele></trkpt>
    <trkpt lat="49.1013220" lon="6.1870680"><ele>169.2</ele></trkpt>
    <trkpt lat="49.1012120" lon="6.1870870"><ele>169.0</ele></trkpt>
    <trkpt lat="49.1009570" lon="6.1871300"><ele>169.0</ele></trkpt>
    <trkpt lat="49.1008470" lon="6.1872290"><ele>169.0</ele></trkpt>
    <trkpt lat="49.1006410" lon="6.1874520"><ele>169.8</ele></trkpt>
    <trkpt lat="49.1006450" lon="6.1874980"><ele>169.8</ele></trkpt>
    <trkpt lat="49.1006370" lon="6.1875000"><ele>169.8</ele></trkpt>
    <trkpt lat="49.1005900" lon="6.1875120"><ele>169.8</ele></trkpt>
    <trkpt lat="49.1005390" lon="6.1875180"><ele>169.5</ele></trkpt>
    <trkpt lat="49.1005420" lon="6.1875850"><ele>168.2</ele></trkpt>
    <trkpt lat="49.1005140" lon="6.1875910"><ele>168.2</ele></trkpt>
    <trkpt lat="49.1004860" lon="6.1876210"><ele>167.8</ele></trkpt>
    <trkpt lat="49.1004490" lon="6.1876410"><ele>167.5</ele></trkpt>
    <trkpt lat="49.1003440" lon="6.1876580"><ele>167.5</ele></trkpt>
    <trkpt lat="49.0999240" lon="6.1876560"><ele>167.2</ele></trkpt>
    <trkpt lat="49.0996890" lon="6.1876390"><ele>167.2</ele></trkpt>
    <trkpt lat="49.0996000" lon="6.1876120"><ele>167.2</ele></trkpt>
    <trkpt lat="49.0995130" lon="6.1875720"><ele>167.2</ele></trkpt>
    <trkpt lat="49.0994200" lon="6.1875460"><ele>167.2</ele></trkpt>
    <trkpt lat="49.0993200" lon="6.1875320"><ele>167.2</ele></trkpt>
    <trkpt lat="49.0989860" lon="6.1873920"><ele>166.8</ele></trkpt>
    <trkpt lat="49.0989160" lon="6.1873730"><ele>166.8</ele></trkpt>
    <trkpt lat="49.0987740" lon="6.1873130"><ele>167.0</ele></trkpt>
    <trkpt lat="49.0987040" lon="6.1872720"><ele>167.0</ele></trkpt>
    <trkpt lat="49.0982780" lon="6.1871350"><ele>167.2</ele></trkpt>
    <trkpt lat="49.0974750" lon="6.1868530"><ele>166.5</ele></trkpt>
    <trkpt lat="49.0973420" lon="6.1867940"><ele>166.8</ele></trkpt>
    <trkpt lat="49.0972660" lon="6.1867510"><ele>167.0</ele></trkpt>
    <trkpt lat="49.0967660" lon="6.1865790"><ele>166.2</ele></trkpt>
    <trkpt lat="49.0964670" lon="6.1865030"><ele>166.0</ele></trkpt>
    <trkpt lat="49.0963180" lon="6.1864790"><ele>166.2</ele></trkpt>
    <trkpt lat="49.0961620" lon="6.1864610"><ele>166.2</ele></trkpt>
    <trkpt lat="49.0958610" lon="6.1864430"><ele>166.5</ele></trkpt>
    <trkpt lat="49.0957970" lon="6.1864310"><ele>166.5</ele></trkpt>
    <trkpt lat="49.0957530" lon="6.1863890"><ele>166.8</ele></trkpt>
    <trkpt lat="49.0957160" lon="6.1863210"><ele>167.0</ele></trkpt>
    <trkpt lat="49.0956780" lon="6.1862170"><ele>167.2</ele></trkpt>
    <trkpt lat="49.0956470" lon="6.1861020"><ele>167.5</ele></trkpt>
    <trkpt lat="49.0956190" lon="6.1860310"><ele>167.8</ele></trkpt>
    <trkpt lat="49.0955760" lon="6.1859600"><ele>167.8</ele></trkpt>
    <trkpt lat="49.0954560" lon="6.1858160"><ele>168.0</ele></trkpt>
    <trkpt lat="49.0953750" lon="6.1857670"><ele>168.0</ele></trkpt>
    <trkpt lat="49.0952820" lon="6.1857430"><ele>168.0</ele></trkpt>
    <trkpt lat="49.0951820" lon="6.1857320"><ele>168.0</ele></trkpt>
    <trkpt lat="49.0947420" lon="6.1857620"><ele>168.0</ele></trkpt>
    <trkpt lat="49.0945800" lon="6.1858360"><ele>167.8</ele></trkpt>
    <trkpt lat="49.0945020" lon="6.1858650"><ele>167.8</ele></trkpt>
    <trkpt lat="49.0944210" lon="6.1858650"><ele>167.8</ele></trkpt>
    <trkpt lat="49.0942770" lon="6.1858380"><ele>167.8</ele></trkpt>
    <trkpt lat="49.0938920" lon="6.1857350"><ele>167.8</ele></trkpt>
    <trkpt lat="49.0935920" lon="6.1856390"><ele>168.0</ele></trkpt>
    <trkpt lat="49.0934850" lon="6.1856220"><ele>168.0</ele></trkpt>
    <trkpt lat="49.0932780" lon="6.1855710"><ele>168.8</ele></trkpt>
    <trkpt lat="49.0932200" lon="6.1855470"><ele>169.0</ele></trkpt>
    <trkpt lat="49.0927890" lon="6.1855170"><ele>168.2</ele></trkpt>
    <trkpt lat="49.0927230" lon="6.1854870"><ele>168.2</ele></trkpt>
    <trkpt lat="49.0926880" lon="6.1854800"><ele>168.0</ele></trkpt>
    <trkpt lat="49.0925640" lon="6.1854840"><ele>167.5</ele></trkpt>
    <trkpt lat="49.0923700" lon="6.1854300"><ele>167.2</ele></trkpt>
    <trkpt lat="49.0922700" lon="6.1854180"><ele>167.0</ele></trkpt>
    <trkpt lat="49.0921070" lon="6.1854580"><ele>166.2</ele></trkpt>
    <trkpt lat="49.0920160" lon="6.1854640"><ele>166.0</ele></trkpt>
    <trkpt lat="49.0919330" lon="6.1854520"><ele>166.0</ele></trkpt>
    <trkpt lat="49.0917560" lon="6.1853900"><ele>166.2</ele></trkpt>
    <trkpt lat="49.0915260" lon="6.1853870"><ele>166.0</ele></trkpt>
    <trkpt lat="49.0914130" lon="6.1854100"><ele>166.0</ele></trkpt>
    <trkpt lat="49.0913510" lon="6.1854130"><ele>166.0</ele></trkpt>
    <trkpt lat="49.0913000" lon="6.1853900"><ele>166.2</ele></trkpt>
    <trkpt lat="49.0912430" lon="6.1853420"><ele>166.8</ele></trkpt>
    <trkpt lat="49.0911100" lon="6.1851670"><ele>167.2</ele></trkpt>
    <trkpt lat="49.0907200" lon="6.1848570"><ele>167.5</ele></trkpt>
    <trkpt lat="49.0903360" lon="6.1844980"><ele>167.0</ele></trkpt>
    <trkpt lat="49.0901290" lon="6.1843230"><ele>167.5</ele></trkpt>
    <trkpt lat="49.0900220" lon="6.1842060"><ele>167.8</ele></trkpt>
    <trkpt lat="49.0899430" lon="6.1841060"><ele>168.0</ele></trkpt>
    <trkpt lat="49.0898480" lon="6.1839540"><ele>168.0</ele></trkpt>
    <trkpt lat="49.0896950" lon="6.1836690"><ele>167.8</ele></trkpt>
    <trkpt lat="49.0894910" lon="6.1833890"><ele>167.0</ele></trkpt>
    <trkpt lat="49.0894480" lon="6.1833280"><ele>167.0</ele></trkpt>
    <trkpt lat="49.0891540" lon="6.1827450"><ele>167.8</ele></trkpt>
    <trkpt lat="49.0890570" lon="6.1825630"><ele>167.5</ele></trkpt>
    <trkpt lat="49.0890270" lon="6.1824700"><ele>167.5</ele></trkpt>
    <trkpt lat="49.0889970" lon="6.1822910"><ele>168.2</ele></trkpt>
    <trkpt lat="49.0889420" lon="6.1822790"><ele>168.0</ele></trkpt>
    <trkpt lat="49.0889010" lon="6.1821820"><ele>168.0</ele></trkpt>
    <trkpt lat="49.0888700" lon="6.1820120"><ele>168.5</ele></trkpt>
    <trkpt lat="49.0888630" lon="6.1816480"><ele>168.5</ele></trkpt>
    <trkpt lat="49.0888470" lon="6.1815350"><ele>169.0</ele></trkpt>
    <trkpt lat="49.0888120" lon="6.1814260"><ele>169.0</ele></trkpt>
    <trkpt lat="49.0885520" lon="6.1810360"><ele>169.5</ele></trkpt>
    <trkpt lat="49.0884010" lon="6.1805580"><ele>167.5</ele></trkpt>
    <trkpt lat="49.0883040" lon="6.1803940"><ele>167.2</ele></trkpt>
    <trkpt lat="49.0880770" lon="6.1800810"><ele>167.0</ele></trkpt>
    <trkpt lat="49.0877560" lon="6.1796750"><ele>167.0</ele></trkpt>
    <trkpt lat="49.0876970" lon="6.1795450"><ele>167.2</ele></trkpt>
    <trkpt lat="49.0876540" lon="6.1795740"><ele>167.0</ele></trkpt>
    <trkpt lat="49.0876120" lon="6.1795440"><ele>167.0</ele></trkpt>
    <trkpt lat="49.0874870" lon="6.1793710"><ele>166.8</ele></trkpt>
    <trkpt lat="49.0873910" lon="6.1792990"><ele>166.8</ele></trkpt>
    <trkpt lat="49.0873030" lon="6.1792180"><ele>166.8</ele></trkpt>
    <trkpt lat="49.0871110" lon="6.1790890"><ele>166.5</ele></trkpt>
    <trkpt lat="49.0869500" lon="6.1789270"><ele>166.8</ele></trkpt>
    <trkpt lat="49.0865680" lon="6.1785890"><ele>166.5</ele></trkpt>
    <trkpt lat="49.0863550" lon="6.1784380"><ele>166.5</ele></trkpt>
    <trkpt lat="49.0861210" lon="6.1783990"><ele>166.8</ele></trkpt>
    <trkpt lat="49.0859720" lon="6.1784230"><ele>166.5</ele></trkpt>
    <trkpt lat="49.0854590" lon="6.1787220"><ele>166.8</ele></trkpt>
    <trkpt lat="49.0851420" lon="6.1788310"><ele>166.8</ele></trkpt>
    <trkpt lat="49.0848820" lon="6.1788650"><ele>167.0</ele></trkpt>
    <trkpt lat="49.0845710" lon="6.1789230"><ele>166.8</ele></trkpt>
    <trkpt lat="49.0844130" lon="6.1789810"><ele>166.2</ele></trkpt>
    <trkpt lat="49.0840790" lon="6.1791230"><ele>166.2</ele></trkpt>
    <trkpt lat="49.0839320" lon="6.1792240"><ele>166.5</ele></trkpt>
    <trkpt lat="49.0838050" lon="6.1793800"><ele>166.5</ele></trkpt>
    <trkpt lat="49.0837090" lon="6.1795160"><ele>166.5</ele></trkpt>
    <trkpt lat="49.0836220" lon="6.1797000"><ele>166.8</ele></trkpt>
    <trkpt lat="49.0835670" lon="6.1799030"><ele>165.8</ele></trkpt>
    <trkpt lat="49.0832880" lon="6.1807700"><ele>167.0</ele></trkpt>
    <trkpt lat="49.0832200" lon="6.1809440"><ele>166.5</ele></trkpt>
    <trkpt lat="49.0828340" lon="6.1817850"><ele>166.8</ele></trkpt>
    <trkpt lat="49.0826860" lon="6.1820770"><ele>166.5</ele></trkpt>
    <trkpt lat="49.0826070" lon="6.1821600"><ele>166.5</ele></trkpt>
    <trkpt lat="49.0825700" lon="6.1822410"><ele>166.5</ele></trkpt>
    <trkpt lat="49.0825060" lon="6.1823180"><ele>166.5</ele></trkpt>
    <trkpt lat="49.0824110" lon="6.1824210"><ele>166.5</ele></trkpt>
    <trkpt lat="49.0823010" lon="6.1825110"><ele>167.2</ele></trkpt>
    <trkpt lat="49.0821710" lon="6.1825710"><ele>167.0</ele></trkpt>
    <trkpt lat="49.0820760" lon="6.1826270"><ele>166.5</ele></trkpt>
    <trkpt lat="49.0818870" lon="6.1827090"><ele>166.2</ele></trkpt>
    <trkpt lat="49.0816700" lon="6.1827690"><ele>166.8</ele></trkpt>
    <trkpt lat="49.0815270" lon="6.1828380"><ele>166.8</ele></trkpt>
    <trkpt lat="49.0811360" lon="6.1829970"><ele>166.8</ele></trkpt>
    <trkpt lat="49.0806290" lon="6.1832370"><ele>166.8</ele></trkpt>
    <trkpt lat="49.0804470" lon="6.1833070"><ele>167.2</ele></trkpt>
    <trkpt lat="49.0802730" lon="6.1833940"><ele>167.5</ele></trkpt>
    <trkpt lat="49.0800600" lon="6.1834010"><ele>167.5</ele></trkpt>
    <trkpt lat="49.0798720" lon="6.1833370"><ele>167.8</ele></trkpt>
    <trkpt lat="49.0798390" lon="6.1833090"><ele>167.8</ele></trkpt>
    <trkpt lat="49.0798190" lon="6.1832740"><ele>167.8</ele></trkpt>
    <trkpt lat="49.0797920" lon="6.1832560"><ele>167.5</ele></trkpt>
    <trkpt lat="49.0796930" lon="6.1832540"><ele>167.5</ele></trkpt>
    <trkpt lat="49.0793760" lon="6.1831950"><ele>166.8</ele></trkpt>
    <trkpt lat="49.0791770" lon="6.1830880"><ele>167.8</ele></trkpt>
    <trkpt lat="49.0790860" lon="6.1830660"><ele>167.2</ele></trkpt>
    <trkpt lat="49.0789770" lon="6.1829750"><ele>167.0</ele></trkpt>
    <trkpt lat="49.0788590" lon="6.1828540"><ele>167.5</ele></trkpt>
    <trkpt lat="49.0787760" lon="6.1828000"><ele>167.8</ele></trkpt>
    <trkpt lat="49.0787530" lon="6.1827750"><ele>167.8</ele></trkpt>
    <trkpt lat="49.0786790" lon="6.1828460"><ele>167.8</ele></trkpt>
    <trkpt lat="49.0786080" lon="6.1828830"><ele>168.0</ele></trkpt>
    <trkpt lat="49.0784710" lon="6.1829060"><ele>168.0</ele></trkpt>
    <trkpt lat="49.0783700" lon="6.1828670"><ele>168.0</ele></trkpt>
    <trkpt lat="49.0782870" lon="6.1827760"><ele>167.8</ele></trkpt>
    <trkpt lat="49.0782030" lon="6.1826030"><ele>167.5</ele></trkpt>
    <trkpt lat="49.0781140" lon="6.1824520"><ele>167.8</ele></trkpt>
    <trkpt lat="49.0780270" lon="6.1823800"><ele>168.0</ele></trkpt>
    <trkpt lat="49.0777260" lon="6.1822810"><ele>167.8</ele></trkpt>
    <trkpt lat="49.0776760" lon="6.1822180"><ele>167.5</ele></trkpt>
    <trkpt lat="49.0775860" lon="6.1820780"><ele>167.5</ele></trkpt>
    <trkpt lat="49.0775300" lon="6.1820600"><ele>167.5</ele></trkpt>
    <trkpt lat="49.0772850" lon="6.1821610"><ele>168.5</ele></trkpt>
    <trkpt lat="49.0772740" lon="6.1821630"><ele>168.5</ele></trkpt>
    <trkpt lat="49.0772030" lon="6.1818780"><ele>168.8</ele></trkpt>
    <trkpt lat="49.0771670" lon="6.1818160"><ele>168.5</ele></trkpt>
    <trkpt lat="49.0771080" lon="6.1815590"><ele>168.0</ele></trkpt>
    <trkpt lat="49.0770130" lon="6.1813120"><ele>168.2</ele></trkpt>
    <trkpt lat="49.0768720" lon="6.1810550"><ele>168.0</ele></trkpt>
    <trkpt lat="49.0767950" lon="6.1809620"><ele>168.2</ele></trkpt>
    <trkpt lat="49.0767460" lon="6.1808700"><ele>168.2</ele></trkpt>
    <trkpt lat="49.0765990" lon="6.1804320"><ele>168.5</ele></trkpt>
    <trkpt lat="49.0765490" lon="6.1802420"><ele>168.2</ele></trkpt>
    <trkpt lat="49.0764890" lon="6.1799680"><ele>168.8</ele></trkpt>
    <trkpt lat="49.0764540" lon="6.1798800"><ele>168.5</ele></trkpt>
    <trkpt lat="49.0764220" lon="6.1798460"><ele>168.5</ele></trkpt>
    <trkpt lat="49.0763730" lon="6.1797940"><ele>168.5</ele></trkpt>
    <trkpt lat="49.0763030" lon="6.1797570"><ele>168.8</ele></trkpt>
    <trkpt lat="49.0761880" lon="6.1797200"><ele>169.2</ele></trkpt>
    <trkpt lat="49.0760360" lon="6.1796900"><ele>169.8</ele></trkpt>
    <trkpt lat="49.0759370" lon="6.1796800"><ele>169.8</ele></trkpt>
    <trkpt lat="49.0753280" lon="6.1797330"><ele>169.0</ele></trkpt>
    <trkpt lat="49.0752720" lon="6.1797450"><ele>169.0</ele></trkpt>
    <trkpt lat="49.0752710" lon="6.1797160"><ele>169.0</ele></trkpt>
    <trkpt lat="49.0752640" lon="6.1795100"><ele>169.8</ele></trkpt>
    <trkpt lat="49.0752620" lon="6.1794570"><ele>169.8</ele></trkpt>
    <trkpt lat="49.0751870" lon="6.1780980"><ele>170.0</ele></trkpt>
    <trkpt lat="49.0748880" lon="6.1757770"><ele>170.8</ele></trkpt>
    <trkpt lat="49.0748150" lon="6.1757650"><ele>170.8</ele></trkpt>
    <trkpt lat="49.0747150" lon="6.1757750"><ele>171.0</ele></trkpt>
    <trkpt lat="49.0745100" lon="6.1758450"><ele>170.8</ele></trkpt>
    <trkpt lat="49.0741110" lon="6.1760630"><ele>171.0</ele></trkpt>
    <trkpt lat="49.0739690" lon="6.1761180"><ele>170.8</ele></trkpt>
    <trkpt lat="49.0738120" lon="6.1761640"><ele>171.2</ele></trkpt>
    <trkpt lat="49.0736730" lon="6.1761730"><ele>171.8</ele></trkpt>
    <trkpt lat="49.0734650" lon="6.1761590"><ele>172.2</ele></trkpt>
    <trkpt lat="49.0732770" lon="6.1761200"><ele>172.8</ele></trkpt>
    <trkpt lat="49.0730340" lon="6.1760870"><ele>173.0</ele></trkpt>
    <trkpt lat="49.0728270" lon="6.1760710"><ele>173.8</ele></trkpt>
    <trkpt lat="49.0726680" lon="6.1760650"><ele>174.0</ele></trkpt>
    <trkpt lat="49.0723940" lon="6.1760910"><ele>174.0</ele></trkpt>
    <trkpt lat="49.0721190" lon="6.1761010"><ele>174.0</ele></trkpt>
    <trkpt lat="49.0719490" lon="6.1761000"><ele>174.0</ele></trkpt>
    <trkpt lat="49.0717370" lon="6.1760820"><ele>174.0</ele></trkpt>
    <trkpt lat="49.0715790" lon="6.1760260"><ele>174.2</ele></trkpt>
    <trkpt lat="49.0714080" lon="6.1759370"><ele>174.5</ele></trkpt>
    <trkpt lat="49.0712490" lon="6.1758310"><ele>175.0</ele></trkpt>
    <trkpt lat="49.0711090" lon="6.1757210"><ele>175.0</ele></trkpt>
    <trkpt lat="49.0710310" lon="6.1756290"><ele>175.0</ele></trkpt>
    <trkpt lat="49.0709780" lon="6.1755260"><ele>175.5</ele></trkpt>
    <trkpt lat="49.0709170" lon="6.1753650"><ele>175.8</ele></trkpt>
    <trkpt lat="49.0708310" lon="6.1751050"><ele>176.0</ele></trkpt>
    <trkpt lat="49.0705120" lon="6.1739870"><ele>178.8</ele></trkpt>
    <trkpt lat="49.0702650" lon="6.1732320"><ele>181.0</ele></trkpt>
    <trkpt lat="49.0701770" lon="6.1730130"><ele>181.0</ele></trkpt>
    <trkpt lat="49.0700640" lon="6.1727590"><ele>180.8</ele></trkpt>
    <trkpt lat="49.0698750" lon="6.1724090"><ele>180.8</ele></trkpt>
    <trkpt lat="49.0696590" lon="6.1720890"><ele>180.5</ele></trkpt>
    <trkpt lat="49.0691940" lon="6.1714910"><ele>180.8</ele></trkpt>
    <trkpt lat="49.0689850" lon="6.1712340"><ele>180.2</ele></trkpt>
    <trkpt lat="49.0687950" lon="6.1710310"><ele>180.5</ele></trkpt>
    <trkpt lat="49.0684070" lon="6.1706850"><ele>181.0</ele></trkpt>
    <trkpt lat="49.0683210" lon="6.1706110"><ele>181.0</ele></trkpt>
    <trkpt lat="49.0679370" lon="6.1703570"><ele>181.8</ele></trkpt>
    <trkpt lat="49.0679520" lon="6.1702960"><ele>181.2</ele></trkpt>
    <trkpt lat="49.0682030" lon="6.1699040"><ele>179.2</ele></trkpt>
    <trkpt lat="49.0681750" lon="6.1698520"><ele>179.2</ele></trkpt>
    <trkpt lat="49.0680650" lon="6.1693150"><ele>178.5</ele></trkpt>
    <trkpt lat="49.0680330" lon="6.1692230"><ele>178.2</ele></trkpt>
    <trkpt lat="49.0679880" lon="6.1691360"><ele>178.0</ele></trkpt>
    <trkpt lat="49.0679310" lon="6.1690560"><ele>178.2</ele></trkpt>
    <trkpt lat="49.0676770" lon="6.1687250"><ele>178.0</ele></trkpt>
    <trkpt lat="49.0675840" lon="6.1685980"><ele>177.8</ele></trkpt>
    <trkpt lat="49.0674780" lon="6.1684520"><ele>178.0</ele></trkpt>
    <trkpt lat="49.0674530" lon="6.1684190"><ele>178.0</ele></trkpt>
    <trkpt lat="49.0673690" lon="6.1683110"><ele>177.8</ele></trkpt>
    <trkpt lat="49.0673410" lon="6.1682660"><ele>177.8</ele></trkpt>
    <trkpt lat="49.0673190" lon="6.1682110"><ele>177.5</ele></trkpt>
    <trkpt lat="49.0672990" lon="6.1681450"><ele>177.2</ele></trkpt>
    <trkpt lat="49.0672900" lon="6.1680720"><ele>177.0</ele></trkpt>
    <trkpt lat="49.0672930" lon="6.1679380"><ele>176.8</ele></trkpt>
    <trkpt lat="49.0672950" lon="6.1679110"><ele>176.8</ele></trkpt>
    <trkpt lat="49.0673890" lon="6.1667920"><ele>175.2</ele></trkpt>
    <trkpt lat="49.0674060" lon="6.1666020"><ele>175.0</ele></trkpt>
    <trkpt lat="49.0674120" lon="6.1664530"><ele>175.0</ele></trkpt>
    <trkpt lat="49.0674070" lon="6.1663860"><ele>174.8</ele></trkpt>
    <trkpt lat="49.0673940" lon="6.1663320"><ele>174.8</ele></trkpt>
    <trkpt lat="49.0673500" lon="6.1662170"><ele>174.5</ele></trkpt>
    <trkpt lat="49.0669980" lon="6.1655450"><ele>174.0</ele></trkpt>
    <trkpt lat="49.0668680" lon="6.1652090"><ele>173.8</ele></trkpt>
    <trkpt lat="49.0667250" lon="6.1648790"><ele>173.0</ele></trkpt>
    <trkpt lat="49.0665750" lon="6.1645850"><ele>173.0</ele></trkpt>
    <trkpt lat="49.0664230" lon="6.1643170"><ele>172.5</ele></trkpt>
    <trkpt lat="49.0662920" lon="6.1641300"><ele>172.0</ele></trkpt>
    <trkpt lat="49.0663120" lon="6.1640990"><ele>172.0</ele></trkpt>
    <trkpt lat="49.0663730" lon="6.1639970"><ele>172.0</ele></trkpt>
    <trkpt lat="49.0664050" lon="6.1639070"><ele>172.0</ele></trkpt>
    <trkpt lat="49.0665560" lon="6.1634620"><ele>172.0</ele></trkpt>
    <trkpt lat="49.0665810" lon="6.1633350"><ele>172.0</ele></trkpt>
    <trkpt lat="49.0665960" lon="6.1632200"><ele>172.0</ele></trkpt>
    <trkpt lat="49.0666250" lon="6.1628580"><ele>171.8</ele></trkpt>
    <trkpt lat="49.0666600" lon="6.1625750"><ele>171.2</ele></trkpt>
    <trkpt lat="49.0667690" lon="6.1618440"><ele>171.0</ele></trkpt>
    <trkpt lat="49.0667930" lon="6.1617180"><ele>171.0</ele></trkpt>
    <trkpt lat="49.0668280" lon="6.1615970"><ele>171.0</ele></trkpt>
    <trkpt lat="49.0668690" lon="6.1614910"><ele>171.0</ele></trkpt>
    <trkpt lat="49.0669210" lon="6.1613950"><ele>171.0</ele></trkpt>
    <trkpt lat="49.0671100" lon="6.1611390"><ele>171.0</ele></trkpt>
    <trkpt lat="49.0671920" lon="6.1610410"><ele>171.0</ele></trkpt>
    <trkpt lat="49.0671940" lon="6.1608570"><ele>170.8</ele></trkpt>
    <trkpt lat="49.0672210" lon="6.1606360"><ele>171.0</ele></trkpt>
    <trkpt lat="49.0672840" lon="6.1603990"><ele>171.0</ele></trkpt>
    <trkpt lat="49.0673250" lon="6.1602970"><ele>171.0</ele></trkpt>
    <trkpt lat="49.0673770" lon="6.1602000"><ele>171.0</ele></trkpt>
    <trkpt lat="49.0674260" lon="6.1601300"><ele>171.0</ele></trkpt>
    <trkpt lat="49.0675620" lon="6.1600100"><ele>171.0</ele></trkpt>
    <trkpt lat="49.0676380" lon="6.1599660"><ele>171.0</ele></trkpt>
    <trkpt lat="49.0677150" lon="6.1599400"><ele>171.0</ele></trkpt>
    <trkpt lat="49.0685150" lon="6.1599200"><ele>171.0</ele></trkpt>
    <trkpt lat="49.0686060" lon="6.1599320"><ele>171.0</ele></trkpt>
    <trkpt lat="49.0686250" lon="6.1598080"><ele>171.0</ele></trkpt>
    <trkpt lat="49.0687280" lon="6.1587790"><ele>170.8</ele></trkpt>
    <trkpt lat="49.0687540" lon="6.1585430"><ele>170.0</ele></trkpt>
    <trkpt lat="49.0687880" lon="6.1582660"><ele>169.0</ele></trkpt>
    <trkpt lat="49.0688280" lon="6.1581230"><ele>169.0</ele></trkpt>
    <trkpt lat="49.0688240" lon="6.1580400"><ele>169.0</ele></trkpt>
    <trkpt lat="49.0687260" lon="6.1577300"><ele>169.2</ele></trkpt>
    <trkpt lat="49.0686430" lon="6.1576500"><ele>169.8</ele></trkpt>
    <trkpt lat="49.0678470" lon="6.1573580"><ele>169.0</ele></trkpt>
    <trkpt lat="49.0674390" lon="6.1572530"><ele>169.0</ele></trkpt>
    <trkpt lat="49.0668350" lon="6.1571480"><ele>169.0</ele></trkpt>
    <trkpt lat="49.0664440" lon="6.1571640"><ele>169.0</ele></trkpt>
    <trkpt lat="49.0660760" lon="6.1570960"><ele>169.0</ele></trkpt>
    <trkpt lat="49.0657990" lon="6.1570020"><ele>169.0</ele></trkpt>
    <trkpt lat="49.0654190" lon="6.1568550"><ele>169.0</ele></trkpt>
    <trkpt lat="49.0648920" lon="6.1567400"><ele>169.0</ele></trkpt>
    <trkpt lat="49.0647670" lon="6.1566240"><ele>168.8</ele></trkpt>
    <trkpt lat="49.0646780" lon="6.1565050"><ele>168.8</ele></trkpt>
    <trkpt lat="49.0647670" lon="6.1566240"><ele>168.8</ele></trkpt>
    <trkpt lat="49.0648920" lon="6.1567400"><ele>169.0</ele></trkpt>
    <trkpt lat="49.0654190" lon="6.1568550"><ele>169.0</ele></trkpt>
    <trkpt lat="49.0657990" lon="6.1570020"><ele>169.0</ele></trkpt>
    <trkpt lat="49.0660760" lon="6.1570960"><ele>169.0</ele></trkpt>
    <trkpt lat="49.0664440" lon="6.1571640"><ele>169.0</ele></trkpt>
    <trkpt lat="49.0668350" lon="6.1571480"><ele>169.0</ele></trkpt>
    <trkpt lat="49.0674390" lon="6.1572530"><ele>169.0</ele></trkpt>
    <trkpt lat="49.0678470" lon="6.1573580"><ele>169.0</ele></trkpt>
    <trkpt lat="49.0686430" lon="6.1576500"><ele>169.8</ele></trkpt>
    <trkpt lat="49.0686790" lon="6.1575620"><ele>169.2</ele></trkpt>
    <trkpt lat="49.0688310" lon="6.1572050"><ele>169.2</ele></trkpt>
    <trkpt lat="49.0688530" lon="6.1571590"><ele>169.5</ele></trkpt>
    <trkpt lat="49.0690610" lon="6.1574330"><ele>168.5</ele></trkpt>
    <trkpt lat="49.0691590" lon="6.1574650"><ele>168.8</ele></trkpt>
    <trkpt lat="49.0692240" lon="6.1575020"><ele>168.8</ele></trkpt>
    <trkpt lat="49.0693240" lon="6.1576160"><ele>168.5</ele></trkpt>
    <trkpt lat="49.0693970" lon="6.1576380"><ele>168.8</ele></trkpt>
    <trkpt lat="49.0694810" lon="6.1576380"><ele>169.0</ele></trkpt>
    <trkpt lat="49.0696600" lon="6.1575750"><ele>169.0</ele></trkpt>
    <trkpt lat="49.0697250" lon="6.1575310"><ele>169.0</ele></trkpt>
    <trkpt lat="49.0698650" lon="6.1574850"><ele>169.0</ele></trkpt>
    <trkpt lat="49.0699540" lon="6.1574670"><ele>169.0</ele></trkpt>
    <trkpt lat="49.0701260" lon="6.1574760"><ele>169.0</ele></trkpt>
    <trkpt lat="49.0702790" lon="6.1574720"><ele>169.0</ele></trkpt>
    <trkpt lat="49.0703640" lon="6.1574590"><ele>169.0</ele></trkpt>
    <trkpt lat="49.0704760" lon="6.1574140"><ele>169.0</ele></trkpt>
    <trkpt lat="49.0705660" lon="6.1573520"><ele>168.8</ele></trkpt>
    <trkpt lat="49.0707760" lon="6.1571830"><ele>169.0</ele></trkpt>
    <trkpt lat="49.0709820" lon="6.1569800"><ele>168.8</ele></trkpt>
    <trkpt lat="49.0711320" lon="6.1568160"><ele>168.8</ele></trkpt>
    <trkpt lat="49.0712890" lon="6.1566900"><ele>168.8</ele></trkpt>
    <trkpt lat="49.0714560" lon="6.1565830"><ele>168.5</ele></trkpt>
    <trkpt lat="49.0716080" lon="6.1564500"><ele>168.5</ele></trkpt>
    <trkpt lat="49.0718360" lon="6.1561780"><ele>168.8</ele></trkpt>
    <trkpt lat="49.0720250" lon="6.1559190"><ele>168.8</ele></trkpt>
    <trkpt lat="49.0721070" lon="6.1558250"><ele>169.0</ele></trkpt>
    <trkpt lat="49.0722670" lon="6.1557460"><ele>168.8</ele></trkpt>
    <trkpt lat="49.0723500" lon="6.1556880"><ele>168.5</ele></trkpt>
    <trkpt lat="49.0724430" lon="6.1556050"><ele>168.5</ele></trkpt>
    <trkpt lat="49.0725400" lon="6.1555340"><ele>168.8</ele></trkpt>
    <trkpt lat="49.0728350" lon="6.1553710"><ele>168.5</ele></trkpt>
    <trkpt lat="49.0729220" lon="6.1553100"><ele>168.8</ele></trkpt>
    <trkpt lat="49.0731890" lon="6.1550410"><ele>169.0</ele></trkpt>
    <trkpt lat="49.0732830" lon="6.1548920"><ele>169.2</ele></trkpt>
    <trkpt lat="49.0734680" lon="6.1549290"><ele>169.2</ele></trkpt>
    <trkpt lat="49.0736270" lon="6.1549770"><ele>169.0</ele></trkpt>
    <trkpt lat="49.0737600" lon="6.1550660"><ele>169.0</ele></trkpt>
    <trkpt lat="49.0741490" lon="6.1553510"><ele>169.5</ele></trkpt>
    <trkpt lat="49.0742410" lon="6.1553910"><ele>169.2</ele></trkpt>
    <trkpt lat="49.0745690" lon="6.1546320"><ele>170.2</ele></trkpt>
    <trkpt lat="49.0746190" lon="6.1545720"><ele>170.2</ele></trkpt>
    <trkpt lat="49.0746620" lon="6.1545030"><ele>170.0</ele></trkpt>
    <trkpt lat="49.0747010" lon="6.1544090"><ele>170.0</ele></trkpt>
    <trkpt lat="49.0759850" lon="6.1516480"><ele>173.5</ele></trkpt>
    <trkpt lat="49.0761550" lon="6.1512760"><ele>174.5</ele></trkpt>
    <trkpt lat="49.0761680" lon="6.1512390"><ele>174.5</ele></trkpt>
    <trkpt lat="49.0761870" lon="6.1511970"><ele>174.8</ele></trkpt>
    <trkpt lat="49.0762160" lon="6.1511390"><ele>175.2</ele></trkpt>
    <trkpt lat="49.0763130" lon="6.1509130"><ele>176.2</ele></trkpt>
    <trkpt lat="49.0763460" lon="6.1505490"><ele>176.8</ele></trkpt>
    <trkpt lat="49.0763600" lon="6.1504840"><ele>176.8</ele></trkpt>
    <trkpt lat="49.0764990" lon="6.1505640"><ele>177.2</ele></trkpt>
    <trkpt lat="49.0775730" lon="6.1506040"><ele>182.2</ele></trkpt>
    <trkpt lat="49.0776290" lon="6.1505930"><ele>182.2</ele></trkpt>
    <trkpt lat="49.0776740" lon="6.1505680"><ele>182.5</ele></trkpt>
    <trkpt lat="49.0777070" lon="6.1505070"><ele>182.5</ele></trkpt>
    <trkpt lat="49.0777720" lon="6.1505830"><ele>182.8</ele></trkpt>
    <trkpt lat="49.0778330" lon="6.1507630"><ele>183.0</ele></trkpt>
    <trkpt lat="49.0781510" lon="6.1507810"><ele>183.2</ele></trkpt>
    <trkpt lat="49.0781380" lon="6.1511770"><ele>182.8</ele></trkpt>
    <trkpt lat="49.0781370" lon="6.1512110"><ele>182.5</ele></trkpt>
    <trkpt lat="49.0781360" lon="6.1512640"><ele>182.5</ele></trkpt>
    <trkpt lat="49.0787720" lon="6.1512860"><ele>183.8</ele></trkpt>
    <trkpt lat="49.0787980" lon="6.1512870"><ele>184.0</ele></trkpt>
    <trkpt lat="49.0788560" lon="6.1512730"><ele>184.2</ele></trkpt>
    <trkpt lat="49.0789230" lon="6.1512830"><ele>184.2</ele></trkpt>
    <trkpt lat="49.0789540" lon="6.1513090"><ele>184.2</ele></trkpt>
    <trkpt lat="49.0791150" lon="6.1510400"><ele>185.2</ele></trkpt>
    <trkpt lat="49.0791350" lon="6.1510650"><ele>185.0</ele></trkpt>
    <trkpt lat="49.0799340" lon="6.1520010"><ele>185.0</ele></trkpt>
    <trkpt lat="49.0809840" lon="6.1534170"><ele>184.2</ele></trkpt>
    <trkpt lat="49.0812710" lon="6.1535440"><ele>184.5</ele></trkpt>
    <trkpt lat="49.0814770" lon="6.1537440"><ele>184.0</ele></trkpt>
    <trkpt lat="49.0821930" lon="6.1545960"><ele>183.2</ele></trkpt>
    <trkpt lat="49.0822780" lon="6.1545250"><ele>183.5</ele></trkpt>
    <trkpt lat="49.0823420" lon="6.1544570"><ele>183.5</ele></trkpt>
    <trkpt lat="49.0823940" lon="6.1543650"><ele>183.2</ele></trkpt>
    <trkpt lat="49.0826990" lon="6.1538490"><ele>183.2</ele></trkpt>
    <trkpt lat="49.0830620" lon="6.1531650"><ele>184.5</ele></trkpt>
    <trkpt lat="49.0831160" lon="6.1531020"><ele>184.8</ele></trkpt>
    <trkpt lat="49.0831730" lon="6.1530580"><ele>184.8</ele></trkpt>
    <trkpt lat="49.0832050" lon="6.1531060"><ele>184.8</ele></trkpt>
    <trkpt lat="49.0835210" lon="6.1535670"><ele>184.5</ele></trkpt>
    <trkpt lat="49.0837220" lon="6.1538750"><ele>185.2</ele></trkpt>
    <trkpt lat="49.0838110" lon="6.1540250"><ele>185.0</ele></trkpt>
    <trkpt lat="49.0839170" lon="6.1542230"><ele>184.2</ele></trkpt>
    <trkpt lat="49.0840680" lon="6.1545410"><ele>185.0</ele></trkpt>
    <trkpt lat="49.0842150" lon="6.1549060"><ele>184.8</ele></trkpt>
    <trkpt lat="49.0842770" lon="6.1550790"><ele>185.2</ele></trkpt>
    <trkpt lat="49.0843860" lon="6.1554290"><ele>184.2</ele></trkpt>
    <trkpt lat="49.0844290" lon="6.1555870"><ele>184.0</ele></trkpt>
    <trkpt lat="49.0845030" lon="6.1559040"><ele>184.2</ele></trkpt>
    <trkpt lat="49.0845670" lon="6.1562420"><ele>184.2</ele></trkpt>
    <trkpt lat="49.0845980" lon="6.1564370"><ele>184.2</ele></trkpt>
    <trkpt lat="49.0846430" lon="6.1568050"><ele>183.5</ele></trkpt>
    <trkpt lat="49.0846690" lon="6.1572140"><ele>183.5</ele></trkpt>
    <trkpt lat="49.0846740" lon="6.1574470"><ele>182.8</ele></trkpt>
    <trkpt lat="49.0846760" lon="6.1575200"><ele>182.8</ele></trkpt>
    <trkpt lat="49.0847720" lon="6.1575040"><ele>183.0</ele></trkpt>
    <trkpt lat="49.0848000" lon="6.1574990"><ele>183.0</ele></trkpt>
    <trkpt lat="49.0848190" lon="6.1574950"><ele>183.0</ele></trkpt>
    <trkpt lat="49.0848470" lon="6.1574900"><ele>183.0</ele></trkpt>
    <trkpt lat="49.0848580" lon="6.1575810"><ele>183.0</ele></trkpt>
    <trkpt lat="49.0848790" lon="6.1577520"><ele>183.0</ele></trkpt>
    <trkpt lat="49.0849060" lon="6.1577890"><ele>183.0</ele></trkpt>
    <trkpt lat="49.0849240" lon="6.1579780"><ele>183.0</ele></trkpt>
    <trkpt lat="49.0849700" lon="6.1587020"><ele>182.2</ele></trkpt>
    <trkpt lat="49.0850090" lon="6.1590060"><ele>182.8</ele></trkpt>
    <trkpt lat="49.0851340" lon="6.1596340"><ele>183.0</ele></trkpt>
    <trkpt lat="49.0851860" lon="6.1598390"><ele>183.2</ele></trkpt>
    <trkpt lat="49.0851490" lon="6.1598580"><ele>183.2</ele></trkpt>
    <trkpt lat="49.0851860" lon="6.1600030"><ele>183.5</ele></trkpt>
    <trkpt lat="49.0852000" lon="6.1600610"><ele>183.5</ele></trkpt>
    <trkpt lat="49.0852210" lon="6.1601440"><ele>183.8</ele></trkpt>
    <trkpt lat="49.0852980" lon="6.1604380"><ele>183.8</ele></trkpt>
    <trkpt lat="49.0853550" lon="6.1606240"><ele>183.8</ele></trkpt>
    <trkpt lat="49.0856110" lon="6.1613480"><ele>185.8</ele></trkpt>
    <trkpt lat="49.0857310" lon="6.1612560"><ele>184.8</ele></trkpt>
    <trkpt lat="49.0857690" lon="6.1611990"><ele>183.8</ele></trkpt>
    <trkpt lat="49.0859170" lon="6.1615250"><ele>184.2</ele></trkpt>
    <trkpt lat="49.0860100" lon="6.1617890"><ele>184.5</ele></trkpt>
    <trkpt lat="49.0860460" lon="6.1618510"><ele>184.8</ele></trkpt>
    <trkpt lat="49.0860730" lon="6.1618570"><ele>184.8</ele></trkpt>
    <trkpt lat="49.0861350" lon="6.1618480"><ele>184.5</ele></trkpt>
    <trkpt lat="49.0862730" lon="6.1617720"><ele>184.5</ele></trkpt>
    <trkpt lat="49.0863610" lon="6.1617960"><ele>185.2</ele></trkpt>
    <trkpt lat="49.0864620" lon="6.1619770"><ele>186.0</ele></trkpt>
    <trkpt lat="49.0864840" lon="6.1620150"><ele>186.0</ele></trkpt>
    <trkpt lat="49.0865150" lon="6.1620710"><ele>186.0</ele></trkpt>
    <trkpt lat="49.0866150" lon="6.1618750"><ele>185.8</ele></trkpt>
    <trkpt lat="49.0871230" lon="6.1612420"><ele>185.0</ele></trkpt>
    <trkpt lat="49.0872780" lon="6.1613530"><ele>185.0</ele></trkpt>
    <trkpt lat="49.0872880" lon="6.1613190"><ele>185.0</ele></trkpt>
    <trkpt lat="49.0873250" lon="6.1613420"><ele>185.2</ele></trkpt>
    <trkpt lat="49.0872840" lon="6.1616320"><ele>185.8</ele></trkpt>
    <trkpt lat="49.0872790" lon="6.1618830"><ele>186.0</ele></trkpt>
    <trkpt lat="49.0872970" lon="6.1621520"><ele>186.0</ele></trkpt>
    <trkpt lat="49.0873480" lon="6.1628020"><ele>186.0</ele></trkpt>
    <trkpt lat="49.0873640" lon="6.1630110"><ele>186.0</ele></trkpt>
    <trkpt lat="49.0873740" lon="6.1631400"><ele>186.0</ele></trkpt>
    <trkpt lat="49.0873930" lon="6.1633870"><ele>186.0</ele></trkpt>
    <trkpt lat="49.0874270" lon="6.1638150"><ele>186.0</ele></trkpt>
    <trkpt lat="49.0874330" lon="6.1638890"><ele>186.0</ele></trkpt>
    <trkpt lat="49.0874410" lon="6.1639920"><ele>186.0</ele></trkpt>
    <trkpt lat="49.0875010" lon="6.1647910"><ele>186.0</ele></trkpt>
    <trkpt lat="49.0875040" lon="6.1648800"><ele>186.5</ele></trkpt>
    <trkpt lat="49.0874930" lon="6.1649320"><ele>186.8</ele></trkpt>
    <trkpt lat="49.0874710" lon="6.1649790"><ele>186.8</ele></trkpt>
    <trkpt lat="49.0875190" lon="6.1650360"><ele>186.8</ele></trkpt>
    <trkpt lat="49.0875770" lon="6.1651130"><ele>186.5</ele></trkpt>
    <trkpt lat="49.0877880" lon="6.1653920"><ele>186.2</ele></trkpt>
    <trkpt lat="49.0878090" lon="6.1654040"><ele>186.2</ele></trkpt>
    <trkpt lat="49.0879690" lon="6.1654880"><ele>186.0</ele></trkpt>
    <trkpt lat="49.0881320" lon="6.1655610"><ele>186.0</ele></trkpt>
    <trkpt lat="49.0882350" lon="6.1656000"><ele>186.0</ele></trkpt>
    <trkpt lat="49.0884030" lon="6.1656420"><ele>186.2</ele></trkpt>
    <trkpt lat="49.0885180" lon="6.1656570"><ele>186.5</ele></trkpt>
    <trkpt lat="49.0886850" lon="6.1656620"><ele>187.0</ele></trkpt>
    <trkpt lat="49.0889010" lon="6.1656470"><ele>187.0</ele></trkpt>
    <trkpt lat="49.0889640" lon="6.1656500"><ele>187.0</ele></trkpt>
    <trkpt lat="49.0890310" lon="6.1656750"><ele>187.0</ele></trkpt>
    <trkpt lat="49.0891020" lon="6.1657030"><ele>187.0</ele></trkpt>
    <trkpt lat="49.0891680" lon="6.1657460"><ele>187.0</ele></trkpt>
    <trkpt lat="49.0892340" lon="6.1657870"><ele>187.0</ele></trkpt>
    <trkpt lat="49.0896950" lon="6.1660790"><ele>187.0</ele></trkpt>
    <trkpt lat="49.0900200" lon="6.1662420"><ele>186.2</ele></trkpt>
    <trkpt lat="49.0901610" lon="6.1663040"><ele>186.0</ele></trkpt>
    <trkpt lat="49.0902570" lon="6.1663480"><ele>186.0</ele></trkpt>
    <trkpt lat="49.0902790" lon="6.1663600"><ele>186.0</ele></trkpt>
    <trkpt lat="49.0905160" lon="6.1664960"><ele>186.0</ele></trkpt>
    <trkpt lat="49.0905340" lon="6.1665060"><ele>186.0</ele></trkpt>
    <trkpt lat="49.0907750" lon="6.1666460"><ele>186.0</ele></trkpt>
    <trkpt lat="49.0910070" lon="6.1667710"><ele>186.2</ele></trkpt>
    <trkpt lat="49.0914980" lon="6.1670350"><ele>186.0</ele></trkpt>
    <trkpt lat="49.0919000" lon="6.1672830"><ele>186.0</ele></trkpt>
    <trkpt lat="49.0918880" lon="6.1673280"><ele>186.0</ele></trkpt>
    <trkpt lat="49.0918790" lon="6.1673750"><ele>186.0</ele></trkpt>
    <trkpt lat="49.0918130" lon="6.1679120"><ele>186.0</ele></trkpt>
    <trkpt lat="49.0917970" lon="6.1681070"><ele>186.0</ele></trkpt>
    <trkpt lat="49.0917930" lon="6.1682590"><ele>186.0</ele></trkpt>
    <trkpt lat="49.0917850" lon="6.1687460"><ele>186.0</ele></trkpt>
    <trkpt lat="49.0917790" lon="6.1692690"><ele>186.0</ele></trkpt>
    <trkpt lat="49.0917970" lon="6.1697140"><ele>186.0</ele></trkpt>
    <trkpt lat="49.0917990" lon="6.1697590"><ele>185.8</ele></trkpt>
    <trkpt lat="49.0919410" lon="6.1697710"><ele>185.8</ele></trkpt>
    <trkpt lat="49.0921410" lon="6.1697960"><ele>185.0</ele></trkpt>
    <trkpt lat="49.0925960" lon="6.1698510"><ele>185.2</ele></trkpt>
    <trkpt lat="49.0930000" lon="6.1698740"><ele>184.5</ele></trkpt>
    <trkpt lat="49.0931260" lon="6.1698820"><ele>184.2</ele></trkpt>
    <trkpt lat="49.0931460" lon="6.1699680"><ele>184.5</ele></trkpt>
    <trkpt lat="49.0931620" lon="6.1700350"><ele>184.5</ele></trkpt>
    <trkpt lat="49.0931710" lon="6.1700540"><ele>184.5</ele></trkpt>
    <trkpt lat="49.0931460" lon="6.1700820"><ele>184.5</ele></trkpt>
    <trkpt lat="49.0934520" lon="6.1711940"><ele>185.0</ele></trkpt>
    <trkpt lat="49.0934710" lon="6.1711980"><ele>184.8</ele></trkpt>
    <trkpt lat="49.0934900" lon="6.1712300"><ele>184.5</ele></trkpt>
    <trkpt lat="49.0934900" lon="6.1712520"><ele>184.5</ele></trkpt>
    <trkpt lat="49.0934750" lon="6.1712850"><ele>184.5</ele></trkpt>
    <trkpt lat="49.0935350" lon="6.1714990"><ele>184.0</ele></trkpt>
    <trkpt lat="49.0935510" lon="6.1715990"><ele>184.0</ele></trkpt>
    <trkpt lat="49.0936040" lon="6.1717850"><ele>184.0</ele></trkpt>
    <trkpt lat="49.0936700" lon="6.1720130"><ele>183.8</ele></trkpt>
    <trkpt lat="49.0936940" lon="6.1720730"><ele>183.5</ele></trkpt>
    <trkpt lat="49.0936720" lon="6.1720980"><ele>183.8</ele></trkpt>
    <trkpt lat="49.0936480" lon="6.1721250"><ele>183.8</ele></trkpt>
    <trkpt lat="49.0934880" lon="6.1723110"><ele>183.8</ele></trkpt>
    <trkpt lat="49.0932940" lon="6.1725180"><ele>184.0</ele></trkpt>
    <trkpt lat="49.0928980" lon="6.1729180"><ele>185.2</ele></trkpt>
    <trkpt lat="49.0927430" lon="6.1730750"><ele>185.0</ele></trkpt>
    <trkpt lat="49.0926740" lon="6.1731530"><ele>185.5</ele></trkpt>
    <trkpt lat="49.0926480" lon="6.1732000"><ele>185.5</ele></trkpt>
    <trkpt lat="49.0926060" lon="6.1732920"><ele>185.8</ele></trkpt>
    <trkpt lat="49.0926500" lon="6.1733800"><ele>185.8</ele></trkpt>
    <trkpt lat="49.0926980" lon="6.1735380"><ele>185.8</ele></trkpt>
    <trkpt lat="49.0927110" lon="6.1735820"><ele>185.8</ele></trkpt>
    <trkpt lat="49.0927240" lon="6.1736300"><ele>185.5</ele></trkpt>
    <trkpt lat="49.0927340" lon="6.1736620"><ele>185.5</ele></trkpt>
    <trkpt lat="49.0927720" lon="6.1736550"><ele>185.5</ele></trkpt>
    <trkpt lat="49.0928160" lon="6.1737750"><ele>185.5</ele></trkpt>
    <trkpt lat="49.0929720" lon="6.1742720"><ele>185.0</ele></trkpt>
    <trkpt lat="49.0931050" lon="6.1745240"><ele>184.8</ele></trkpt>
    <trkpt lat="49.0932070" lon="6.1746850"><ele>184.8</ele></trkpt>
    <trkpt lat="49.0932510" lon="6.1747230"><ele>184.8</ele></trkpt>
    <trkpt lat="49.0932880" lon="6.1747250"><ele>185.8</ele></trkpt>
    <trkpt lat="49.0932390" lon="6.1748130"><ele>184.5</ele></trkpt>
    <trkpt lat="49.0931950" lon="6.1749200"><ele>183.8</ele></trkpt>
    <trkpt lat="49.0932410" lon="6.1750120"><ele>184.5</ele></trkpt>
    <trkpt lat="49.0932780" lon="6.1750680"><ele>185.2</ele></trkpt>
    <trkpt lat="49.0933570" lon="6.1751330"><ele>185.8</ele></trkpt>
    <trkpt lat="49.0934860" lon="6.1752820"><ele>185.2</ele></trkpt>
    <trkpt lat="49.0937240" lon="6.1755380"><ele>185.0</ele></trkpt>
    <trkpt lat="49.0940230" lon="6.1758700"><ele>183.8</ele></trkpt>
    <trkpt lat="49.0943880" lon="6.1762650"><ele>181.2</ele></trkpt>
    <trkpt lat="49.0944180" lon="6.1763080"><ele>181.2</ele></trkpt>
    <trkpt lat="49.0945650" lon="6.1764680"><ele>180.2</ele></trkpt>
    <trkpt lat="49.0945930" lon="6.1764840"><ele>180.0</ele></trkpt>
    <trkpt lat="49.0946360" lon="6.1764990"><ele>179.8</ele></trkpt>
    <trkpt lat="49.0946830" lon="6.1765770"><ele>179.2</ele></trkpt>
    <trkpt lat="49.0947220" lon="6.1765700"><ele>179.2</ele></trkpt>
    <trkpt lat="49.0947940" lon="6.1765570"><ele>179.0</ele></trkpt>
    <trkpt lat="49.0948980" lon="6.1765490"><ele>178.8</ele></trkpt>
    <trkpt lat="49.0950680" lon="6.1768100"><ele>177.0</ele></trkpt>
    <trkpt lat="49.0952730" lon="6.1770370"><ele>175.0</ele></trkpt>
    <trkpt lat="49.0953280" lon="6.1770360"><ele>174.8</ele></trkpt>
    <trkpt lat="49.0955160" lon="6.1771870"><ele>174.2</ele></trkpt>
    <trkpt lat="49.0957510" lon="6.1773740"><ele>173.0</ele></trkpt>
    <trkpt lat="49.0962880" lon="6.1778220"><ele>171.8</ele></trkpt>
    <trkpt lat="49.0964880" lon="6.1779440"><ele>171.8</ele></trkpt>
    <trkpt lat="49.0965860" lon="6.1780210"><ele>171.2</ele></trkpt>
    <trkpt lat="49.0966360" lon="6.1780500"><ele>171.0</ele></trkpt>
    <trkpt lat="49.0968480" lon="6.1781220"><ele>171.0</ele></trkpt>
    <trkpt lat="49.0969580" lon="6.1781570"><ele>170.8</ele></trkpt>
    <trkpt lat="49.0970990" lon="6.1781930"><ele>170.5</ele></trkpt>
    <trkpt lat="49.0972430" lon="6.1782150"><ele>170.2</ele></trkpt>
    <trkpt lat="49.0973390" lon="6.1782250"><ele>170.0</ele></trkpt>
    <trkpt lat="49.0975440" lon="6.1782220"><ele>170.0</ele></trkpt>
    <trkpt lat="49.0976650" lon="6.1782250"><ele>170.0</ele></trkpt>
    <trkpt lat="49.0977860" lon="6.1782180"><ele>170.2</ele></trkpt>
    <trkpt lat="49.0978570" lon="6.1782020"><ele>170.2</ele></trkpt>
    <trkpt lat="49.0981690" lon="6.1781250"><ele>170.8</ele></trkpt>
    <trkpt lat="49.0982660" lon="6.1780970"><ele>170.8</ele></trkpt>
    <trkpt lat="49.0987800" lon="6.1779700"><ele>171.0</ele></trkpt>
    <trkpt lat="49.0988950" lon="6.1779500"><ele>171.0</ele></trkpt>
    <trkpt lat="49.0990510" lon="6.1779010"><ele>171.0</ele></trkpt>
    <trkpt lat="49.0991790" lon="6.1778420"><ele>171.0</ele></trkpt>
    <trkpt lat="49.0998490" lon="6.1776080"><ele>171.5</ele></trkpt>
    <trkpt lat="49.0999550" lon="6.1775670"><ele>171.8</ele></trkpt>
    <trkpt lat="49.0999720" lon="6.1775200"><ele>171.8</ele></trkpt>
    <trkpt lat="49.0999900" lon="6.1775140"><ele>171.8</ele></trkpt>
    <trkpt lat="49.1000350" lon="6.1775010"><ele>171.8</ele></trkpt>
    <trkpt lat="49.1000730" lon="6.1774910"><ele>172.0</ele></trkpt>
    <trkpt lat="49.1001210" lon="6.1774790"><ele>172.0</ele></trkpt>
    <trkpt lat="49.1002970" lon="6.1774540"><ele>171.8</ele></trkpt>
    <trkpt lat="49.1005370" lon="6.1774230"><ele>171.0</ele></trkpt>
    <trkpt lat="49.1005910" lon="6.1774280"><ele>171.0</ele></trkpt>
    <trkpt lat="49.1006770" lon="6.1774370"><ele>171.0</ele></trkpt>
    <trkpt lat="49.1008100" lon="6.1774380"><ele>171.0</ele></trkpt>
    <trkpt lat="49.1009100" lon="6.1774080"><ele>171.0</ele></trkpt>
    <trkpt lat="49.1011020" lon="6.1773890"><ele>171.0</ele></trkpt>
    <trkpt lat="49.1011490" lon="6.1773960"><ele>170.8</ele></trkpt>
    <trkpt lat="49.1012010" lon="6.1773800"><ele>171.0</ele></trkpt>
    <trkpt lat="49.1015010" lon="6.1773780"><ele>171.0</ele></trkpt>
    <trkpt lat="49.1015520" lon="6.1773810"><ele>171.0</ele></trkpt>
    <trkpt lat="49.1016020" lon="6.1773840"><ele>171.0</ele></trkpt>
    <trkpt lat="49.1016160" lon="6.1774260"><ele>171.0</ele></trkpt>
    <trkpt lat="49.1016370" lon="6.1774260"><ele>171.0</ele></trkpt>
    <trkpt lat="49.1018030" lon="6.1774300"><ele>171.0</ele></trkpt>
    <trkpt lat="49.1023550" lon="6.1774400"><ele>171.0</ele></trkpt>
    <trkpt lat="49.1023890" lon="6.1773860"><ele>171.0</ele></trkpt>
    <trkpt lat="49.1027580" lon="6.1774270"><ele>171.0</ele></trkpt>
    <trkpt lat="49.1030510" lon="6.1774810"><ele>171.0</ele></trkpt>
    <trkpt lat="49.1030750" lon="6.1774970"><ele>171.0</ele></trkpt>
    <trkpt lat="49.1031000" lon="6.1775140"><ele>171.0</ele></trkpt>
    <trkpt lat="49.1031510" lon="6.1775290"><ele>171.0</ele></trkpt>
    <trkpt lat="49.1031830" lon="6.1775380"><ele>171.0</ele></trkpt>
    <trkpt lat="49.1031910" lon="6.1775410"><ele>171.0</ele></trkpt>
    <trkpt lat="49.1032330" lon="6.1775570"><ele>171.0</ele></trkpt>
    <trkpt lat="49.1033310" lon="6.1775940"><ele>171.0</ele></trkpt>
    <trkpt lat="49.1033650" lon="6.1775870"><ele>170.8</ele></trkpt>
    <trkpt lat="49.1035040" lon="6.1776090"><ele>170.5</ele></trkpt>
    <trkpt lat="49.1035970" lon="6.1776350"><ele>170.5</ele></trkpt>
    <trkpt lat="49.1036890" lon="6.1776620"><ele>170.2</ele></trkpt>
    <trkpt lat="49.1037880" lon="6.1776890"><ele>170.0</ele></trkpt>
    <trkpt lat="49.1038950" lon="6.1777200"><ele>170.0</ele></trkpt>
    <trkpt lat="49.1040230" lon="6.1777560"><ele>170.0</ele></trkpt>
    <trkpt lat="49.1041410" lon="6.1777970"><ele>170.0</ele></trkpt>
    <trkpt lat="49.1043220" lon="6.1778640"><ele>170.0</ele></trkpt>
    <trkpt lat="49.1043410" lon="6.1778780"><ele>170.0</ele></trkpt>
    <trkpt lat="49.1043880" lon="6.1778950"><ele>170.0</ele></trkpt>
    <trkpt lat="49.1044200" lon="6.1778990"><ele>170.0</ele></trkpt>
    <trkpt lat="49.1044620" lon="6.1779200"><ele>170.0</ele></trkpt>
    <trkpt lat="49.1046160" lon="6.1779900"><ele>170.0</ele></trkpt>
    <trkpt lat="49.1046760" lon="6.1780210"><ele>170.0</ele></trkpt>
    <trkpt lat="49.1046950" lon="6.1780570"><ele>170.0</ele></trkpt>
    <trkpt lat="49.1047120" lon="6.1780890"><ele>170.0</ele></trkpt>
    <trkpt lat="49.1047660" lon="6.1781140"><ele>170.0</ele></trkpt>
    <trkpt lat="49.1048840" lon="6.1781740"><ele>170.0</ele></trkpt>
    <trkpt lat="49.1049330" lon="6.1781960"><ele>170.0</ele></trkpt>
    <trkpt lat="49.1050560" lon="6.1782230"><ele>170.0</ele></trkpt>
    <trkpt lat="49.1051920" lon="6.1783100"><ele>170.0</ele></trkpt>
    <trkpt lat="49.1053480" lon="6.1784140"><ele>169.8</ele></trkpt>
    <trkpt lat="49.1054230" lon="6.1784870"><ele>169.5</ele></trkpt>
    <trkpt lat="49.1054540" lon="6.1785180"><ele>169.5</ele></trkpt>
    <trkpt lat="49.1054960" lon="6.1785480"><ele>169.2</ele></trkpt>
    <trkpt lat="49.1055450" lon="6.1785940"><ele>169.0</ele></trkpt>
    <trkpt lat="49.1055780" lon="6.1786180"><ele>169.0</ele></trkpt>
    <trkpt lat="49.1056310" lon="6.1786500"><ele>169.0</ele></trkpt>
    <trkpt lat="49.1059190" lon="6.1788870"><ele>168.8</ele></trkpt>
    <trkpt lat="49.1059530" lon="6.1789410"><ele>169.0</ele></trkpt>
    <trkpt lat="49.1059670" lon="6.1789930"><ele>169.0</ele></trkpt>
    <trkpt lat="49.1064140" lon="6.1789310"><ele>169.0</ele></trkpt>
    <trkpt lat="49.1064410" lon="6.1789090"><ele>169.0</ele></trkpt>
    <trkpt lat="49.1069090" lon="6.1780970"><ele>170.0</ele></trkpt>
    <trkpt lat="49.1070150" lon="6.1782550"><ele>169.8</ele></trkpt>
    <trkpt lat="49.1070880" lon="6.1784050"><ele>170.0</ele></trkpt>
    <trkpt lat="49.1071130" lon="6.1784740"><ele>170.0</ele></trkpt>
    <trkpt lat="49.1071240" lon="6.1785570"><ele>170.0</ele></trkpt>
    <trkpt lat="49.1071570" lon="6.1790740"><ele>170.0</ele></trkpt>
    <trkpt lat="49.1071560" lon="6.1791200"><ele>170.0</ele></trkpt>
    <trkpt lat="49.1071530" lon="6.1791450"><ele>170.0</ele></trkpt>
    <trkpt lat="49.1072050" lon="6.1791320"><ele>170.0</ele></trkpt>
    <trkpt lat="49.1072070" lon="6.1791730"><ele>170.0</ele></trkpt>
    <trkpt lat="49.1072090" lon="6.1792250"><ele>170.0</ele></trkpt>
    <trkpt lat="49.1072110" lon="6.1792680"><ele>170.0</ele></trkpt>
    <trkpt lat="49.1072120" lon="6.1792830"><ele>170.0</ele></trkpt>
    <trkpt lat="49.1072430" lon="6.1792880"><ele>170.2</ele></trkpt>
    <trkpt lat="49.1072750" lon="6.1793190"><ele>170.5</ele></trkpt>
    <trkpt lat="49.1072870" lon="6.1793180"><ele>170.8</ele></trkpt>
    <trkpt lat="49.1073310" lon="6.1793120"><ele>171.2</ele></trkpt>
    <trkpt lat="49.1073610" lon="6.1793070"><ele>171.5</ele></trkpt>
    <trkpt lat="49.1073940" lon="6.1793030"><ele>172.0</ele></trkpt>
    <trkpt lat="49.1074160" lon="6.1792990"><ele>172.2</ele></trkpt>
    <trkpt lat="49.1074090" lon="6.1791980"><ele>172.5</ele></trkpt>
    <trkpt lat="49.1074210" lon="6.1791970"><ele>172.8</ele></trkpt>
    <trkpt lat="49.1074580" lon="6.1791920"><ele>173.2</ele></trkpt>
    <trkpt lat="49.1075080" lon="6.1791850"><ele>173.8</ele></trkpt>
    <trkpt lat="49.1075560" lon="6.1791790"><ele>174.2</ele></trkpt>
    <trkpt lat="49.1075590" lon="6.1791580"><ele>174.2</ele></trkpt>
    <trkpt lat="49.1075750" lon="6.1791480"><ele>174.5</ele></trkpt>
    <trkpt lat="49.1077560" lon="6.1791160"><ele>175.2</ele></trkpt>
    <trkpt lat="49.1077910" lon="6.1791290"><ele>175.2</ele></trkpt>
    <trkpt lat="49.1078230" lon="6.1791630"><ele>174.8</ele></trkpt>
    <trkpt lat="49.1078480" lon="6.1792570"><ele>174.5</ele></trkpt>
    <trkpt lat="49.1079530" lon="6.1792220"><ele>172.5</ele></trkpt>
    <trkpt lat="49.1080580" lon="6.1791090"><ele>170.0</ele></trkpt>
    <trkpt lat="49.1082810" lon="6.1794600"><ele>171.5</ele></trkpt>
    <trkpt lat="49.1084180" lon="6.1796610"><ele>171.8</ele></trkpt>
    <trkpt lat="49.1084460" lon="6.1796210"><ele>171.8</ele></trkpt>
    <trkpt lat="49.1084890" lon="6.1795900"><ele>171.8</ele></trkpt>
    <trkpt lat="49.1085900" lon="6.1794770"><ele>171.8</ele></trkpt>
    <trkpt lat="49.1086030" lon="6.1792300"><ele>171.8</ele></trkpt>
    <trkpt lat="49.1086290" lon="6.1790320"><ele>173.5</ele></trkpt>
    <trkpt lat="49.1086370" lon="6.1789650"><ele>174.5</ele></trkpt>
    <trkpt lat="49.1085970" lon="6.1785780"><ele>175.8</ele></trkpt>
    <trkpt lat="49.1086340" lon="6.1785370"><ele>176.5</ele></trkpt>
    <trkpt lat="49.1090000" lon="6.1781230"><ele>179.0</ele></trkpt>
    <trkpt lat="49.1091650" lon="6.1779350"><ele>178.8</ele></trkpt>
    <trkpt lat="49.1092350" lon="6.1778550"><ele>179.0</ele></trkpt>
    <trkpt lat="49.1093450" lon="6.1777310"><ele>179.0</ele></trkpt>
    <trkpt lat="49.1094230" lon="6.1776440"><ele>179.0</ele></trkpt>
    <trkpt lat="49.1095900" lon="6.1774510"><ele>179.5</ele></trkpt>
    <trkpt lat="49.1096070" lon="6.1774310"><ele>179.5</ele></trkpt>
    <trkpt lat="49.1095730" lon="6.1773630"><ele>179.5</ele></trkpt>
    <trkpt lat="49.1095400" lon="6.1773130"><ele>179.8</ele></trkpt>
    <trkpt lat="49.1095290" lon="6.1772910"><ele>179.8</ele></trkpt>
    <trkpt lat="49.1094690" lon="6.1771660"><ele>179.8</ele></trkpt>
    <trkpt lat="49.1094370" lon="6.1771030"><ele>179.8</ele></trkpt>
    <trkpt lat="49.1093930" lon="6.1771540"><ele>179.8</ele></trkpt>
    <trkpt lat="49.1093080" lon="6.1769770"><ele>179.2</ele></trkpt>
  </trkseg></trk>
</gpx>