<?xml version="1.0" encoding="UTF-8"?>
<gpx version="1.1" creator="olifant"
     xmlns="http://www.topografix.com/GPX/1/1"
     xmlns:xsi="http://www.w3.org/2001/XMLSchema-instance"
     xsi:schemaLocation="http://www.topografix.com/GPX/1/1 http://www.topografix.com/GPX/1/1/gpx.xsd">
  <metadata><name>La Seille et le Sablon</name><desc>4.9 km. D+ 10 m. 29 % de chemins. La descente vers le Sablon, puis la remontee par les jardins Pelt et le parc de la Seille : on rentre le long de l'eau, a plat et sur l'herbe.</desc></metadata>
  <wpt lat="49.1153870" lon="6.1768700"><name>Rue des Parmentiers, Metz</name><desc>Depart des deux boucles vers Borny, dans la Nouvelle Ville. A dix minutes a pied de la gare, dont il partage les commodites.</desc></wpt>
  <wpt lat="49.1092770" lon="6.1770130"><name>Gare de Metz, parvis</name><desc>Point de ralliement des boucles a pied : a moins d'un quart d'heure de marche pour tout le monde. Abrite, cafe ouvert tot, toilettes.</desc></wpt>
  <wpt lat="49.1007230" lon="6.1783190"><name>Square Loiseau de Persuis, Sablon</name><desc>Coeur du Sablon, a mi-chemin entre la gare et les roselieres.</desc></wpt>
  <wpt lat="49.1065930" lon="6.1857570"><name>Jardins Jean-Marie Pelt</name><desc>Prolongement sud du parc de la Seille, prairies et passerelles.</desc></wpt>
  <wpt lat="49.1066100" lon="6.1849680"><name>Parc de la Seille</name><desc>Prairies humides et roselieres au bord de la Seille. Herons.</desc></wpt>
  <trk><name>La Seille et le Sablon</name><trkseg>
    <trkpt lat="49.1153870" lon="6.1768670"><ele>174.5</ele></trkpt>
    <trkpt lat="49.1151930" lon="6.1766270"><ele>174.0</ele></trkpt>
    <trkpt lat="49.1150400" lon="6.1763740"><ele>174.0</ele></trkpt>
    <trkpt lat="49.1149300" lon="6.1761790"><ele>174.0</ele></trkpt>
    <trkpt lat="49.1149200" lon="6.1761630"><ele>174.0</ele></trkpt>
    <trkpt lat="49.1147900" lon="6.1759210"><ele>174.0</ele></trkpt>
    <trkpt lat="49.1146430" lon="6.1763650"><ele>174.2</ele></trkpt>
    <trkpt lat="49.1145180" lon="6.1766400"><ele>174.0</ele></trkpt>
    <trkpt lat="49.1143590" lon="6.1770090"><ele>173.8</ele></trkpt>
    <trkpt lat="49.1143230" lon="6.1769710"><ele>173.8</ele></trkpt>
    <trkpt lat="49.1143010" lon="6.1769480"><ele>173.8</ele></trkpt>
    <trkpt lat="49.1142300" lon="6.1768800"><ele>174.0</ele></trkpt>
    <trkpt lat="49.1141940" lon="6.1768190"><ele>173.8</ele></trkpt>
    <trkpt lat="49.1140080" lon="6.1764480"><ele>174.0</ele></trkpt>
    <trkpt lat="49.1139730" lon="6.1763770"><ele>174.0</ele></trkpt>
    <trkpt lat="49.1139380" lon="6.1764170"><ele>174.0</ele></trkpt>
    <trkpt lat="49.1138400" lon="6.1765460"><ele>173.8</ele></trkpt>
    <trkpt lat="49.1137550" lon="6.1766900"><ele>173.2</ele></trkpt>
    <trkpt lat="49.1134950" lon="6.1771290"><ele>172.5</ele></trkpt>
    <trkpt lat="49.1134340" lon="6.1772320"><ele>172.2</ele></trkpt>
    <trkpt lat="49.1134190" lon="6.1772110"><ele>172.2</ele></trkpt>
    <trkpt lat="49.1133810" lon="6.1771580"><ele>172.2</ele></trkpt>
    <trkpt lat="49.1133110" lon="6.1770930"><ele>172.5</ele></trkpt>
    <trkpt lat="49.1131200" lon="6.1770840"><ele>172.8</ele></trkpt>
    <trkpt lat="49.1128790" lon="6.1770730"><ele>172.5</ele></trkpt>
    <trkpt lat="49.1128480" lon="6.1770910"><ele>172.5</ele></trkpt>
    <trkpt lat="49.1127910" lon="6.1771630"><ele>172.2</ele></trkpt>
    <trkpt lat="49.1126890" lon="6.1771240"><ele>172.0</ele></trkpt>
    <trkpt lat="49.1126360" lon="6.1771060"><ele>172.0</ele></trkpt>
    <trkpt lat="49.1123240" lon="6.1770810"><ele>172.5</ele></trkpt>
    <trkpt lat="49.1123020" lon="6.1771020"><ele>172.5</ele></trkpt>
    <trkpt lat="49.1122290" lon="6.1770720"><ele>172.8</ele></trkpt>
    <trkpt lat="49.1121780" lon="6.1770620"><ele>173.0</ele></trkpt>
    <trkpt lat="49.1121110" lon="6.1770570"><ele>173.0</ele></trkpt>
    <trkpt lat="49.1120240" lon="6.1770450"><ele>173.0</ele></trkpt>
    <trkpt lat="49.1118110" lon="6.1770250"><ele>173.2</ele></trkpt>
    <trkpt lat="49.1117780" lon="6.1770220"><ele>173.2</ele></trkpt>
    <trkpt lat="49.1117430" lon="6.1770240"><ele>173.5</ele></trkpt>
    <trkpt lat="49.1117400" lon="6.1770900"><ele>173.2</ele></trkpt>
    <trkpt lat="49.1117280" lon="6.1771600"><ele>173.0</ele></trkpt>
    <trkpt lat="49.1116960" lon="6.1771580"><ele>173.0</ele></trkpt>
    <trkpt lat="49.1116650" lon="6.1771560"><ele>173.0</ele></trkpt>
    <trkpt lat="49.1116320" lon="6.1771560"><ele>173.2</ele></trkpt>
    <trkpt lat="49.1115790" lon="6.1771550"><ele>173.2</ele></trkpt>
    <trkpt lat="49.1114960" lon="6.1771530"><ele>173.5</ele></trkpt>
    <trkpt lat="49.1114620" lon="6.1771520"><ele>173.8</ele></trkpt>
    <trkpt lat="49.1114050" lon="6.1771540"><ele>173.8</ele></trkpt>
    <trkpt lat="49.1113850" lon="6.1771150"><ele>174.0</ele></trkpt>
    <trkpt lat="49.1113740" lon="6.1771080"><ele>174.0</ele></trkpt>
    <trkpt lat="49.1109830" lon="6.1771340"><ele>174.0</ele></trkpt>
    <trkpt lat="49.1107120" lon="6.1771360"><ele>174.0</ele></trkpt>
    <trkpt lat="49.1106040" lon="6.1771460"><ele>174.0</ele></trkpt>
    <trkpt lat="49.1105950" lon="6.1771470"><ele>173.8</ele></trkpt>
    <trkpt lat="49.1105680" lon="6.1771500"><ele>174.0</ele></trkpt>
    <trkpt lat="49.1105310" lon="6.1770570"><ele>173.8</ele></trkpt>
    <trkpt lat="49.1104880" lon="6.1769460"><ele>173.8</ele></trkpt>
    <trkpt lat="49.1104060" lon="6.1769440"><ele>174.0</ele></trkpt>
    <trkpt lat="49.1102540" lon="6.1766380"><ele>174.0</ele></trkpt>
    <trkpt lat="49.1102330" lon="6.1766610"><ele>174.0</ele></trkpt>
    <trkpt lat="49.1101660" lon="6.1767370"><ele>174.0</ele></trkpt>
    <trkpt lat="49.1101280" lon="6.1767800"><ele>174.0</ele></trkpt>
    <trkpt lat="49.1100150" lon="6.1769620"><ele>173.8</ele></trkpt>
    <trkpt lat="49.1099770" lon="6.1770100"><ele>174.2</ele></trkpt>
    <trkpt lat="49.1099000" lon="6.1770060"><ele>175.5</ele></trkpt>
    <trkpt lat="49.1098720" lon="6.1770370"><ele>176.0</ele></trkpt>
    <trkpt lat="49.1097880" lon="6.1771340"><ele>178.0</ele></trkpt>
    <trkpt lat="49.1096300" lon="6.1773040"><ele>179.8</ele></trkpt>
    <trkpt lat="49.1095730" lon="6.1773630"><ele>179.5</ele></trkpt>
    <trkpt lat="49.1095400" lon="6.1773130"><ele>179.8</ele></trkpt>
    <trkpt lat="49.1095290" lon="6.1772910"><ele>179.8</ele></trkpt>
    <trkpt lat="49.1094690" lon="6.1771660"><ele>179.8</ele></trkpt>
    <trkpt lat="49.1094370" lon="6.1771030"><ele>179.8</ele></trkpt>
    <trkpt lat="49.1093930" lon="6.1771540"><ele>179.8</ele></trkpt>
    <trkpt lat="49.1093080" lon="6.1769770"><ele>179.2</ele></trkpt>
    <trkpt lat="49.1093930" lon="6.1771540"><ele>179.8</ele></trkpt>
    <trkpt lat="49.1094370" lon="6.1771030"><ele>179.8</ele></trkpt>
    <trkpt lat="49.1094690" lon="6.1771660"><ele>179.8</ele></trkpt>
    <trkpt lat="49.1095290" lon="6.1772910"><ele>179.8</ele></trkpt>
    <trkpt lat="49.1095400" lon="6.1773130"><ele>179.8</ele></trkpt>
    <trkpt lat="49.1095730" lon="6.1773630"><ele>179.5</ele></trkpt>
    <trkpt lat="49.1096070" lon="6.1774310"><ele>179.5</ele></trkpt>
    <trkpt lat="49.1095900" lon="6.1774510"><ele>179.5</ele></trkpt>
    <trkpt lat="49.1094230" lon="6.1776440"><ele>179.0</ele></trkpt>
    <trkpt lat="49.1093450" lon="6.1777310"><ele>179.0</ele></trkpt>
    <trkpt lat="49.1092350" lon="6.1778550"><ele>179.0</ele></trkpt>
    <trkpt lat="49.1091650" lon="6.1779350"><ele>178.8</ele></trkpt>
    <trkpt lat="49.1090000" lon="6.1781230"><ele>179.0</ele></trkpt>
    <trkpt lat="49.1086340" lon="6.1785370"><ele>176.5</ele></trkpt>
    <trkpt lat="49.1085970" lon="6.1785780"><ele>175.8</ele></trkpt>
    <trkpt lat="49.1086370" lon="6.1789650"><ele>174.5</ele></trkpt>
    <trkpt lat="49.1086290" lon="6.1790320"><ele>173.5</ele></trkpt>
    <trkpt lat="49.1086030" lon="6.1792300"><ele>171.8</ele></trkpt>
    <trkpt lat="49.1085900" lon="6.1794770"><ele>171.8</ele></trkpt>
    <trkpt lat="49.1084890" lon="6.1795900"><ele>171.8</ele></trkpt>
    <trkpt lat="49.1084460" lon="6.1796210"><ele>171.8</ele></trkpt>
    <trkpt lat="49.1084180" lon="6.1796610"><ele>171.8</ele></trkpt>
    <trkpt lat="49.1082810" lon="6.1794600"><ele>171.5</ele></trkpt>
    <trkpt lat="49.1080580" lon="6.1791090"><ele>170.0</ele></trkpt>
    <trkpt lat="49.1079530" lon="6.1792220"><ele>172.5</ele></trkpt>
    <trkpt lat="49.1078480" lon="6.1792570"><ele>174.5</ele></trkpt>
    <trkpt lat="49.1078230" lon="6.1791630"><ele>174.8</ele></trkpt>
    <trkpt lat="49.1077910" lon="6.1791290"><ele>175.2</ele></trkpt>
    <trkpt lat="49.1077560" lon="6.1791160"><ele>175.2</ele></trkpt>
    <trkpt lat="49.1075750" lon="6.1791480"><ele>174.5</ele></trkpt>
    <trkpt lat="49.1075590" lon="6.1791580"><ele>174.2</ele></trkpt>
    <trkpt lat="49.1075560" lon="6.1791790"><ele>174.2</ele></trkpt>
    <trkpt lat="49.1075080" lon="6.1791850"><ele>173.8</ele></trkpt>
    <trkpt lat="49.1074580" lon="6.1791920"><ele>173.2</ele></trkpt>
    <trkpt lat="49.1074210" lon="6.1791970"><ele>172.8</ele></trkpt>
    <trkpt lat="49.1074090" lon="6.1791980"><ele>172.5</ele></trkpt>
    <trkpt lat="49.1073880" lon="6.1792010"><ele>172.2</ele></trkpt>
    <trkpt lat="49.1073940" lon="6.1793030"><ele>172.0</ele></trkpt>
    <trkpt lat="49.1073610" lon="6.1793070"><ele>171.5</ele></trkpt>
    <trkpt lat="49.1073310" lon="6.1793120"><ele>171.2</ele></trkpt>
    <trkpt lat="49.1072870" lon="6.1793180"><ele>170.8</ele></trkpt>
    <trkpt lat="49.1072750" lon="6.1793190"><ele>170.5</ele></trkpt>
    <trkpt lat="49.1072430" lon="6.1792880"><ele>170.2</ele></trkpt>
    <trkpt lat="49.1072120" lon="6.1792830"><ele>170.0</ele></trkpt>
    <trkpt lat="49.1072110" lon="6.1792680"><ele>170.0</ele></trkpt>
    <trkpt lat="49.1072090" lon="6.1792250"><ele>170.0</ele></trkpt>
    <trkpt lat="49.1072070" lon="6.1791730"><ele>170.0</ele></trkpt>
    <trkpt lat="49.1072050" lon="6.1791320"><ele>170.0</ele></trkpt>
    <trkpt lat="49.1071530" lon="6.1791450"><ele>170.0</ele></trkpt>
    <trkpt lat="49.1071560" lon="6.1791200"><ele>170.0</ele></trkpt>
    <trkpt lat="49.1071570" lon="6.1790740"><ele>170.0</ele></trkpt>
    <trkpt lat="49.1071240" lon="6.1785570"><ele>170.0</ele></trkpt>
    <trkpt lat="49.1071130" lon="6.1784740"><ele>170.0</ele></trkpt>
    <trkpt lat="49.1070880" lon="6.1784050"><ele>170.0</ele></trkpt>
    <trkpt lat="49.1070150" lon="6.1782550"><ele>169.8</ele></trkpt>
    <trkpt lat="49.1069090" lon="6.1780970"><ele>170.0</ele></trkpt>
    <trkpt lat="49.1064410" lon="6.1789090"><ele>169.0</ele></trkpt>
    <trkpt lat="49.1064140" lon="6.1789310"><ele>169.0</ele></trkpt>
    <trkpt lat="49.1059670" lon="6.1789930"><ele>169.0</ele></trkpt>
    <trkpt lat="49.1059530" lon="6.1789410"><ele>169.0</ele></trkpt>
    <trkpt lat="49.1059190" lon="6.1788870"><ele>168.8</ele></trkpt>
    <trkpt lat="49.1056310" lon="6.1786500"><ele>169.0</ele></trkpt>
    <trkpt lat="49.1055780" lon="6.1786180"><ele>169.0</ele></trkpt>
    <trkpt lat="49.1055450" lon="6.1785940"><ele>169.0</ele></trkpt>
    <trkpt lat="49.1054960" lon="6.1785480"><ele>169.2</ele></trkpt>
    <trkpt lat="49.1054540" lon="6.1785180"><ele>169.5</ele></trkpt>
    <trkpt lat="49.1054230" lon="6.1784870"><ele>169.5</ele></trkpt>
    <trkpt lat="49.1053480" lon="6.1784140"><ele>169.8</ele></trkpt>
    <trkpt lat="49.1051920" lon="6.1783100"><ele>170.0</ele></trkpt>
    <trkpt lat="49.1050560" lon="6.1782230"><ele>170.0</ele></trkpt>
    <trkpt lat="49.1049330" lon="6.1781960"><ele>170.0</ele></trkpt>
    <trkpt lat="49.1048840" lon="6.1781740"><ele>170.0</ele></trkpt>
    <trkpt lat="49.1047660" lon="6.1781140"><ele>170.0</ele></trkpt>
    <trkpt lat="49.1047120" lon="6.1780890"><ele>170.0</ele></trkpt>
    <trkpt lat="49.1046950" lon="6.1780570"><ele>170.0</ele></trkpt>
    <trkpt lat="49.1046760" lon="6.1780210"><ele>170.0</ele></trkpt>
    <trkpt lat="49.1046160" lon="6.1779900"><ele>170.0</ele></trkpt>
    <trkpt lat="49.1044620" lon="6.1779200"><ele>170.0</ele></trkpt>
    <trkpt lat="49.1044200" lon="6.1778990"><ele>170.0</ele></trkpt>
    <trkpt lat="49.1043880" lon="6.1778950"><ele>170.0</ele></trkpt>
    <trkpt lat="49.1043410" lon="6.1778780"><ele>170.0</ele></trkpt>
    <trkpt lat="49.1043220" lon="6.1778640"><ele>170.0</ele></trkpt>
    <trkpt lat="49.1041410" lon="6.1777970"><ele>170.0</ele></trkpt>
    <trkpt lat="49.1040230" lon="6.1777560"><ele>170.0</ele></trkpt>
    <trkpt lat="49.1038950" lon="6.1777200"><ele>170.0</ele></trkpt>
    <trkpt lat="49.1037880" lon="6.1776890"><ele>170.0</ele></trkpt>
    <trkpt lat="49.1036890" lon="6.1776620"><ele>170.2</ele></trkpt>
    <trkpt lat="49.1035970" lon="6.1776350"><ele>170.5</ele></trkpt>
    <trkpt lat="49.1035040" lon="6.1776090"><ele>170.5</ele></trkpt>
    <trkpt lat="49.1033650" lon="6.1775870"><ele>170.8</ele></trkpt>
    <trkpt lat="49.1033310" lon="6.1775940"><ele>171.0</ele></trkpt>
    <trkpt lat="49.1032330" lon="6.1775570"><ele>171.0</ele></trkpt>
    <trkpt lat="49.1032280" lon="6.1775890"><ele>171.0</ele></trkpt>
    <trkpt lat="49.1032230" lon="6.1776180"><ele>171.0</ele></trkpt>
    <trkpt lat="49.1032170" lon="6.1776760"><ele>171.0</ele></trkpt>
    <trkpt lat="49.1032110" lon="6.1777360"><ele>171.0</ele></trkpt>
    <trkpt lat="49.1030350" lon="6.1776920"><ele>170.8</ele></trkpt>
    <trkpt lat="49.1027410" lon="6.1776380"><ele>170.5</ele></trkpt>
    <trkpt lat="49.1026450" lon="6.1776830"><ele>170.2</ele></trkpt>
    <trkpt lat="49.1022740" lon="6.1776480"><ele>170.2</ele></trkpt>
    <trkpt lat="49.1018880" lon="6.1776420"><ele>170.5</ele></trkpt>
    <trkpt lat="49.1018880" lon="6.1776640"><ele>170.5</ele></trkpt>
    <trkpt lat="49.1019090" lon="6.1779130"><ele>170.0</ele></trkpt>
    <trkpt lat="49.1018740" lon="6.1779230"><ele>170.0</ele></trkpt>
    <trkpt lat="49.1018440" lon="6.1780250"><ele>170.0</ele></trkpt>
    <trkpt lat="49.1018430" lon="6.1781700"><ele>170.0</ele></trkpt>
    <trkpt lat="49.1018260" lon="6.1782910"><ele>170.0</ele></trkpt>
    <trkpt lat="49.1018310" lon="6.1783480"><ele>170.0</ele></trkpt>
    <trkpt lat="49.1017870" lon="6.1783560"><ele>170.0</ele></trkpt>
    <trkpt lat="49.1017870" lon="6.1785460"><ele>170.0</ele></trkpt>
    <trkpt lat="49.1016580" lon="6.1785300"><ele>170.0</ele></trkpt>
    <trkpt lat="49.1015960" lon="6.1785380"><ele>170.0</ele></trkpt>
    <trkpt lat="49.1015950" lon="6.1785020"><ele>170.0</ele></trkpt>
    <trkpt lat="49.1015640" lon="6.1785090"><ele>170.0</ele></trkpt>
    <trkpt lat="49.1015260" lon="6.1785170"><ele>170.0</ele></trkpt>
    <trkpt lat="49.1013740" lon="6.1785510"><ele>170.0</ele></trkpt>
    <trkpt lat="49.1013600" lon="6.1783980"><ele>170.0</ele></trkpt>
    <trkpt lat="49.1013060" lon="6.1783810"><ele>170.0</ele></trkpt>
    <trkpt lat="49.1012490" lon="6.1783960"><ele>170.0</ele></trkpt>
    <trkpt lat="49.1012250" lon="6.1783840"><ele>170.0</ele></trkpt>
    <trkpt lat="49.1010420" lon="6.1782930"><ele>170.0</ele></trkpt>
    <trkpt lat="49.1009210" lon="6.1783260"><ele>170.0</ele></trkpt>
    <trkpt lat="49.1007190" lon="6.1783510"><ele>170.0</ele></trkpt>
    <trkpt lat="49.1007150" lon="6.1783200"><ele>170.2</ele></trkpt>
    <trkpt lat="49.1007190" lon="6.1783510"><ele>170.0</ele></trkpt>
    <trkpt lat="49.1009210" lon="6.1783260"><ele>170.0</ele></trkpt>
    <trkpt lat="49.1010420" lon="6.1782930"><ele>170.0</ele></trkpt>
    <trkpt lat="49.1012250" lon="6.1783840"><ele>170.0</ele></trkpt>
    <trkpt lat="49.1012490" lon="6.1783960"><ele>170.0</ele></trkpt>
    <trkpt lat="49.1013060" lon="6.1783810"><ele>170.0</ele></trkpt>
    <trkpt lat="49.1013600" lon="6.1783980"><ele>170.0</ele></trkpt>
    <trkpt lat="49.1013740" lon="6.1785510"><ele>170.0</ele></trkpt>
    <trkpt lat="49.1015260" lon="6.1785170"><ele>170.0</ele></trkpt>
    <trkpt lat="49.1015640" lon="6.1785090"><ele>170.0</ele></trkpt>
    <trkpt lat="49.1015950" lon="6.1785020"><ele>170.0</ele></trkpt>
    <trkpt lat="49.1015960" lon="6.1785380"><ele>170.0</ele></trkpt>
    <trkpt lat="49.1016580" lon="6.1785300"><ele>170.0</ele></trkpt>
    <trkpt lat="49.1017870" lon="6.1785460"><ele>170.0</ele></trkpt>
    <trkpt lat="49.1018110" lon="6.1788010"><ele>170.0</ele></trkpt>
    <trkpt lat="49.1018330" lon="6.1790490"><ele>170.0</ele></trkpt>
    <trkpt lat="49.1018600" lon="6.1793020"><ele>170.0</ele></trkpt>
    <trkpt lat="49.1018780" lon="6.1795110"><ele>170.0</ele></trkpt>
    <trkpt lat="49.1018810" lon="6.1795410"><ele>170.0</ele></trkpt>
    <trkpt lat="49.1018840" lon="6.1795740"><ele>170.0</ele></trkpt>
    <trkpt lat="49.1018270" lon="6.1797050"><ele>170.0</ele></trkpt>
    <trkpt lat="49.1018070" lon="6.1797650"><ele>169.8</ele></trkpt>
    <trkpt lat="49.1018490" lon="6.1798120"><ele>169.8</ele></trkpt>
    <trkpt lat="49.1018780" lon="6.1798110"><ele>169.8</ele></trkpt>
    <trkpt lat="49.1018840" lon="6.1799110"><ele>169.8</ele></trkpt>
    <trkpt lat="49.1018890" lon="6.1799990"><ele>169.8</ele></trkpt>
    <trkpt lat="49.1020120" lon="6.1799840"><ele>169.8</ele></trkpt>
    <trkpt lat="49.1020440" lon="6.1799980"><ele>169.8</ele></trkpt>
    <trkpt lat="49.1023310" lon="6.1799510"><ele>169.5</ele></trkpt>
    <trkpt lat="49.1023620" lon="6.1799340"><ele>169.2</ele></trkpt>
    <trkpt lat="49.1025050" lon="6.1799180"><ele>169.2</ele></trkpt>
    <trkpt lat="49.1025230" lon="6.1799380"><ele>169.0</ele></trkpt>
    <trkpt lat="49.1025300" lon="6.1799300"><ele>169.0</ele></trkpt>
    <trkpt lat="49.1025700" lon="6.1799250"><ele>169.0</ele></trkpt>
    <trkpt lat="49.1025790" lon="6.1803190"><ele>169.8</ele></trkpt>
    <trkpt lat="49.1026200" lon="6.1818510"><ele>172.0</ele></trkpt>
    <trkpt lat="49.1026230" lon="6.1819780"><ele>172.0</ele></trkpt>
    <trkpt lat="49.1027860" lon="6.1819930"><ele>172.0</ele></trkpt>
    <trkpt lat="49.1030720" lon="6.1820040"><ele>172.0</ele></trkpt>
    <trkpt lat="49.1031530" lon="6.1820050"><ele>172.0</ele></trkpt>
    <trkpt lat="49.1033510" lon="6.1820070"><ele>172.0</ele></trkpt>
    <trkpt lat="49.1036840" lon="6.1819930"><ele>172.0</ele></trkpt>
    <trkpt lat="49.1037640" lon="6.1819880"><ele>172.0</ele></trkpt>
    <trkpt lat="49.1038910" lon="6.1819810"><ele>172.0</ele></trkpt>
    <trkpt lat="49.1039690" lon="6.1819740"><ele>172.0</ele></trkpt>
    <trkpt lat="49.1043440" lon="6.1819320"><ele>172.0</ele></trkpt>
    <trkpt lat="49.1043830" lon="6.1819300"><ele>172.0</ele></trkpt>
    <trkpt lat="49.1044030" lon="6.1819280"><ele>172.0</ele></trkpt>
    <trkpt lat="49.1044090" lon="6.1819970"><ele>172.0</ele></trkpt>
    <trkpt lat="49.1044130" lon="6.1820430"><ele>172.0</ele></trkpt>
    <trkpt lat="49.1044690" lon="6.1820990"><ele>172.0</ele></trkpt>
    <trkpt lat="49.1045110" lon="6.1820880"><ele>172.0</ele></trkpt>
    <trkpt lat="49.1045840" lon="6.1827110"><ele>171.2</ele></trkpt>
    <trkpt lat="49.1045920" lon="6.1827860"><ele>171.2</ele></trkpt>
    <trkpt lat="49.1046620" lon="6.1827680"><ele>171.0</ele></trkpt>
    <trkpt lat="49.1046810" lon="6.1829360"><ele>170.0</ele></trkpt>
    <trkpt lat="49.1047200" lon="6.1829260"><ele>169.8</ele></trkpt>
    <trkpt lat="49.1047260" lon="6.1829800"><ele>169.5</ele></trkpt>
    <trkpt lat="49.1047320" lon="6.1830460"><ele>169.0</ele></trkpt>
    <trkpt lat="49.1047470" lon="6.1831930"><ele>169.2</ele></trkpt>
    <trkpt lat="49.1047580" lon="6.1834260"><ele>169.8</ele></trkpt>
    <trkpt lat="49.1047810" lon="6.1836540"><ele>170.0</ele></trkpt>
    <trkpt lat="49.1048020" lon="6.1837500"><ele>169.8</ele></trkpt>
    <trkpt lat="49.1048240" lon="6.1838100"><ele>169.5</ele></trkpt>
    <trkpt lat="49.1048890" lon="6.1838460"><ele>169.5</ele></trkpt>
    <trkpt lat="49.1048930" lon="6.1839220"><ele>169.0</ele></trkpt>
    <trkpt lat="49.1048970" lon="6.1840080"><ele>169.2</ele></trkpt>
    <trkpt lat="49.1051830" lon="6.1839600"><ele>169.5</ele></trkpt>
    <trkpt lat="49.1052610" lon="6.1842910"><ele>170.0</ele></trkpt>
    <trkpt lat="49.1052710" lon="6.1843310"><ele>170.0</ele></trkpt>
    <trkpt lat="49.1057230" lon="6.1842580"><ele>170.0</ele></trkpt>
    <trkpt lat="49.1057350" lon="6.1844420"><ele>170.0</ele></trkpt>
    <trkpt lat="49.1057780" lon="6.1850890"><ele>169.0</ele></trkpt>
    <trkpt lat="49.1057870" lon="6.1851930"><ele>169.0</ele></trkpt>
    <trkpt lat="49.1057910" lon="6.1852920"><ele>168.8</ele></trkpt>
    <trkpt lat="49.1057920" lon="6.1853020"><ele>168.8</ele></trkpt>
    <trkpt lat="49.1057930" lon="6.1853150"><ele>168.5</ele></trkpt>
    <trkpt lat="49.1057950" lon="6.1853470"><ele>168.5</ele></trkpt>
    <trkpt lat="49.1057970" lon="6.1853860"><ele>168.0</ele></trkpt>
    <trkpt lat="49.1058000" lon="6.1854240"><ele>167.8</ele></trkpt>
    <trkpt lat="49.1058050" lon="6.1855070"><ele>167.2</ele></trkpt>
    <trkpt lat="49.1059540" lon="6.1855360"><ele>167.0</ele></trkpt>
    <trkpt lat="49.1060930" lon="6.1855950"><ele>166.5</ele></trkpt>
    <trkpt lat="49.1062390" lon="6.1854740"><ele>167.0</ele></trkpt>
    <trkpt lat="49.1062780" lon="6.1854540"><ele>167.0</ele></trkpt>
    <trkpt lat="49.1062830" lon="6.1854800"><ele>166.8</ele></trkpt>
    <trkpt lat="49.1062950" lon="6.1855000"><ele>166.5</ele></trkpt>
    <trkpt lat="49.1063380" lon="6.1855390"><ele>166.2</ele></trkpt>
    <trkpt lat="49.1064330" lon="6.1855610"><ele>165.8</ele></trkpt>
    <trkpt lat="49.1065220" lon="6.1855940"><ele>165.8</ele></trkpt>
    <trkpt lat="49.1066190" lon="6.1856540"><ele>165.0</ele></trkpt>
    <trkpt lat="49.1066380" lon="6.1856660"><ele>165.0</ele></trkpt>
    <trkpt lat="49.1066710" lon="6.1856730"><ele>165.0</ele></trkpt>
    <trkpt lat="49.1066560" lon="6.1854630"><ele>166.5</ele></trkpt>
    <trkpt lat="49.1066420" lon="6.1853470"><ele>167.5</ele></trkpt>
    <trkpt lat="49.1066420" lon="6.1853250"><ele>167.5</ele></trkpt>
    <trkpt lat="49.1066400" lon="6.1852180"><ele>168.2</ele></trkpt>
    <trkpt lat="49.1066390" lon="6.1851740"><ele>168.5</ele></trkpt>
    <trkpt lat="49.1066370" lon="6.1851470"><ele>168.8</ele></trkpt>
    <trkpt lat="49.1066320" lon="6.1850780"><ele>169.2</ele></trkpt>
    <trkpt lat="49.1066240" lon="6.1849620"><ele>169.8</ele></trkpt>
    <trkpt lat="49.1066090" lon="6.1849640"><ele>168.8</ele></trkpt>
    <trkpt lat="49.1066240" lon="6.1849620"><ele>169.8</ele></trkpt>
    <trkpt lat="49.1066060" lon="6.1847110"><ele>169.8</ele></trkpt>
    <trkpt lat="49.1074370" lon="6.1839010"><ele>169.8</ele></trkpt>
    <trkpt lat="49.1074340" lon="6.1838590"><ele>170.0</ele></trkpt>
    <trkpt lat="49.1074180" lon="6.1836340"><ele>170.0</ele></trkpt>
    <trkpt lat="49.1075120" lon="6.1836170"><ele>170.0</ele></trkpt>
    <trkpt lat="49.1075020" lon="6.1834120"><ele>170.0</ele></trkpt>
    <trkpt lat="49.1074970" lon="6.1833290"><ele>170.0</ele></trkpt>
    <trkpt lat="49.1074910" lon="6.1832440"><ele>170.2</ele></trkpt>
    <trkpt lat="49.1075150" lon="6.1832290"><ele>170.2</ele></trkpt>
    <trkpt lat="49.1075310" lon="6.1831850"><ele>170.5</ele></trkpt>
    <trkpt lat="49.1075180" lon="6.1830140"><ele>171.0</ele></trkpt>
    <trkpt lat="49.1075710" lon="6.1830050"><ele>171.5</ele></trkpt>
    <trkpt lat="49.1076110" lon="6.1829990"><ele>171.8</ele></trkpt>
    <trkpt lat="49.1077060" lon="6.1829890"><ele>172.5</ele></trkpt>
    <trkpt lat="49.1077260" lon="6.1829870"><ele>172.8</ele></trkpt>
    <trkpt lat="49.1076960" lon="6.1825490"><ele>171.0</ele></trkpt>
    <trkpt lat="49.1076120" lon="6.1812390"><ele>171.0</ele></trkpt>
    <trkpt lat="49.1076210" lon="6.1811800"><ele>171.0</ele></trkpt>
    <trkpt lat="49.1076290" lon="6.1811230"><ele>171.0</ele></trkpt>
    <trkpt lat="49.1076610" lon="6.1810350"><ele>171.0</ele></trkpt>
    <trkpt lat="49.1077000" lon="6.1809750"><ele>171.0</ele></trkpt>
    <trkpt lat="49.1077440" lon="6.1809290"><ele>171.0</ele></trkpt>
    <trkpt lat="49.1080150" lon="6.1807420"><ele>171.0</ele></trkpt>
    <trkpt lat="49.1081610" lon="6.1806420"><ele>171.2</ele></trkpt>
    <trkpt lat="49.1086530" lon="6.1803450"><ele>171.8</ele></trkpt>
    <trkpt lat="49.1086080" lon="6.1802700"><ele>172.0</ele></trkpt>
    <trkpt lat="49.1087830" lon="6.1802210"><ele>172.0</ele></trkpt>
    <trkpt lat="49.1088080" lon="6.1801550"><ele>172.0</ele></trkpt>
    <trkpt lat="49.1088420" lon="6.1801180"><ele>172.0</ele></trkpt>
    <trkpt lat="49.1089470" lon="6.1800570"><ele>172.0</ele></trkpt>
    <trkpt lat="49.1089690" lon="6.1801370"><ele>172.5</ele></trkpt>
    <trkpt lat="49.1089850" lon="6.1801890"><ele>172.8</ele></trkpt>
    <trkpt lat="49.1090570" lon="6.1801350"><ele>173.0</ele></trkpt>
    <trkpt lat="49.1094690" lon="6.1798980"><ele>173.2</ele></trkpt>
    <trkpt lat="49.1108380" lon="6.1790850"><ele>172.5</ele></trkpt>
    <trkpt lat="49.1109020" lon="6.1790420"><ele>172.2</ele></trkpt>
    <trkpt lat="49.1109300" lon="6.1790250"><ele>172.2</ele></trkpt>
    <trkpt lat="49.1109830" lon="6.1791430"><ele>172.2</ele></trkpt>
    <trkpt lat="49.1110830" lon="6.1790440"><ele>172.0</ele></trkpt>
    <trkpt lat="49.1111160" lon="6.1790080"><ele>172.0</ele></trkpt>
    <trkpt lat="49.1111550" lon="6.1789390"><ele>172.0</ele></trkpt>
    <trkpt lat="49.1112790" lon="6.1789100"><ele>172.5</ele></trkpt>
    <trkpt lat="49.1115270" lon="6.1788200"><ele>172.5</ele></trkpt>
    <trkpt lat="49.1115870" lon="6.1788020"><ele>172.2</ele></trkpt>
    <trkpt lat="49.1116760" lon="6.1787750"><ele>172.0</ele></trkpt>
    <trkpt lat="49.1117320" lon="6.1787570"><ele>172.0</ele></trkpt>
    <trkpt lat="49.1117920" lon="6.1787390"><ele>172.0</ele></trkpt>
    <trkpt lat="49.1118060" lon="6.1787140"><ele>172.0</ele></trkpt>
    <trkpt lat="49.1118380" lon="6.1786900"><ele>172.0</ele></trkpt>
    <trkpt lat="49.1118290" lon="6.1786240"><ele>172.0</ele></trkpt>
    <trkpt lat="49.1118250" lon="6.1785990"><ele>172.0</ele></trkpt>
    <trkpt lat="49.1118160" lon="6.1785410"><ele>172.0</ele></trkpt>
    <trkpt lat="49.1122030" lon="6.1784030"><ele>172.0</ele></trkpt>
    <trkpt lat="49.1122710" lon="6.1784020"><ele>171.8</ele></trkpt>
    <trkpt lat="49.1123030" lon="6.1784370"><ele>171.8</ele></trkpt>
    <trkpt lat="49.1123560" lon="6.1784750"><ele>171.8</ele></trkpt>
    <trkpt lat="49.1125250" lon="6.1784690"><ele>171.2</ele></trkpt>
    <trkpt lat="49.1125350" lon="6.1784690"><ele>171.2</ele></trkpt>
    <trkpt lat="49.1126330" lon="6.1784850"><ele>171.0</ele></trkpt>
    <trkpt lat="49.1126550" lon="6.1784890"><ele>171.0</ele></trkpt>
    <trkpt lat="49.1126750" lon="6.1784930"><ele>171.0</ele></trkpt>
    <trkpt lat="49.1127060" lon="6.1785190"><ele>171.0</ele></trkpt>
    <trkpt lat="49.1128520" lon="6.1785030"><ele>171.0</ele></trkpt>
    <trkpt lat="49.1129500" lon="6.1784810"><ele>171.0</ele></trkpt>
    <trkpt lat="49.1132230" lon="6.1784310"><ele>171.0</ele></trkpt>
    <trkpt lat="49.1133240" lon="6.1784080"><ele>171.0</ele></trkpt>
    <trkpt lat="49.1133740" lon="6.1783750"><ele>171.0</ele></trkpt>
    <trkpt lat="49.1134780" lon="6.1783200"><ele>171.0</ele></trkpt>
    <trkpt lat="49.1135520" lon="6.1782470"><ele>171.0</ele></trkpt>
    <trkpt lat="49.1136600" lon="6.1782480"><ele>171.0</ele></trkpt>
    <trkpt lat="49.1138140" lon="6.1782300"><ele>171.0</ele></trkpt>
    <trkpt lat="49.1138680" lon="6.1782120"><ele>171.0</ele></trkpt>
    <trkpt lat="49.1139240" lon="6.1781770"><ele>171.0</ele></trkpt>
    <trkpt lat="49.1139770" lon="6.1781230"><ele>171.0</ele></trkpt>
    <trkpt lat="49.1140020" lon="6.1780930"><ele>171.0</ele></trkpt>
    <trkpt lat="49.1140180" lon="6.1780590"><ele>171.0</ele></trkpt>
    <trkpt lat="49.1142490" lon="6.1773110"><ele>172.2</ele></trkpt>
    <trkpt lat="49.1143000" lon="6.1771560"><ele>173.0</ele></trkpt>
    <trkpt lat="49.1143590" lon="6.1770090"><ele>173.8</ele></trkpt>
    <trkpt lat="49.1145180" lon="6.1766400"><ele>174.0</ele></trkpt>
    <trkpt lat="49.1146430" lon="6.1763650"><ele>174.2</ele></trkpt>
    <trkpt lat="49.1147900" lon="6.1759210"><ele>174.0</ele></trkpt>
    <trkpt lat="49.1149200" lon="6.1761630"><ele>174.0</ele></trkpt>
    <trkpt lat="49.1149300" lon="6.1761790"><ele>174.0</ele></trkpt>
    <trkpt lat="49.1150400" lon="6.1763740"><ele>174.0</ele></trkpt>
    <trkpt lat="49.1151930" lon="6.1766270"><ele>174.0</ele></trkpt>
    <trkpt lat="49.1153870" lon="6.1768670"><ele>175.0</ele></trkpt>
  </trkseg></trk>
</gpx>