<?xml version="1.0" encoding="UTF-8"?>
<kml xmlns="http://www.opengis.net/kml/2.2"><Document>
  <name>La Seille et les commerces de Borny</name><description>10.3 km. D+ 55 m. 36 % de chemins. Une course a pied plutot qu'une escapade : on descend la Seille et son parc, on traverse le Technopole jusqu'au centre commercial de Borny, et on rentre par le plus court. La seule boucle qui ne se referme pas sur la campagne.</description>
  <Style id="depart"><IconStyle><scale>1.2</scale><Icon><href>http://maps.google.com/mapfiles/kml/paddle/grn-circle.png</href></Icon></IconStyle></Style>
  <Style id="etape"><IconStyle><Icon><href>http://maps.google.com/mapfiles/kml/paddle/wht-blank.png</href></Icon></IconStyle></Style>
    <Placemark><name>Depart : Rue des Parmentiers, Metz</name><description>Depart des deux boucles vers Borny, dans la Nouvelle Ville. A dix minutes a pied de la gare, dont il partage les commodites.</description><styleUrl>#depart</styleUrl><Point><coordinates>6.1768700,49.1153870,0</coordinates></Point></Placemark>
    <Placemark><name>1. Parc de la Seille</name><description>Prairies humides et roselieres au bord de la Seille. Herons.</description><styleUrl>#etape</styleUrl><Point><coordinates>6.1849680,49.1066100,0</coordinates></Point></Placemark>
    <Placemark><name>2. Centre commercial de Borny</name><description>L'ancien Cora, passe sous l'enseigne Carrefour ; galerie, cafe et toilettes. Le seul ravitaillement a mi-parcours des deux boucles de l'est.</description><styleUrl>#etape</styleUrl><Point><coordinates>6.2272340,49.1057150,0</coordinates></Point></Placemark>
    <Style id="t1"><LineStyle><color>ff4A6B8C</color><width>4</width></LineStyle></Style>
    <Placemark><name>La Seille et les commerces de Borny</name><description>10.3 km. D+ 55 m. 36 % de chemins. Une course a pied plutot qu'une escapade : on descend la Seille et son parc, on traverse le Technopole jusqu'au centre commercial de Borny, et on rentre par le plus court. La seule boucle qui ne se referme pas sur la campagne.</description><styleUrl>#t1</styleUrl><LineString><tessellate>1</tessellate><coordinates>6.1768670,49.1153870,174 6.1766270,49.1151930,174 6.1763740,49.1150400,174 6.1761790,49.1149300,174 6.1761630,49.1149200,174 6.1759210,49.1147900,174 6.1763650,49.1146430,174 6.1766400,49.1145180,174 6.1770090,49.1143590,174 6.1771560,49.1143000,173 6.1773110,49.1142490,172 6.1780590,49.1140180,171 6.1780930,49.1140020,171 6.1781230,49.1139770,171 6.1781770,49.1139240,171 6.1782120,49.1138680,171 6.1782300,49.1138140,171 6.1782480,49.1136600,171 6.1782470,49.1135520,171 6.1783200,49.1134780,171 6.1783750,49.1133740,171 6.1784080,49.1133240,171 6.1784310,49.1132230,171 6.1784810,49.1129500,171 6.1785030,49.1128520,171 6.1785190,49.1127060,171 6.1784930,49.1126750,171 6.1784890,49.1126550,171 6.1784850,49.1126330,171 6.1784690,49.1125350,171 6.1784690,49.1125250,171 6.1784750,49.1123560,172 6.1784370,49.1123030,172 6.1784020,49.1122710,172 6.1784030,49.1122030,172 6.1785410,49.1118160,172 6.1785990,49.1118250,172 6.1786240,49.1118290,172 6.1786900,49.1118380,172 6.1787140,49.1118060,172 6.1787390,49.1117920,172 6.1787570,49.1117320,172 6.1787750,49.1116760,172 6.1788020,49.1115870,172 6.1788200,49.1115270,172 6.1789100,49.1112790,172 6.1789390,49.1111550,172 6.1790080,49.1111160,172 6.1790440,49.1110830,172 6.1791430,49.1109830,172 6.1790250,49.1109300,172 6.1790420,49.1109020,172 6.1790850,49.1108380,172 6.1798980,49.1094690,173 6.1801350,49.1090570,173 6.1801890,49.1089850,173 6.1801370,49.1089690,172 6.1800570,49.1089470,172 6.1801180,49.1088420,172 6.1801550,49.1088080,172 6.1802210,49.1087830,172 6.1802700,49.1086080,172 6.1803450,49.1086530,172 6.1806420,49.1081610,171 6.1807420,49.1080150,171 6.1809290,49.1077440,171 6.1809750,49.1077000,171 6.1810350,49.1076610,171 6.1811230,49.1076290,171 6.1811800,49.1076210,171 6.1812390,49.1076120,171 6.1825490,49.1076960,171 6.1829870,49.1077260,173 6.1829890,49.1077060,172 6.1829990,49.1076110,172 6.1830050,49.1075710,172 6.1830140,49.1075180,171 6.1831850,49.1075310,170 6.1832290,49.1075150,170 6.1832440,49.1074910,170 6.1833290,49.1074970,170 6.1834120,49.1075020,170 6.1836170,49.1075120,170 6.1836340,49.1074180,170 6.1838590,49.1074340,170 6.1839010,49.1074370,170 6.1847110,49.1066060,170 6.1849620,49.1066240,170 6.1849640,49.1066090,169 6.1849620,49.1066240,170 6.1850780,49.1066320,169 6.1851400,49.1067400,169 6.1852140,49.1069500,168 6.1852240,49.1070160,168 6.1852320,49.1075280,169 6.1860800,49.1075910,168 6.1861100,49.1074060,168 6.1861190,49.1073520,168 6.1861450,49.1073240,168 6.1863250,49.1062780,167 6.1863420,49.1062490,167 6.1863460,49.1062100,168 6.1864140,49.1062100,168 6.1866520,49.1061880,168 6.1870000,49.1061450,168 6.1873180,49.1061070,168 6.1873730,49.1061000,168 6.1874010,49.1060970,168 6.1874490,49.1060910,169 6.1874620,49.1061530,169 6.1874760,49.1061990,169 6.1875290,49.1061890,169 6.1875620,49.1061820,169 6.1876220,49.1061700,169 6.1885280,49.1059800,174 6.1885690,49.1059730,174 6.1889190,49.1059060,177 6.1890500,49.1058590,178 6.1892320,49.1058170,180 6.1893830,49.1058150,180 6.1895080,49.1057930,182 6.1896140,49.1057750,183 6.1897140,49.1057670,184 6.1900440,49.1057920,186 6.1902460,49.1057980,189 6.1904640,49.1057780,190 6.1904710,49.1058250,190 6.1904890,49.1059420,190 6.1905040,49.1060450,190 6.1906170,49.1068070,194 6.1907100,49.1068020,194 6.1909670,49.1067890,196 6.1911080,49.1068030,196 6.1912780,49.1068710,196 6.1913920,49.1069250,196 6.1915940,49.1067700,197 6.1916690,49.1066980,197 6.1917450,49.1067190,198 6.1918820,49.1067560,198 6.1920200,49.1068040,198 6.1922660,49.1069270,198 6.1922910,49.1069400,198 6.1924730,49.1070480,199 6.1925360,49.1070850,199 6.1925860,49.1071150,199 6.1932020,49.1074820,202 6.1935060,49.1076630,199 6.1935400,49.1076810,198 6.1935600,49.1076910,198 6.1937950,49.1077860,198 6.1938920,49.1078120,200 6.1940000,49.1078310,201 6.1940690,49.1078410,202 6.1941300,49.1078580,202 6.1943160,49.1079200,203 6.1949140,49.1081780,204 6.1949970,49.1082120,204 6.1951030,49.1082510,204 6.1959880,49.1085820,206 6.1961970,49.1086600,206 6.1962500,49.1086800,206 6.1966690,49.1088370,207 6.1967850,49.1088900,207 6.1968130,49.1088560,207 6.1968360,49.1088280,207 6.1974480,49.1081660,208 6.1975150,49.1080940,209 6.1978550,49.1077130,210 6.1979540,49.1076010,210 6.1980040,49.1076250,210 6.1981420,49.1076770,210 6.1983830,49.1077670,210 6.1994910,49.1081780,210 6.2001410,49.1084210,208 6.2001930,49.1083590,209 6.2003220,49.1084010,208 6.2004210,49.1084380,208 6.2005160,49.1084740,208 6.2006120,49.1085100,207 6.2008900,49.1081950,208 6.2009410,49.1082160,208 6.2009870,49.1082350,208 6.2010250,49.1082520,208 6.2013510,49.1078630,209 6.2014920,49.1078330,209 6.2019450,49.1073800,210 6.2024390,49.1068910,212 6.2025100,49.1068630,212 6.2025780,49.1068670,212 6.2026100,49.1068410,212 6.2031660,49.1065450,212 6.2032070,49.1065130,213 6.2032350,49.1064980,213 6.2032420,49.1064840,213 6.2032370,49.1064670,213 6.2031880,49.1064240,213 6.2031550,49.1063930,214 6.2033120,49.1063150,213 6.2033610,49.1062870,213 6.2033920,49.1062700,213 6.2034380,49.1062440,214 6.2034670,49.1062280,214 6.2038280,49.1059750,214 6.2043350,49.1056160,214 6.2044250,49.1056010,214 6.2045280,49.1055570,214 6.2046020,49.1055030,214 6.2047190,49.1054080,214 6.2048040,49.1053210,214 6.2048880,49.1053170,214 6.2051720,49.1052980,214 6.2052520,49.1052920,214 6.2054150,49.1052810,213 6.2057200,49.1052610,212 6.2061920,49.1052320,211 6.2063290,49.1052230,210 6.2063860,49.1052240,210 6.2065620,49.1052120,210 6.2065940,49.1052100,210 6.2067110,49.1051970,209 6.2068370,49.1051860,209 6.2075600,49.1051340,207 6.2079510,49.1051060,206 6.2080570,49.1050990,206 6.2084710,49.1050690,205 6.2085790,49.1050610,205 6.2086610,49.1050770,204 6.2087320,49.1051050,204 6.2088070,49.1051630,204 6.2088700,49.1052020,204 6.2091640,49.1053360,204 6.2092580,49.1053790,203 6.2093470,49.1054620,203 6.2093380,49.1054740,203 6.2093140,49.1054860,203 6.2093870,49.1055440,203 6.2094440,49.1055900,203 6.2094810,49.1056190,202 6.2095780,49.1055920,202 6.2097000,49.1055980,202 6.2097920,49.1056160,202 6.2099610,49.1056620,202 6.2103160,49.1057960,201 6.2106120,49.1059220,200 6.2114940,49.1062750,199 6.2117130,49.1063590,199 6.2121280,49.1065030,198 6.2125080,49.1066050,198 6.2130230,49.1067120,197 6.2133820,49.1067630,196 6.2136260,49.1067890,196 6.2143410,49.1068440,194 6.2155030,49.1069230,194 6.2168980,49.1070220,193 6.2176180,49.1070660,194 6.2176650,49.1070710,194 6.2179960,49.1071770,194 6.2182700,49.1071790,195 6.2185510,49.1071970,196 6.2188380,49.1072190,196 6.2191940,49.1072230,196 6.2193810,49.1072350,196 6.2196340,49.1072640,196 6.2197600,49.1072670,197 6.2199320,49.1072800,197 6.2203690,49.1072890,198 6.2204950,49.1073070,198 6.2205620,49.1073150,198 6.2207150,49.1073140,198 6.2207980,49.1073290,198 6.2209370,49.1073230,198 6.2209750,49.1073310,198 6.2210300,49.1073240,198 6.2212070,49.1073340,198 6.2212950,49.1073400,199 6.2214190,49.1073490,199 6.2215610,49.1073570,199 6.2216690,49.1072640,199 6.2217200,49.1072090,199 6.2217490,49.1071690,199 6.2216900,49.1071640,199 6.2217130,49.1071400,199 6.2217550,49.1070950,199 6.2218240,49.1070170,199 6.2219800,49.1070140,199 6.2224850,49.1070250,200 6.2226750,49.1070160,200 6.2228110,49.1070300,200 6.2239240,49.1071020,202 6.2244660,49.1071090,202 6.2246460,49.1071360,203 6.2248980,49.1071480,203 6.2260120,49.1071690,204 6.2260620,49.1071860,205 6.2261160,49.1071990,205 6.2262160,49.1072030,205 6.2263300,49.1072080,205 6.2263960,49.1072110,205 6.2266480,49.1072180,206 6.2268860,49.1072170,207 6.2268930,49.1071530,207 6.2269010,49.1070160,207 6.2269350,49.1070170,207 6.2269810,49.1064070,209 6.2269820,49.1063880,209 6.2270060,49.1063880,209 6.2271960,49.1063930,209 6.2272210,49.1063930,209 6.2273490,49.1063970,209 6.2274150,49.1062960,209 6.2274270,49.1061550,209 6.2274150,49.1062960,209 6.2273490,49.1063970,209 6.2272210,49.1063930,209 6.2271960,49.1063930,209 6.2270060,49.1063880,209 6.2269820,49.1063880,209 6.2269810,49.1064070,209 6.2269350,49.1070170,207 6.2269010,49.1070160,207 6.2268930,49.1071530,207 6.2268860,49.1072170,207 6.2266480,49.1072180,206 6.2263960,49.1072110,205 6.2263300,49.1072080,205 6.2262160,49.1072030,205 6.2261160,49.1071990,205 6.2260620,49.1071860,205 6.2260120,49.1071690,204 6.2248980,49.1071480,203 6.2246460,49.1071360,203 6.2244660,49.1071090,202 6.2239240,49.1071020,202 6.2228110,49.1070300,200 6.2226750,49.1070160,200 6.2224850,49.1070250,200 6.2219800,49.1070140,199 6.2218240,49.1070170,199 6.2217550,49.1070950,199 6.2217130,49.1071400,199 6.2216900,49.1071640,199 6.2217490,49.1071690,199 6.2217200,49.1072090,199 6.2216690,49.1072640,199 6.2215610,49.1073570,199 6.2214190,49.1073490,199 6.2212950,49.1073400,199 6.2212070,49.1073340,198 6.2210300,49.1073240,198 6.2209750,49.1073310,198 6.2209370,49.1073230,198 6.2207980,49.1073290,198 6.2207150,49.1073140,198 6.2205620,49.1073150,198 6.2204950,49.1073070,198 6.2203690,49.1072890,198 6.2199320,49.1072800,197 6.2197600,49.1072670,197 6.2196340,49.1072640,196 6.2193810,49.1072350,196 6.2191940,49.1072230,196 6.2188380,49.1072190,196 6.2185510,49.1071970,196 6.2182700,49.1071790,195 6.2179960,49.1071770,194 6.2176650,49.1070710,194 6.2176180,49.1070660,194 6.2168980,49.1070220,193 6.2167890,49.1070330,193 6.2167150,49.1070600,193 6.2166680,49.1070920,192 6.2166230,49.1071360,192 6.2166000,49.1072660,191 6.2166020,49.1073700,191 6.2166140,49.1074600,191 6.2166280,49.1075870,190 6.2166210,49.1076300,190 6.2165820,49.1076790,190 6.2165540,49.1077310,189 6.2165530,49.1077640,189 6.2165860,49.1078130,189 6.2166690,49.1078870,190 6.2166880,49.1079370,190 6.2166840,49.1079900,190 6.2166500,49.1080490,190 6.2165570,49.1081690,189 6.2164660,49.1083170,189 6.2163410,49.1085870,190 6.2162680,49.1087130,190 6.2162600,49.1087540,190 6.2162830,49.1088280,190 6.2162800,49.1088710,190 6.2161770,49.1089970,189 6.2161590,49.1090570,189 6.2161980,49.1092300,189 6.2161770,49.1093010,189 6.2161350,49.1093680,189 6.2160900,49.1094070,189 6.2160460,49.1094280,188 6.2159510,49.1094790,188 6.2157740,49.1096320,188 6.2153540,49.1098840,188 6.2152860,49.1099360,188 6.2152180,49.1100100,188 6.2151000,49.1100980,188 6.2148110,49.1102720,188 6.2145570,49.1104050,188 6.2144290,49.1104950,188 6.2143260,49.1106120,188 6.2142910,49.1106630,188 6.2142700,49.1107460,188 6.2142670,49.1108040,189 6.2142780,49.1108740,190 6.2142760,49.1109780,190 6.2142280,49.1110750,190 6.2141730,49.1111510,190 6.2141270,49.1111810,190 6.2139740,49.1112290,189 6.2138670,49.1112370,188 6.2137070,49.1112350,187 6.2136480,49.1112500,186 6.2134630,49.1113300,188 6.2133410,49.1113500,188 6.2132390,49.1113480,187 6.2130430,49.1113260,186 6.2129450,49.1113210,186 6.2128980,49.1113330,186 6.2128630,49.1113530,186 6.2128370,49.1113640,186 6.2128120,49.1113980,186 6.2125900,49.1113220,186 6.2123370,49.1112250,186 6.2122620,49.1112810,185 6.2122100,49.1113230,185 6.2120770,49.1113650,184 6.2119810,49.1113830,184 6.2114200,49.1114730,184 6.2111360,49.1115240,184 6.2107420,49.1116050,183 6.2104500,49.1116890,183 6.2103060,49.1117540,184 6.2102360,49.1118070,184 6.2101950,49.1118640,184 6.2101990,49.1119230,184 6.2101880,49.1119570,184 6.2101570,49.1119880,184 6.2093940,49.1124660,182 6.2083810,49.1132080,181 6.2079050,49.1135340,181 6.2077760,49.1135890,181 6.2075360,49.1136750,180 6.2072530,49.1137670,180 6.2071840,49.1137970,180 6.2069510,49.1139390,180 6.2066270,49.1141560,179 6.2061240,49.1144140,179 6.2056270,49.1146910,179 6.2053160,49.1148420,179 6.2051420,49.1149010,180 6.2049790,49.1149420,180 6.2049100,49.1149770,180 6.2048720,49.1150260,180 6.2048170,49.1150210,180 6.2047580,49.1150010,181 6.2047130,49.1149770,181 6.2046600,49.1149370,181 6.2045770,49.1149140,182 6.2044930,49.1149180,182 6.2044040,49.1149440,182 6.2042900,49.1149310,183 6.2041720,49.1148920,183 6.2041320,49.1148940,183 6.2041080,49.1148960,183 6.2040700,49.1148540,184 6.2039690,49.1148890,183 6.2039160,49.1149070,183 6.2038860,49.1148670,183 6.2038370,49.1148840,183 6.2037190,49.1149240,183 6.2034670,49.1149300,183 6.2011380,49.1145420,184 6.2009620,49.1145150,184 6.1994520,49.1142940,184 6.1993360,49.1142760,184 6.1993250,49.1142740,184 6.1990880,49.1142360,184 6.1986620,49.1141740,183 6.1985970,49.1141650,183 6.1983810,49.1141340,183 6.1982600,49.1141190,182 6.1981210,49.1141180,182 6.1976170,49.1141080,182 6.1974760,49.1141000,181 6.1969400,49.1140480,180 6.1968190,49.1140390,180 6.1964320,49.1139980,180 6.1963840,49.1139960,180 6.1963380,49.1139940,180 6.1962410,49.1139900,180 6.1947790,49.1139770,178 6.1944390,49.1139880,178 6.1940120,49.1140010,178 6.1938280,49.1140230,178 6.1930250,49.1141090,178 6.1925640,49.1141570,178 6.1920010,49.1142150,178 6.1918330,49.1142280,178 6.1917290,49.1142130,178 6.1916160,49.1141820,179 6.1915220,49.1142950,178 6.1913790,49.1144130,177 6.1912330,49.1145260,177 6.1911510,49.1145620,178 6.1910470,49.1145900,177 6.1909460,49.1146050,177 6.1905050,49.1146290,177 6.1898650,49.1146690,175 6.1897630,49.1146600,175 6.1896470,49.1146240,175 6.1894610,49.1145450,175 6.1893370,49.1145050,175 6.1885620,49.1143560,173 6.1883300,49.1143160,172 6.1881520,49.1142900,173 6.1877680,49.1142910,172 6.1877360,49.1142840,172 6.1874970,49.1141540,172 6.1873780,49.1140880,172 6.1872260,49.1139870,173 6.1869630,49.1138120,171 6.1866980,49.1136350,171 6.1864460,49.1134680,171 6.1863560,49.1134430,171 6.1862840,49.1134200,171 6.1862370,49.1134060,171 6.1860810,49.1133510,171 6.1858300,49.1132630,170 6.1857430,49.1132240,169 6.1857050,49.1131960,168 6.1853460,49.1129400,169 6.1853180,49.1129060,170 6.1853030,49.1128700,170 6.1853170,49.1127050,170 6.1852170,49.1126990,171 6.1851650,49.1126980,171 6.1851030,49.1126960,171 6.1850330,49.1127300,171 6.1849860,49.1127590,171 6.1849230,49.1127270,171 6.1848730,49.1127110,172 6.1847900,49.1127030,172 6.1847160,49.1127180,172 6.1846850,49.1127340,172 6.1843210,49.1130000,172 6.1842810,49.1130760,172 6.1842690,49.1131250,171 6.1840280,49.1132690,170 6.1839270,49.1133210,170 6.1838920,49.1133250,170 6.1838380,49.1132890,170 6.1837490,49.1132210,170 6.1837020,49.1131800,170 6.1835790,49.1132190,170 6.1835430,49.1132380,170 6.1834450,49.1132920,170 6.1833560,49.1133410,170 6.1833030,49.1133700,170 6.1832120,49.1134190,170 6.1831170,49.1133500,170 6.1830500,49.1133470,170 6.1829330,49.1133420,170 6.1829010,49.1133450,169 6.1828110,49.1134460,169 6.1827230,49.1135630,169 6.1826720,49.1136440,169 6.1824760,49.1139090,169 6.1821880,49.1142930,169 6.1820490,49.1144920,168 6.1819950,49.1145160,168 6.1820030,49.1145300,168 6.1820260,49.1145750,168 6.1819340,49.1145940,168 6.1818970,49.1146020,168 6.1818140,49.1146130,168 6.1813870,49.1145480,169 6.1812700,49.1145300,169 6.1812220,49.1145230,169 6.1811960,49.1145540,169 6.1811580,49.1146180,169 6.1811330,49.1146890,169 6.1810110,49.1150540,169 6.1809620,49.1151830,169 6.1809120,49.1152480,169 6.1808400,49.1152730,169 6.1807950,49.1152720,169 6.1801280,49.1151760,170 6.1800240,49.1151620,170 6.1799290,49.1151380,170 6.1796650,49.1151010,170 6.1792870,49.1150440,170 6.1791810,49.1150290,170 6.1791060,49.1150170,170 6.1790670,49.1151530,170 6.1790270,49.1152440,171 6.1789690,49.1152370,171 6.1789320,49.1153480,171 6.1788590,49.1153520,171 6.1786040,49.1153680,171 6.1785200,49.1153910,172 6.1785410,49.1155690,172 6.1785220,49.1155990,172 6.1784910,49.1156250,172 6.1781300,49.1156960,174 6.1778990,49.1157770,174 6.1776380,49.1158940,174 6.1774070,49.1160140,174 6.1772820,49.1158090,174 6.1770330,49.1155220,175 6.1768670,49.1153870,174</coordinates></LineString></Placemark>
</Document></kml>