<?xml version="1.0" encoding="UTF-8"?>
<kml xmlns="http://www.opengis.net/kml/2.2"><Document>
  <name>Le Technopole et la Cheneau</name><description>6.1 km. D+ 37 m. 24 % de chemins. La plus longue des dix, et de loin la moins bitumee : le parc de la Seille, les allees du Technopole autour du plan d'eau Symphonie, et le parc de la Cheneau. On ne repasse nulle part.</description>
  <Style id="depart"><IconStyle><scale>1.2</scale><Icon><href>http://maps.google.com/mapfiles/kml/paddle/grn-circle.png</href></Icon></IconStyle></Style>
  <Style id="etape"><IconStyle><Icon><href>http://maps.google.com/mapfiles/kml/paddle/wht-blank.png</href></Icon></IconStyle></Style>
    <Placemark><name>Depart : Rue des Parmentiers, Metz</name><description>Depart des deux boucles vers Borny, dans la Nouvelle Ville. A dix minutes a pied de la gare, dont il partage les commodites.</description><styleUrl>#depart</styleUrl><Point><coordinates>6.1768700,49.1153870,0</coordinates></Point></Placemark>
    <Placemark><name>1. Parc de la Cheneau, entree ouest</name><description>L'entree du parc du cote de Grigy, par les allees en terre.</description><styleUrl>#etape</styleUrl><Point><coordinates>6.2040000,49.1130000,0</coordinates></Point></Placemark>
    <Placemark><name>2. Technopole, square Simon-Louis Freres</name><description>Allees plantees du Technopole, autour du plan d'eau Symphonie.</description><styleUrl>#etape</styleUrl><Point><coordinates>6.2021930,49.1114980,0</coordinates></Point></Placemark>
    <Placemark><name>3. Parc de la Seille</name><description>Prairies humides et roselieres au bord de la Seille. Herons.</description><styleUrl>#etape</styleUrl><Point><coordinates>6.1849680,49.1066100,0</coordinates></Point></Placemark>
    <Style id="t1"><LineStyle><color>ffA34F6B</color><width>4</width></LineStyle></Style>
    <Placemark><name>Le Technopole et la Cheneau</name><description>6.1 km. D+ 37 m. 24 % de chemins. La plus longue des dix, et de loin la moins bitumee : le parc de la Seille, les allees du Technopole autour du plan d'eau Symphonie, et le parc de la Cheneau. On ne repasse nulle part.</description><styleUrl>#t1</styleUrl><LineString><tessellate>1</tessellate><coordinates>6.1768670,49.1153870,174 6.1770330,49.1155220,175 6.1772820,49.1158090,174 6.1774070,49.1160140,174 6.1776380,49.1158940,174 6.1778990,49.1157770,174 6.1781300,49.1156960,174 6.1784910,49.1156250,172 6.1785220,49.1155990,172 6.1785410,49.1155690,172 6.1785200,49.1153910,172 6.1786040,49.1153680,171 6.1788590,49.1153520,171 6.1789320,49.1153480,171 6.1789690,49.1152370,171 6.1790270,49.1152440,171 6.1790670,49.1151530,170 6.1791060,49.1150170,170 6.1791810,49.1150290,170 6.1792870,49.1150440,170 6.1796650,49.1151010,170 6.1799290,49.1151380,170 6.1800240,49.1151620,170 6.1801280,49.1151760,170 6.1807950,49.1152720,169 6.1808400,49.1152730,169 6.1809120,49.1152480,169 6.1809620,49.1151830,169 6.1810110,49.1150540,169 6.1811330,49.1146890,169 6.1811580,49.1146180,169 6.1811960,49.1145540,169 6.1812220,49.1145230,169 6.1812700,49.1145300,169 6.1813870,49.1145480,169 6.1818140,49.1146130,168 6.1818970,49.1146020,168 6.1819340,49.1145940,168 6.1820260,49.1145750,168 6.1820030,49.1145300,168 6.1819950,49.1145160,168 6.1820490,49.1144920,168 6.1821880,49.1142930,169 6.1824760,49.1139090,169 6.1826720,49.1136440,169 6.1827230,49.1135630,169 6.1828110,49.1134460,169 6.1829010,49.1133450,169 6.1829330,49.1133420,170 6.1830500,49.1133470,170 6.1831170,49.1133500,170 6.1832120,49.1134190,170 6.1833030,49.1133700,170 6.1833560,49.1133410,170 6.1834450,49.1132920,170 6.1835430,49.1132380,170 6.1835790,49.1132190,170 6.1837020,49.1131800,170 6.1837490,49.1132210,170 6.1838380,49.1132890,170 6.1838920,49.1133250,170 6.1839270,49.1133210,170 6.1840280,49.1132690,170 6.1842690,49.1131250,171 6.1842810,49.1130760,172 6.1843210,49.1130000,172 6.1846850,49.1127340,172 6.1847160,49.1127180,172 6.1847900,49.1127030,172 6.1848730,49.1127110,172 6.1849230,49.1127270,171 6.1849860,49.1127590,171 6.1850330,49.1127300,171 6.1851030,49.1126960,171 6.1851650,49.1126980,171 6.1852170,49.1126990,171 6.1853170,49.1127050,170 6.1853030,49.1128700,170 6.1853180,49.1129060,170 6.1853460,49.1129400,169 6.1857050,49.1131960,168 6.1857430,49.1132240,169 6.1858300,49.1132630,170 6.1860810,49.1133510,171 6.1862370,49.1134060,171 6.1862840,49.1134200,171 6.1863560,49.1134430,171 6.1864460,49.1134680,171 6.1866980,49.1136350,171 6.1869630,49.1138120,171 6.1872260,49.1139870,173 6.1873780,49.1140880,172 6.1874970,49.1141540,172 6.1877360,49.1142840,172 6.1877680,49.1142910,172 6.1881520,49.1142900,173 6.1883300,49.1143160,172 6.1885620,49.1143560,173 6.1893370,49.1145050,175 6.1894610,49.1145450,175 6.1896470,49.1146240,175 6.1897630,49.1146600,175 6.1898650,49.1146690,175 6.1905050,49.1146290,177 6.1909460,49.1146050,177 6.1910470,49.1145900,177 6.1911510,49.1145620,178 6.1912330,49.1145260,177 6.1913790,49.1144130,177 6.1915220,49.1142950,178 6.1916160,49.1141820,179 6.1917290,49.1142130,178 6.1918330,49.1142280,178 6.1920010,49.1142150,178 6.1925640,49.1141570,178 6.1930250,49.1141090,178 6.1938280,49.1140230,178 6.1940120,49.1140010,178 6.1944390,49.1139880,178 6.1947790,49.1139770,178 6.1962410,49.1139900,180 6.1963380,49.1139940,180 6.1963840,49.1139960,180 6.1964320,49.1139980,180 6.1968190,49.1140390,180 6.1969400,49.1140480,180 6.1974760,49.1141000,181 6.1976170,49.1141080,182 6.1981210,49.1141180,182 6.1982600,49.1141190,182 6.1983810,49.1141340,183 6.1985970,49.1141650,183 6.1986620,49.1141740,183 6.1990880,49.1142360,184 6.1993250,49.1142740,184 6.1993360,49.1142760,184 6.1994520,49.1142940,184 6.2009620,49.1145150,184 6.2010160,49.1144700,184 6.2013700,49.1142690,184 6.2016050,49.1141020,184 6.2017500,49.1139990,184 6.2019120,49.1138640,184 6.2021230,49.1136690,184 6.2021470,49.1136350,184 6.2021590,49.1136120,184 6.2021690,49.1135950,184 6.2023170,49.1136240,184 6.2024460,49.1136560,185 6.2024890,49.1135530,185 6.2025730,49.1135690,185 6.2026100,49.1134960,185 6.2026790,49.1134330,185 6.2027550,49.1133870,186 6.2027720,49.1133520,186 6.2028800,49.1133520,186 6.2029890,49.1133670,186 6.2031320,49.1131700,186 6.2033280,49.1132270,187 6.2034790,49.1131950,187 6.2036100,49.1132370,187 6.2036990,49.1131130,187 6.2037250,49.1130770,187 6.2037420,49.1130530,187 6.2039120,49.1131100,188 6.2037420,49.1130530,187 6.2035510,49.1129960,187 6.2030380,49.1128420,187 6.2029580,49.1128170,187 6.2029030,49.1128010,187 6.2029520,49.1127420,187 6.2030940,49.1125670,188 6.2030070,49.1125210,188 6.2024130,49.1122970,190 6.2021540,49.1122010,191 6.2021920,49.1121580,191 6.2021050,49.1121220,192 6.2020120,49.1120930,192 6.2021360,49.1119850,192 6.2022160,49.1119680,192 6.2023050,49.1119150,192 6.2023300,49.1118720,192 6.2023410,49.1118170,192 6.2023200,49.1117800,192 6.2022370,49.1117440,192 6.2022190,49.1117020,193 6.2022220,49.1115620,193 6.2022410,49.1115050,194 6.2022630,49.1114450,194 6.2022600,49.1114060,194 6.2022400,49.1113470,194 6.2022050,49.1113070,194 6.2022550,49.1112600,194 6.2022800,49.1112060,194 6.2022610,49.1111400,195 6.2021630,49.1109250,196 6.2022100,49.1108680,197 6.2021460,49.1108450,197 6.2020070,49.1108570,197 6.2019020,49.1108650,197 6.2018420,49.1108460,197 6.2017820,49.1108270,197 6.2017190,49.1108070,197 6.2016870,49.1107970,197 6.2015010,49.1107380,198 6.2013010,49.1106750,198 6.2005460,49.1104390,200 6.2004850,49.1104230,200 6.2002060,49.1103460,201 6.1998650,49.1102300,202 6.1996090,49.1101320,202 6.1995100,49.1100890,202 6.1994310,49.1100550,203 6.1992250,49.1099650,203 6.1969120,49.1089580,207 6.1967850,49.1088900,207 6.1966690,49.1088370,207 6.1962500,49.1086800,206 6.1961970,49.1086600,206 6.1959880,49.1085820,206 6.1951030,49.1082510,204 6.1949970,49.1082120,204 6.1949140,49.1081780,204 6.1943160,49.1079200,203 6.1941300,49.1078580,202 6.1940690,49.1078410,202 6.1940000,49.1078310,201 6.1938920,49.1078120,200 6.1937950,49.1077860,198 6.1935600,49.1076910,198 6.1935400,49.1076810,198 6.1935060,49.1076630,199 6.1932020,49.1074820,202 6.1925860,49.1071150,199 6.1925360,49.1070850,199 6.1924730,49.1070480,199 6.1922910,49.1069400,198 6.1922660,49.1069270,198 6.1920200,49.1068040,198 6.1918820,49.1067560,198 6.1917450,49.1067190,198 6.1916690,49.1066980,197 6.1915940,49.1067700,197 6.1913920,49.1069250,196 6.1912780,49.1068710,196 6.1911080,49.1068030,196 6.1909670,49.1067890,196 6.1907100,49.1068020,194 6.1906170,49.1068070,194 6.1905040,49.1060450,190 6.1904890,49.1059420,190 6.1904710,49.1058250,190 6.1904640,49.1057780,190 6.1902460,49.1057980,189 6.1900440,49.1057920,186 6.1897140,49.1057670,184 6.1896140,49.1057750,183 6.1895080,49.1057930,182 6.1893830,49.1058150,180 6.1892320,49.1058170,180 6.1890500,49.1058590,178 6.1889190,49.1059060,177 6.1885690,49.1059730,174 6.1885280,49.1059800,174 6.1876220,49.1061700,169 6.1875620,49.1061820,169 6.1875290,49.1061890,169 6.1874760,49.1061990,169 6.1874620,49.1061530,169 6.1874490,49.1060910,169 6.1874010,49.1060970,168 6.1873730,49.1061000,168 6.1873180,49.1061070,168 6.1870000,49.1061450,168 6.1866520,49.1061880,168 6.1864140,49.1062100,168 6.1863460,49.1062100,168 6.1863420,49.1062490,167 6.1863250,49.1062780,167 6.1861450,49.1073240,168 6.1861190,49.1073520,168 6.1861100,49.1074060,168 6.1860800,49.1075910,168 6.1852320,49.1075280,169 6.1852240,49.1070160,168 6.1852140,49.1069500,168 6.1851400,49.1067400,169 6.1850780,49.1066320,169 6.1849620,49.1066240,170 6.1849640,49.1066090,169 6.1849620,49.1066240,170 6.1847110,49.1066060,170 6.1839010,49.1074370,170 6.1838590,49.1074340,170 6.1836340,49.1074180,170 6.1836170,49.1075120,170 6.1834120,49.1075020,170 6.1833290,49.1074970,170 6.1832440,49.1074910,170 6.1832290,49.1075150,170 6.1831850,49.1075310,170 6.1830140,49.1075180,171 6.1830050,49.1075710,172 6.1829990,49.1076110,172 6.1829890,49.1077060,172 6.1829870,49.1077260,173 6.1825490,49.1076960,171 6.1812390,49.1076120,171 6.1811800,49.1076210,171 6.1811230,49.1076290,171 6.1810350,49.1076610,171 6.1809750,49.1077000,171 6.1809290,49.1077440,171 6.1807420,49.1080150,171 6.1806420,49.1081610,171 6.1803450,49.1086530,172 6.1802700,49.1086080,172 6.1802210,49.1087830,172 6.1801550,49.1088080,172 6.1801180,49.1088420,172 6.1800570,49.1089470,172 6.1801370,49.1089690,172 6.1801890,49.1089850,173 6.1801350,49.1090570,173 6.1798980,49.1094690,173 6.1790850,49.1108380,172 6.1790420,49.1109020,172 6.1790250,49.1109300,172 6.1791430,49.1109830,172 6.1790440,49.1110830,172 6.1790080,49.1111160,172 6.1789390,49.1111550,172 6.1789100,49.1112790,172 6.1788200,49.1115270,172 6.1788020,49.1115870,172 6.1787750,49.1116760,172 6.1787570,49.1117320,172 6.1787390,49.1117920,172 6.1787140,49.1118060,172 6.1786900,49.1118380,172 6.1786240,49.1118290,172 6.1785990,49.1118250,172 6.1785410,49.1118160,172 6.1784030,49.1122030,172 6.1784020,49.1122710,172 6.1784370,49.1123030,172 6.1784750,49.1123560,172 6.1784690,49.1125250,171 6.1784690,49.1125350,171 6.1784850,49.1126330,171 6.1784890,49.1126550,171 6.1784930,49.1126750,171 6.1785190,49.1127060,171 6.1785030,49.1128520,171 6.1784810,49.1129500,171 6.1784310,49.1132230,171 6.1784080,49.1133240,171 6.1783750,49.1133740,171 6.1783200,49.1134780,171 6.1782470,49.1135520,171 6.1782480,49.1136600,171 6.1782300,49.1138140,171 6.1782120,49.1138680,171 6.1781770,49.1139240,171 6.1781230,49.1139770,171 6.1780930,49.1140020,171 6.1780590,49.1140180,171 6.1773110,49.1142490,172 6.1771560,49.1143000,173 6.1770090,49.1143590,174 6.1766400,49.1145180,174 6.1763650,49.1146430,174 6.1759210,49.1147900,174 6.1761630,49.1149200,174 6.1761790,49.1149300,174 6.1763740,49.1150400,174 6.1766270,49.1151930,174 6.1768670,49.1153870,175</coordinates></LineString></Placemark>
</Document></kml>