<?xml version="1.0" encoding="UTF-8"?>
<gpx version="1.1" creator="olifant"
     xmlns="http://www.topografix.com/GPX/1/1"
     xmlns:xsi="http://www.w3.org/2001/XMLSchema-instance"
     xsi:schemaLocation="http://www.topografix.com/GPX/1/1 http://www.topografix.com/GPX/1/1/gpx.xsd">
  <metadata><name>Le Technopole et la Cheneau</name><desc>6.1 km. D+ 37 m. 24 % de chemins. La plus longue des dix, et de loin la moins bitumee : le parc de la Seille, les allees du Technopole autour du plan d'eau Symphonie, et le parc de la Cheneau. On ne repasse nulle part.</desc></metadata>
  <wpt lat="49.1153870" lon="6.1768700"><name>Rue des Parmentiers, Metz</name><desc>Depart des deux boucles vers Borny, dans la Nouvelle Ville. A dix minutes a pied de la gare, dont il partage les commodites.</desc></wpt>
  <wpt lat="49.1130000" lon="6.2040000"><name>Parc de la Cheneau, entree ouest</name><desc>L'entree du parc du cote de Grigy, par les allees en terre.</desc></wpt>
  <wpt lat="49.1114980" lon="6.2021930"><name>Technopole, square Simon-Louis Freres</name><desc>Allees plantees du Technopole, autour du plan d'eau Symphonie.</desc></wpt>
  <wpt lat="49.1066100" lon="6.1849680"><name>Parc de la Seille</name><desc>Prairies humides et roselieres au bord de la Seille. Herons.</desc></wpt>
  <trk><name>Le Technopole et la Cheneau</name><trkseg>
    <trkpt lat="49.1153870" lon="6.1768670"><ele>174.5</ele></trkpt>
    <trkpt lat="49.1155220" lon="6.1770330"><ele>175.0</ele></trkpt>
    <trkpt lat="49.1158090" lon="6.1772820"><ele>174.0</ele></trkpt>
    <trkpt lat="49.1160140" lon="6.1774070"><ele>174.0</ele></trkpt>
    <trkpt lat="49.1158940" lon="6.1776380"><ele>174.0</ele></trkpt>
    <trkpt lat="49.1157770" lon="6.1778990"><ele>174.0</ele></trkpt>
    <trkpt lat="49.1156960" lon="6.1781300"><ele>173.5</ele></trkpt>
    <trkpt lat="49.1156250" lon="6.1784910"><ele>172.2</ele></trkpt>
    <trkpt lat="49.1155990" lon="6.1785220"><ele>172.0</ele></trkpt>
    <trkpt lat="49.1155690" lon="6.1785410"><ele>172.0</ele></trkpt>
    <trkpt lat="49.1153910" lon="6.1785200"><ele>171.5</ele></trkpt>
    <trkpt lat="49.1153680" lon="6.1786040"><ele>171.2</ele></trkpt>
    <trkpt lat="49.1153520" lon="6.1788590"><ele>171.0</ele></trkpt>
    <trkpt lat="49.1153480" lon="6.1789320"><ele>171.0</ele></trkpt>
    <trkpt lat="49.1152370" lon="6.1789690"><ele>170.8</ele></trkpt>
    <trkpt lat="49.1152440" lon="6.1790270"><ele>170.8</ele></trkpt>
    <trkpt lat="49.1151530" lon="6.1790670"><ele>170.5</ele></trkpt>
    <trkpt lat="49.1150170" lon="6.1791060"><ele>170.2</ele></trkpt>
    <trkpt lat="49.1150290" lon="6.1791810"><ele>170.0</ele></trkpt>
    <trkpt lat="49.1150440" lon="6.1792870"><ele>170.0</ele></trkpt>
    <trkpt lat="49.1151010" lon="6.1796650"><ele>170.0</ele></trkpt>
    <trkpt lat="49.1151380" lon="6.1799290"><ele>170.0</ele></trkpt>
    <trkpt lat="49.1151620" lon="6.1800240"><ele>170.0</ele></trkpt>
    <trkpt lat="49.1151760" lon="6.1801280"><ele>170.0</ele></trkpt>
    <trkpt lat="49.1152720" lon="6.1807950"><ele>169.0</ele></trkpt>
    <trkpt lat="49.1152730" lon="6.1808400"><ele>169.0</ele></trkpt>
    <trkpt lat="49.1152480" lon="6.1809120"><ele>169.0</ele></trkpt>
    <trkpt lat="49.1151830" lon="6.1809620"><ele>169.0</ele></trkpt>
    <trkpt lat="49.1150540" lon="6.1810110"><ele>169.2</ele></trkpt>
    <trkpt lat="49.1146890" lon="6.1811330"><ele>169.0</ele></trkpt>
    <trkpt lat="49.1146180" lon="6.1811580"><ele>169.0</ele></trkpt>
    <trkpt lat="49.1145540" lon="6.1811960"><ele>169.0</ele></trkpt>
    <trkpt lat="49.1145230" lon="6.1812220"><ele>169.0</ele></trkpt>
    <trkpt lat="49.1145300" lon="6.1812700"><ele>169.0</ele></trkpt>
    <trkpt lat="49.1145480" lon="6.1813870"><ele>169.0</ele></trkpt>
    <trkpt lat="49.1146130" lon="6.1818140"><ele>168.5</ele></trkpt>
    <trkpt lat="49.1146020" lon="6.1818970"><ele>168.5</ele></trkpt>
    <trkpt lat="49.1145940" lon="6.1819340"><ele>168.5</ele></trkpt>
    <trkpt lat="49.1145750" lon="6.1820260"><ele>168.5</ele></trkpt>
    <trkpt lat="49.1145300" lon="6.1820030"><ele>168.2</ele></trkpt>
    <trkpt lat="49.1145160" lon="6.1819950"><ele>168.2</ele></trkpt>
    <trkpt lat="49.1144920" lon="6.1820490"><ele>168.2</ele></trkpt>
    <trkpt lat="49.1142930" lon="6.1821880"><ele>168.8</ele></trkpt>
    <trkpt lat="49.1139090" lon="6.1824760"><ele>169.0</ele></trkpt>
    <trkpt lat="49.1136440" lon="6.1826720"><ele>169.0</ele></trkpt>
    <trkpt lat="49.1135630" lon="6.1827230"><ele>169.0</ele></trkpt>
    <trkpt lat="49.1134460" lon="6.1828110"><ele>169.0</ele></trkpt>
    <trkpt lat="49.1133450" lon="6.1829010"><ele>169.2</ele></trkpt>
    <trkpt lat="49.1133420" lon="6.1829330"><ele>169.5</ele></trkpt>
    <trkpt lat="49.1133470" lon="6.1830500"><ele>169.8</ele></trkpt>
    <trkpt lat="49.1133500" lon="6.1831170"><ele>169.8</ele></trkpt>
    <trkpt lat="49.1134190" lon="6.1832120"><ele>169.8</ele></trkpt>
    <trkpt lat="49.1133700" lon="6.1833030"><ele>169.8</ele></trkpt>
    <trkpt lat="49.1133410" lon="6.1833560"><ele>170.0</ele></trkpt>
    <trkpt lat="49.1132920" lon="6.1834450"><ele>170.0</ele></trkpt>
    <trkpt lat="49.1132380" lon="6.1835430"><ele>170.5</ele></trkpt>
    <trkpt lat="49.1132190" lon="6.1835790"><ele>170.5</ele></trkpt>
    <trkpt lat="49.1131800" lon="6.1837020"><ele>170.5</ele></trkpt>
    <trkpt lat="49.1132210" lon="6.1837490"><ele>170.2</ele></trkpt>
    <trkpt lat="49.1132890" lon="6.1838380"><ele>170.0</ele></trkpt>
    <trkpt lat="49.1133250" lon="6.1838920"><ele>170.0</ele></trkpt>
    <trkpt lat="49.1133210" lon="6.1839270"><ele>170.0</ele></trkpt>
    <trkpt lat="49.1132690" lon="6.1840280"><ele>170.2</ele></trkpt>
    <trkpt lat="49.1131250" lon="6.1842690"><ele>171.2</ele></trkpt>
    <trkpt lat="49.1130760" lon="6.1842810"><ele>171.8</ele></trkpt>
    <trkpt lat="49.1130000" lon="6.1843210"><ele>172.5</ele></trkpt>
    <trkpt lat="49.1127340" lon="6.1846850"><ele>172.2</ele></trkpt>
    <trkpt lat="49.1127180" lon="6.1847160"><ele>172.5</ele></trkpt>
    <trkpt lat="49.1127030" lon="6.1847900"><ele>172.0</ele></trkpt>
    <trkpt lat="49.1127110" lon="6.1848730"><ele>171.5</ele></trkpt>
    <trkpt lat="49.1127270" lon="6.1849230"><ele>171.2</ele></trkpt>
    <trkpt lat="49.1127590" lon="6.1849860"><ele>171.0</ele></trkpt>
    <trkpt lat="49.1127300" lon="6.1850330"><ele>171.0</ele></trkpt>
    <trkpt lat="49.1126960" lon="6.1851030"><ele>171.0</ele></trkpt>
    <trkpt lat="49.1126980" lon="6.1851650"><ele>171.0</ele></trkpt>
    <trkpt lat="49.1126990" lon="6.1852170"><ele>171.0</ele></trkpt>
    <trkpt lat="49.1127050" lon="6.1853170"><ele>170.0</ele></trkpt>
    <trkpt lat="49.1128700" lon="6.1853030"><ele>170.0</ele></trkpt>
    <trkpt lat="49.1129060" lon="6.1853180"><ele>169.5</ele></trkpt>
    <trkpt lat="49.1129400" lon="6.1853460"><ele>168.8</ele></trkpt>
    <trkpt lat="49.1131960" lon="6.1857050"><ele>168.0</ele></trkpt>
    <trkpt lat="49.1132240" lon="6.1857430"><ele>169.0</ele></trkpt>
    <trkpt lat="49.1132630" lon="6.1858300"><ele>170.5</ele></trkpt>
    <trkpt lat="49.1133510" lon="6.1860810"><ele>171.0</ele></trkpt>
    <trkpt lat="49.1134060" lon="6.1862370"><ele>171.0</ele></trkpt>
    <trkpt lat="49.1134200" lon="6.1862840"><ele>171.0</ele></trkpt>
    <trkpt lat="49.1134430" lon="6.1863560"><ele>171.0</ele></trkpt>
    <trkpt lat="49.1134680" lon="6.1864460"><ele>170.8</ele></trkpt>
    <trkpt lat="49.1136350" lon="6.1866980"><ele>171.0</ele></trkpt>
    <trkpt lat="49.1138120" lon="6.1869630"><ele>171.0</ele></trkpt>
    <trkpt lat="49.1139870" lon="6.1872260"><ele>173.2</ele></trkpt>
    <trkpt lat="49.1140880" lon="6.1873780"><ele>172.5</ele></trkpt>
    <trkpt lat="49.1141540" lon="6.1874970"><ele>172.0</ele></trkpt>
    <trkpt lat="49.1142840" lon="6.1877360"><ele>172.2</ele></trkpt>
    <trkpt lat="49.1142910" lon="6.1877680"><ele>172.5</ele></trkpt>
    <trkpt lat="49.1142900" lon="6.1881520"><ele>172.8</ele></trkpt>
    <trkpt lat="49.1143160" lon="6.1883300"><ele>172.2</ele></trkpt>
    <trkpt lat="49.1143560" lon="6.1885620"><ele>172.8</ele></trkpt>
    <trkpt lat="49.1145050" lon="6.1893370"><ele>174.8</ele></trkpt>
    <trkpt lat="49.1145450" lon="6.1894610"><ele>175.2</ele></trkpt>
    <trkpt lat="49.1146240" lon="6.1896470"><ele>175.2</ele></trkpt>
    <trkpt lat="49.1146600" lon="6.1897630"><ele>175.2</ele></trkpt>
    <trkpt lat="49.1146690" lon="6.1898650"><ele>175.2</ele></trkpt>
    <trkpt lat="49.1146290" lon="6.1905050"><ele>176.8</ele></trkpt>
    <trkpt lat="49.1146050" lon="6.1909460"><ele>177.2</ele></trkpt>
    <trkpt lat="49.1145900" lon="6.1910470"><ele>177.2</ele></trkpt>
    <trkpt lat="49.1145620" lon="6.1911510"><ele>177.5</ele></trkpt>
    <trkpt lat="49.1145260" lon="6.1912330"><ele>177.2</ele></trkpt>
    <trkpt lat="49.1144130" lon="6.1913790"><ele>177.2</ele></trkpt>
    <trkpt lat="49.1142950" lon="6.1915220"><ele>178.2</ele></trkpt>
    <trkpt lat="49.1141820" lon="6.1916160"><ele>179.0</ele></trkpt>
    <trkpt lat="49.1142130" lon="6.1917290"><ele>178.5</ele></trkpt>
    <trkpt lat="49.1142280" lon="6.1918330"><ele>178.2</ele></trkpt>
    <trkpt lat="49.1142150" lon="6.1920010"><ele>178.0</ele></trkpt>
    <trkpt lat="49.1141570" lon="6.1925640"><ele>177.8</ele></trkpt>
    <trkpt lat="49.1141090" lon="6.1930250"><ele>177.5</ele></trkpt>
    <trkpt lat="49.1140230" lon="6.1938280"><ele>178.0</ele></trkpt>
    <trkpt lat="49.1140010" lon="6.1940120"><ele>178.2</ele></trkpt>
    <trkpt lat="49.1139880" lon="6.1944390"><ele>178.5</ele></trkpt>
    <trkpt lat="49.1139770" lon="6.1947790"><ele>178.0</ele></trkpt>
    <trkpt lat="49.1139900" lon="6.1962410"><ele>179.8</ele></trkpt>
    <trkpt lat="49.1139940" lon="6.1963380"><ele>180.0</ele></trkpt>
    <trkpt lat="49.1139960" lon="6.1963840"><ele>180.0</ele></trkpt>
    <trkpt lat="49.1139980" lon="6.1964320"><ele>180.0</ele></trkpt>
    <trkpt lat="49.1140390" lon="6.1968190"><ele>180.0</ele></trkpt>
    <trkpt lat="49.1140480" lon="6.1969400"><ele>180.2</ele></trkpt>
    <trkpt lat="49.1141000" lon="6.1974760"><ele>181.0</ele></trkpt>
    <trkpt lat="49.1141080" lon="6.1976170"><ele>181.5</ele></trkpt>
    <trkpt lat="49.1141180" lon="6.1981210"><ele>182.0</ele></trkpt>
    <trkpt lat="49.1141190" lon="6.1982600"><ele>182.5</ele></trkpt>
    <trkpt lat="49.1141340" lon="6.1983810"><ele>183.0</ele></trkpt>
    <trkpt lat="49.1141650" lon="6.1985970"><ele>183.0</ele></trkpt>
    <trkpt lat="49.1141740" lon="6.1986620"><ele>183.0</ele></trkpt>
    <trkpt lat="49.1142360" lon="6.1990880"><ele>183.8</ele></trkpt>
    <trkpt lat="49.1142740" lon="6.1993250"><ele>183.8</ele></trkpt>
    <trkpt lat="49.1142760" lon="6.1993360"><ele>183.8</ele></trkpt>
    <trkpt lat="49.1142940" lon="6.1994520"><ele>184.0</ele></trkpt>
    <trkpt lat="49.1145150" lon="6.2009620"><ele>183.8</ele></trkpt>
    <trkpt lat="49.1144700" lon="6.2010160"><ele>183.8</ele></trkpt>
    <trkpt lat="49.1142690" lon="6.2013700"><ele>184.0</ele></trkpt>
    <trkpt lat="49.1141020" lon="6.2016050"><ele>183.8</ele></trkpt>
    <trkpt lat="49.1139990" lon="6.2017500"><ele>184.0</ele></trkpt>
    <trkpt lat="49.1138640" lon="6.2019120"><ele>183.8</ele></trkpt>
    <trkpt lat="49.1136690" lon="6.2021230"><ele>184.0</ele></trkpt>
    <trkpt lat="49.1136350" lon="6.2021470"><ele>184.0</ele></trkpt>
    <trkpt lat="49.1136120" lon="6.2021590"><ele>184.0</ele></trkpt>
    <trkpt lat="49.1135950" lon="6.2021690"><ele>184.0</ele></trkpt>
    <trkpt lat="49.1136240" lon="6.2023170"><ele>184.2</ele></trkpt>
    <trkpt lat="49.1136560" lon="6.2024460"><ele>184.8</ele></trkpt>
    <trkpt lat="49.1135530" lon="6.2024890"><ele>184.8</ele></trkpt>
    <trkpt lat="49.1135690" lon="6.2025730"><ele>185.0</ele></trkpt>
    <trkpt lat="49.1134960" lon="6.2026100"><ele>185.0</ele></trkpt>
    <trkpt lat="49.1134330" lon="6.2026790"><ele>185.2</ele></trkpt>
    <trkpt lat="49.1133870" lon="6.2027550"><ele>185.5</ele></trkpt>
    <trkpt lat="49.1133520" lon="6.2027720"><ele>185.8</ele></trkpt>
    <trkpt lat="49.1133520" lon="6.2028800"><ele>185.8</ele></trkpt>
    <trkpt lat="49.1133670" lon="6.2029890"><ele>185.8</ele></trkpt>
    <trkpt lat="49.1131700" lon="6.2031320"><ele>186.5</ele></trkpt>
    <trkpt lat="49.1132270" lon="6.2033280"><ele>186.8</ele></trkpt>
    <trkpt lat="49.1131950" lon="6.2034790"><ele>187.0</ele></trkpt>
    <trkpt lat="49.1132370" lon="6.2036100"><ele>187.0</ele></trkpt>
    <trkpt lat="49.1131130" lon="6.2036990"><ele>187.2</ele></trkpt>
    <trkpt lat="49.1130770" lon="6.2037250"><ele>187.2</ele></trkpt>
    <trkpt lat="49.1130530" lon="6.2037420"><ele>187.2</ele></trkpt>
    <trkpt lat="49.1131100" lon="6.2039120"><ele>187.5</ele></trkpt>
    <trkpt lat="49.1130530" lon="6.2037420"><ele>187.2</ele></trkpt>
    <trkpt lat="49.1129960" lon="6.2035510"><ele>187.0</ele></trkpt>
    <trkpt lat="49.1128420" lon="6.2030380"><ele>186.8</ele></trkpt>
    <trkpt lat="49.1128170" lon="6.2029580"><ele>186.8</ele></trkpt>
    <trkpt lat="49.1128010" lon="6.2029030"><ele>186.8</ele></trkpt>
    <trkpt lat="49.1127420" lon="6.2029520"><ele>187.0</ele></trkpt>
    <trkpt lat="49.1125670" lon="6.2030940"><ele>187.8</ele></trkpt>
    <trkpt lat="49.1125210" lon="6.2030070"><ele>188.0</ele></trkpt>
    <trkpt lat="49.1122970" lon="6.2024130"><ele>190.0</ele></trkpt>
    <trkpt lat="49.1122010" lon="6.2021540"><ele>191.0</ele></trkpt>
    <trkpt lat="49.1121580" lon="6.2021920"><ele>191.2</ele></trkpt>
    <trkpt lat="49.1121220" lon="6.2021050"><ele>191.5</ele></trkpt>
    <trkpt lat="49.1120930" lon="6.2020120"><ele>191.8</ele></trkpt>
    <trkpt lat="49.1119850" lon="6.2021360"><ele>192.0</ele></trkpt>
    <trkpt lat="49.1119680" lon="6.2022160"><ele>191.8</ele></trkpt>
    <trkpt lat="49.1119150" lon="6.2023050"><ele>192.0</ele></trkpt>
    <trkpt lat="49.1118720" lon="6.2023300"><ele>192.2</ele></trkpt>
    <trkpt lat="49.1118170" lon="6.2023410"><ele>192.2</ele></trkpt>
    <trkpt lat="49.1117800" lon="6.2023200"><ele>192.5</ele></trkpt>
    <trkpt lat="49.1117440" lon="6.2022370"><ele>192.5</ele></trkpt>
    <trkpt lat="49.1117020" lon="6.2022190"><ele>192.8</ele></trkpt>
    <trkpt lat="49.1115620" lon="6.2022220"><ele>193.2</ele></trkpt>
    <trkpt lat="49.1115050" lon="6.2022410"><ele>193.8</ele></trkpt>
    <trkpt lat="49.1114450" lon="6.2022630"><ele>193.8</ele></trkpt>
    <trkpt lat="49.1114060" lon="6.2022600"><ele>193.8</ele></trkpt>
    <trkpt lat="49.1113470" lon="6.2022400"><ele>194.0</ele></trkpt>
    <trkpt lat="49.1113070" lon="6.2022050"><ele>194.2</ele></trkpt>
    <trkpt lat="49.1112600" lon="6.2022550"><ele>194.2</ele></trkpt>
    <trkpt lat="49.1112060" lon="6.2022800"><ele>194.5</ele></trkpt>
    <trkpt lat="49.1111400" lon="6.2022610"><ele>194.8</ele></trkpt>
    <trkpt lat="49.1109250" lon="6.2021630"><ele>196.2</ele></trkpt>
    <trkpt lat="49.1108680" lon="6.2022100"><ele>196.8</ele></trkpt>
    <trkpt lat="49.1108450" lon="6.2021460"><ele>196.8</ele></trkpt>
    <trkpt lat="49.1108570" lon="6.2020070"><ele>196.8</ele></trkpt>
    <trkpt lat="49.1108650" lon="6.2019020"><ele>196.8</ele></trkpt>
    <trkpt lat="49.1108460" lon="6.2018420"><ele>196.8</ele></trkpt>
    <trkpt lat="49.1108270" lon="6.2017820"><ele>197.0</ele></trkpt>
    <trkpt lat="49.1108070" lon="6.2017190"><ele>197.0</ele></trkpt>
    <trkpt lat="49.1107970" lon="6.2016870"><ele>197.0</ele></trkpt>
    <trkpt lat="49.1107380" lon="6.2015010"><ele>197.8</ele></trkpt>
    <trkpt lat="49.1106750" lon="6.2013010"><ele>198.5</ele></trkpt>
    <trkpt lat="49.1104390" lon="6.2005460"><ele>200.2</ele></trkpt>
    <trkpt lat="49.1104230" lon="6.2004850"><ele>200.2</ele></trkpt>
    <trkpt lat="49.1103460" lon="6.2002060"><ele>200.8</ele></trkpt>
    <trkpt lat="49.1102300" lon="6.1998650"><ele>202.0</ele></trkpt>
    <trkpt lat="49.1101320" lon="6.1996090"><ele>202.5</ele></trkpt>
    <trkpt lat="49.1100890" lon="6.1995100"><ele>202.5</ele></trkpt>
    <trkpt lat="49.1100550" lon="6.1994310"><ele>202.8</ele></trkpt>
    <trkpt lat="49.1099650" lon="6.1992250"><ele>203.0</ele></trkpt>
    <trkpt lat="49.1089580" lon="6.1969120"><ele>206.8</ele></trkpt>
    <trkpt lat="49.1088900" lon="6.1967850"><ele>207.0</ele></trkpt>
    <trkpt lat="49.1088370" lon="6.1966690"><ele>207.0</ele></trkpt>
    <trkpt lat="49.1086800" lon="6.1962500"><ele>206.5</ele></trkpt>
    <trkpt lat="49.1086600" lon="6.1961970"><ele>206.2</ele></trkpt>
    <trkpt lat="49.1085820" lon="6.1959880"><ele>206.0</ele></trkpt>
    <trkpt lat="49.1082510" lon="6.1951030"><ele>204.2</ele></trkpt>
    <trkpt lat="49.1082120" lon="6.1949970"><ele>203.8</ele></trkpt>
    <trkpt lat="49.1081780" lon="6.1949140"><ele>203.8</ele></trkpt>
    <trkpt lat="49.1079200" lon="6.1943160"><ele>203.0</ele></trkpt>
    <trkpt lat="49.1078580" lon="6.1941300"><ele>202.2</ele></trkpt>
    <trkpt lat="49.1078410" lon="6.1940690"><ele>201.8</ele></trkpt>
    <trkpt lat="49.1078310" lon="6.1940000"><ele>201.0</ele></trkpt>
    <trkpt lat="49.1078120" lon="6.1938920"><ele>200.0</ele></trkpt>
    <trkpt lat="49.1077860" lon="6.1937950"><ele>198.5</ele></trkpt>
    <trkpt lat="49.1076910" lon="6.1935600"><ele>198.0</ele></trkpt>
    <trkpt lat="49.1076810" lon="6.1935400"><ele>198.2</ele></trkpt>
    <trkpt lat="49.1076630" lon="6.1935060"><ele>199.0</ele></trkpt>
    <trkpt lat="49.1074820" lon="6.1932020"><ele>201.5</ele></trkpt>
    <trkpt lat="49.1071150" lon="6.1925860"><ele>199.0</ele></trkpt>
    <trkpt lat="49.1070850" lon="6.1925360"><ele>199.0</ele></trkpt>
    <trkpt lat="49.1070480" lon="6.1924730"><ele>198.8</ele></trkpt>
    <trkpt lat="49.1069400" lon="6.1922910"><ele>198.2</ele></trkpt>
    <trkpt lat="49.1069270" lon="6.1922660"><ele>198.2</ele></trkpt>
    <trkpt lat="49.1068040" lon="6.1920200"><ele>198.5</ele></trkpt>
    <trkpt lat="49.1067560" lon="6.1918820"><ele>198.2</ele></trkpt>
    <trkpt lat="49.1067190" lon="6.1917450"><ele>197.5</ele></trkpt>
    <trkpt lat="49.1066980" lon="6.1916690"><ele>197.0</ele></trkpt>
    <trkpt lat="49.1067700" lon="6.1915940"><ele>197.0</ele></trkpt>
    <trkpt lat="49.1069250" lon="6.1913920"><ele>196.0</ele></trkpt>
    <trkpt lat="49.1068710" lon="6.1912780"><ele>196.0</ele></trkpt>
    <trkpt lat="49.1068030" lon="6.1911080"><ele>195.8</ele></trkpt>
    <trkpt lat="49.1067890" lon="6.1909670"><ele>195.5</ele></trkpt>
    <trkpt lat="49.1068020" lon="6.1907100"><ele>194.5</ele></trkpt>
    <trkpt lat="49.1068070" lon="6.1906170"><ele>193.8</ele></trkpt>
    <trkpt lat="49.1060450" lon="6.1905040"><ele>190.5</ele></trkpt>
    <trkpt lat="49.1059420" lon="6.1904890"><ele>190.5</ele></trkpt>
    <trkpt lat="49.1058250" lon="6.1904710"><ele>190.2</ele></trkpt>
    <trkpt lat="49.1057780" lon="6.1904640"><ele>190.2</ele></trkpt>
    <trkpt lat="49.1057980" lon="6.1902460"><ele>188.8</ele></trkpt>
    <trkpt lat="49.1057920" lon="6.1900440"><ele>186.5</ele></trkpt>
    <trkpt lat="49.1057670" lon="6.1897140"><ele>184.2</ele></trkpt>
    <trkpt lat="49.1057750" lon="6.1896140"><ele>183.2</ele></trkpt>
    <trkpt lat="49.1057930" lon="6.1895080"><ele>182.0</ele></trkpt>
    <trkpt lat="49.1058150" lon="6.1893830"><ele>180.5</ele></trkpt>
    <trkpt lat="49.1058170" lon="6.1892320"><ele>179.5</ele></trkpt>
    <trkpt lat="49.1058590" lon="6.1890500"><ele>178.0</ele></trkpt>
    <trkpt lat="49.1059060" lon="6.1889190"><ele>177.0</ele></trkpt>
    <trkpt lat="49.1059730" lon="6.1885690"><ele>174.0</ele></trkpt>
    <trkpt lat="49.1059800" lon="6.1885280"><ele>173.8</ele></trkpt>
    <trkpt lat="49.1061700" lon="6.1876220"><ele>169.2</ele></trkpt>
    <trkpt lat="49.1061820" lon="6.1875620"><ele>169.0</ele></trkpt>
    <trkpt lat="49.1061890" lon="6.1875290"><ele>169.0</ele></trkpt>
    <trkpt lat="49.1061990" lon="6.1874760"><ele>168.8</ele></trkpt>
    <trkpt lat="49.1061530" lon="6.1874620"><ele>168.8</ele></trkpt>
    <trkpt lat="49.1060910" lon="6.1874490"><ele>168.8</ele></trkpt>
    <trkpt lat="49.1060970" lon="6.1874010"><ele>168.5</ele></trkpt>
    <trkpt lat="49.1061000" lon="6.1873730"><ele>168.5</ele></trkpt>
    <trkpt lat="49.1061070" lon="6.1873180"><ele>168.2</ele></trkpt>
    <trkpt lat="49.1061450" lon="6.1870000"><ele>168.0</ele></trkpt>
    <trkpt lat="49.1061880" lon="6.1866520"><ele>168.0</ele></trkpt>
    <trkpt lat="49.1062100" lon="6.1864140"><ele>168.0</ele></trkpt>
    <trkpt lat="49.1062100" lon="6.1863460"><ele>167.5</ele></trkpt>
    <trkpt lat="49.1062490" lon="6.1863420"><ele>167.2</ele></trkpt>
    <trkpt lat="49.1062780" lon="6.1863250"><ele>167.2</ele></trkpt>
    <trkpt lat="49.1073240" lon="6.1861450"><ele>168.0</ele></trkpt>
    <trkpt lat="49.1073520" lon="6.1861190"><ele>168.0</ele></trkpt>
    <trkpt lat="49.1074060" lon="6.1861100"><ele>167.8</ele></trkpt>
    <trkpt lat="49.1075910" lon="6.1860800"><ele>167.5</ele></trkpt>
    <trkpt lat="49.1075280" lon="6.1852320"><ele>169.0</ele></trkpt>
    <trkpt lat="49.1070160" lon="6.1852240"><ele>168.2</ele></trkpt>
    <trkpt lat="49.1069500" lon="6.1852140"><ele>168.2</ele></trkpt>
    <trkpt lat="49.1067400" lon="6.1851400"><ele>168.8</ele></trkpt>
    <trkpt lat="49.1066320" lon="6.1850780"><ele>169.2</ele></trkpt>
    <trkpt lat="49.1066240" lon="6.1849620"><ele>169.8</ele></trkpt>
    <trkpt lat="49.1066090" lon="6.1849640"><ele>168.8</ele></trkpt>
    <trkpt lat="49.1066240" lon="6.1849620"><ele>169.8</ele></trkpt>
    <trkpt lat="49.1066060" lon="6.1847110"><ele>169.8</ele></trkpt>
    <trkpt lat="49.1074370" lon="6.1839010"><ele>169.8</ele></trkpt>
    <trkpt lat="49.1074340" lon="6.1838590"><ele>170.0</ele></trkpt>
    <trkpt lat="49.1074180" lon="6.1836340"><ele>170.0</ele></trkpt>
    <trkpt lat="49.1075120" lon="6.1836170"><ele>170.0</ele></trkpt>
    <trkpt lat="49.1075020" lon="6.1834120"><ele>170.0</ele></trkpt>
    <trkpt lat="49.1074970" lon="6.1833290"><ele>170.0</ele></trkpt>
    <trkpt lat="49.1074910" lon="6.1832440"><ele>170.2</ele></trkpt>
    <trkpt lat="49.1075150" lon="6.1832290"><ele>170.2</ele></trkpt>
    <trkpt lat="49.1075310" lon="6.1831850"><ele>170.5</ele></trkpt>
    <trkpt lat="49.1075180" lon="6.1830140"><ele>171.0</ele></trkpt>
    <trkpt lat="49.1075710" lon="6.1830050"><ele>171.5</ele></trkpt>
    <trkpt lat="49.1076110" lon="6.1829990"><ele>171.8</ele></trkpt>
    <trkpt lat="49.1077060" lon="6.1829890"><ele>172.5</ele></trkpt>
    <trkpt lat="49.1077260" lon="6.1829870"><ele>172.8</ele></trkpt>
    <trkpt lat="49.1076960" lon="6.1825490"><ele>171.0</ele></trkpt>
    <trkpt lat="49.1076120" lon="6.1812390"><ele>171.0</ele></trkpt>
    <trkpt lat="49.1076210" lon="6.1811800"><ele>171.0</ele></trkpt>
    <trkpt lat="49.1076290" lon="6.1811230"><ele>171.0</ele></trkpt>
    <trkpt lat="49.1076610" lon="6.1810350"><ele>171.0</ele></trkpt>
    <trkpt lat="49.1077000" lon="6.1809750"><ele>171.0</ele></trkpt>
    <trkpt lat="49.1077440" lon="6.1809290"><ele>171.0</ele></trkpt>
    <trkpt lat="49.1080150" lon="6.1807420"><ele>171.0</ele></trkpt>
    <trkpt lat="49.1081610" lon="6.1806420"><ele>171.2</ele></trkpt>
    <trkpt lat="49.1086530" lon="6.1803450"><ele>171.8</ele></trkpt>
    <trkpt lat="49.1086080" lon="6.1802700"><ele>172.0</ele></trkpt>
    <trkpt lat="49.1087830" lon="6.1802210"><ele>172.0</ele></trkpt>
    <trkpt lat="49.1088080" lon="6.1801550"><ele>172.0</ele></trkpt>
    <trkpt lat="49.1088420" lon="6.1801180"><ele>172.0</ele></trkpt>
    <trkpt lat="49.1089470" lon="6.1800570"><ele>172.0</ele></trkpt>
    <trkpt lat="49.1089690" lon="6.1801370"><ele>172.5</ele></trkpt>
    <trkpt lat="49.1089850" lon="6.1801890"><ele>172.8</ele></trkpt>
    <trkpt lat="49.1090570" lon="6.1801350"><ele>173.0</ele></trkpt>
    <trkpt lat="49.1094690" lon="6.1798980"><ele>173.2</ele></trkpt>
    <trkpt lat="49.1108380" lon="6.1790850"><ele>172.5</ele></trkpt>
    <trkpt lat="49.1109020" lon="6.1790420"><ele>172.2</ele></trkpt>
    <trkpt lat="49.1109300" lon="6.1790250"><ele>172.2</ele></trkpt>
    <trkpt lat="49.1109830" lon="6.1791430"><ele>172.2</ele></trkpt>
    <trkpt lat="49.1110830" lon="6.1790440"><ele>172.0</ele></trkpt>
    <trkpt lat="49.1111160" lon="6.1790080"><ele>172.0</ele></trkpt>
    <trkpt lat="49.1111550" lon="6.1789390"><ele>172.0</ele></trkpt>
    <trkpt lat="49.1112790" lon="6.1789100"><ele>172.5</ele></trkpt>
    <trkpt lat="49.1115270" lon="6.1788200"><ele>172.5</ele></trkpt>
    <trkpt lat="49.1115870" lon="6.1788020"><ele>172.2</ele></trkpt>
    <trkpt lat="49.1116760" lon="6.1787750"><ele>172.0</ele></trkpt>
    <trkpt lat="49.1117320" lon="6.1787570"><ele>172.0</ele></trkpt>
    <trkpt lat="49.1117920" lon="6.1787390"><ele>172.0</ele></trkpt>
    <trkpt lat="49.1118060" lon="6.1787140"><ele>172.0</ele></trkpt>
    <trkpt lat="49.1118380" lon="6.1786900"><ele>172.0</ele></trkpt>
    <trkpt lat="49.1118290" lon="6.1786240"><ele>172.0</ele></trkpt>
    <trkpt lat="49.1118250" lon="6.1785990"><ele>172.0</ele></trkpt>
    <trkpt lat="49.1118160" lon="6.1785410"><ele>172.0</ele></trkpt>
    <trkpt lat="49.1122030" lon="6.1784030"><ele>172.0</ele></trkpt>
    <trkpt lat="49.1122710" lon="6.1784020"><ele>171.8</ele></trkpt>
    <trkpt lat="49.1123030" lon="6.1784370"><ele>171.8</ele></trkpt>
    <trkpt lat="49.1123560" lon="6.1784750"><ele>171.8</ele></trkpt>
    <trkpt lat="49.1125250" lon="6.1784690"><ele>171.2</ele></trkpt>
    <trkpt lat="49.1125350" lon="6.1784690"><ele>171.2</ele></trkpt>
    <trkpt lat="49.1126330" lon="6.1784850"><ele>171.0</ele></trkpt>
    <trkpt lat="49.1126550" lon="6.1784890"><ele>171.0</ele></trkpt>
    <trkpt lat="49.1126750" lon="6.1784930"><ele>171.0</ele></trkpt>
    <trkpt lat="49.1127060" lon="6.1785190"><ele>171.0</ele></trkpt>
    <trkpt lat="49.1128520" lon="6.1785030"><ele>171.0</ele></trkpt>
    <trkpt lat="49.1129500" lon="6.1784810"><ele>171.0</ele></trkpt>
    <trkpt lat="49.1132230" lon="6.1784310"><ele>171.0</ele></trkpt>
    <trkpt lat="49.1133240" lon="6.1784080"><ele>171.0</ele></trkpt>
    <trkpt lat="49.1133740" lon="6.1783750"><ele>171.0</ele></trkpt>
    <trkpt lat="49.1134780" lon="6.1783200"><ele>171.0</ele></trkpt>
    <trkpt lat="49.1135520" lon="6.1782470"><ele>171.0</ele></trkpt>
    <trkpt lat="49.1136600" lon="6.1782480"><ele>171.0</ele></trkpt>
    <trkpt lat="49.1138140" lon="6.1782300"><ele>171.0</ele></trkpt>
    <trkpt lat="49.1138680" lon="6.1782120"><ele>171.0</ele></trkpt>
    <trkpt lat="49.1139240" lon="6.1781770"><ele>171.0</ele></trkpt>
    <trkpt lat="49.1139770" lon="6.1781230"><ele>171.0</ele></trkpt>
    <trkpt lat="49.1140020" lon="6.1780930"><ele>171.0</ele></trkpt>
    <trkpt lat="49.1140180" lon="6.1780590"><ele>171.0</ele></trkpt>
    <trkpt lat="49.1142490" lon="6.1773110"><ele>172.2</ele></trkpt>
    <trkpt lat="49.1143000" lon="6.1771560"><ele>173.0</ele></trkpt>
    <trkpt lat="49.1143590" lon="6.1770090"><ele>173.8</ele></trkpt>
    <trkpt lat="49.1145180" lon="6.1766400"><ele>174.0</ele></trkpt>
    <trkpt lat="49.1146430" lon="6.1763650"><ele>174.2</ele></trkpt>
    <trkpt lat="49.1147900" lon="6.1759210"><ele>174.0</ele></trkpt>
    <trkpt lat="49.1149200" lon="6.1761630"><ele>174.0</ele></trkpt>
    <trkpt lat="49.1149300" lon="6.1761790"><ele>174.0</ele></trkpt>
    <trkpt lat="49.1150400" lon="6.1763740"><ele>174.0</ele></trkpt>
    <trkpt lat="49.1151930" lon="6.1766270"><ele>174.0</ele></trkpt>
    <trkpt lat="49.1153870" lon="6.1768670"><ele>175.0</ele></trkpt>
  </trkseg></trk>
</gpx>