<?xml version="1.0" encoding="UTF-8"?>
<kml xmlns="http://www.opengis.net/kml/2.2"><Document>
  <name>Le tour du vallon de Gorze</name><description>12.8 km. D+ 188 m. 64 % de chemins. Depart : Gorze, pres du palais abbatial (25 min de Metz). L'abbaye, la source qui alimentait l'aqueduc romain, puis le tour complet du vallon par les plateaux : montee au nord, plateau ouest, retour par le sud et la foret du Graoully, et un dernier belvedere avant de redescendre au village.</description>
  <Style id="depart"><IconStyle><scale>1.2</scale><Icon><href>http://maps.google.com/mapfiles/kml/paddle/grn-circle.png</href></Icon></IconStyle></Style>
  <Style id="etape"><IconStyle><Icon><href>http://maps.google.com/mapfiles/kml/paddle/wht-blank.png</href></Icon></IconStyle></Style>
    <Placemark><name>Depart : Gorze</name><description>Village au fond de la vallee, ancienne abbaye benedictine et palais abbatial. Boulangerie et cafe sur la place.</description><styleUrl>#depart</styleUrl><Point><coordinates>5.9988240,49.0516250,0</coordinates></Point></Placemark>
    <Placemark><name>1. Abbaye de Gorze</name><description>Le palais abbatial et son jardin en terrasses.</description><styleUrl>#etape</styleUrl><Point><coordinates>5.9970580,49.0554390,0</coordinates></Point></Placemark>
    <Placemark><name>2. Source des Bouillons, Gorze</name><description>Resurgence qui alimentait l'aqueduc romain jusqu'a Metz.</description><styleUrl>#etape</styleUrl><Point><coordinates>5.9951890,49.0566900,0</coordinates></Point></Placemark>
    <Placemark><name>3. Saint-Thiebaut</name><description>Hameau accroche au versant nord du vallon, au-dessus de l'abbaye.</description><styleUrl>#etape</styleUrl><Point><coordinates>5.9903210,49.0582640,0</coordinates></Point></Placemark>
    <Placemark><name>4. Croix Sergent</name><description>Croix de chemin sur le plateau, a l'ouest du vallon.</description><styleUrl>#etape</styleUrl><Point><coordinates>5.9713960,49.0546330,0</coordinates></Point></Placemark>
    <Placemark><name>5. Labauville</name><description>Ferme isolee au bout du plateau, point le plus a l'ouest de la boucle.</description><styleUrl>#etape</styleUrl><Point><coordinates>5.9638200,49.0491050,0</coordinates></Point></Placemark>
    <Placemark><name>6. Foret domaniale du Graoully</name><description></description><styleUrl>#etape</styleUrl><Point><coordinates>6.0064400,49.0403300,0</coordinates></Point></Placemark>
    <Placemark><name>7. Belvedere du vallon</name><description>Point de vue sur Gorze et le fond du vallon, juste avant de redescendre au village.</description><styleUrl>#etape</styleUrl><Point><coordinates>6.0052460,49.0466350,0</coordinates></Point></Placemark>
    <Style id="t1"><LineStyle><color>ff6B4A7A</color><width>4</width></LineStyle></Style>
    <Placemark><name>Le tour du vallon de Gorze</name><description>12.8 km. D+ 188 m. 64 % de chemins. Depart : Gorze, pres du palais abbatial (25 min de Metz). L'abbaye, la source qui alimentait l'aqueduc romain, puis le tour complet du vallon par les plateaux : montee au nord, plateau ouest, retour par le sud et la foret du Graoully, et un dernier belvedere avant de redescendre au village.</description><styleUrl>#t1</styleUrl><LineString><tessellate>1</tessellate><coordinates>5.9986660,49.0514350,221 5.9984330,49.0515080,222 5.9982140,49.0515190,223 5.9980030,49.0515090,224 5.9980230,49.0515450,224 5.9985570,49.0518300,216 5.9982700,49.0520270,216 5.9987160,49.0523020,211 5.9986200,49.0523580,211 5.9984610,49.0524500,211 5.9981780,49.0526400,211 5.9980340,49.0527350,212 5.9979410,49.0528100,212 5.9978460,49.0528930,212 5.9974020,49.0533410,214 5.9972920,49.0534980,213 5.9971570,49.0537020,214 5.9971490,49.0538180,214 5.9972430,49.0540820,212 5.9970350,49.0540860,214 5.9970370,49.0541180,214 5.9969990,49.0549410,214 5.9970020,49.0552030,214 5.9970270,49.0553890,213 5.9970590,49.0554380,210 5.9970270,49.0553890,213 5.9970020,49.0552030,214 5.9969990,49.0549410,214 5.9970370,49.0541180,214 5.9970350,49.0540860,214 5.9969190,49.0540880,214 5.9962690,49.0541040,219 5.9961680,49.0541130,219 5.9961010,49.0541330,219 5.9958710,49.0542360,220 5.9952750,49.0544990,224 5.9951060,49.0545980,226 5.9945120,49.0550360,229 5.9944490,49.0551770,228 5.9944010,49.0552500,228 5.9940100,49.0556310,228 5.9939360,49.0557350,228 5.9936560,49.0564190,224 5.9939360,49.0557350,228 5.9940100,49.0556310,228 5.9944010,49.0552500,228 5.9944490,49.0551770,228 5.9945120,49.0550360,229 5.9940580,49.0553560,231 5.9935110,49.0557500,234 5.9933450,49.0558400,234 5.9931590,49.0559230,236 5.9929570,49.0559850,236 5.9927260,49.0560410,237 5.9894470,49.0564110,251 5.9891550,49.0564190,251 5.9890810,49.0564550,251 5.9889740,49.0564760,252 5.9885700,49.0565250,253 5.9895740,49.0577540,255 5.9894190,49.0579280,255 5.9894010,49.0580010,255 5.9893870,49.0581690,254 5.9894010,49.0580010,255 5.9894190,49.0579280,255 5.9895740,49.0577540,255 5.9885700,49.0565250,253 5.9884070,49.0565600,254 5.9882890,49.0565930,255 5.9873840,49.0569100,257 5.9874800,49.0567180,257 5.9875350,49.0565710,256 5.9875210,49.0564650,256 5.9874970,49.0564000,256 5.9874140,49.0562370,256 5.9874280,49.0561850,256 5.9872680,49.0561600,256 5.9863770,49.0560220,257 5.9862610,49.0560040,257 5.9857790,49.0559500,258 5.9851230,49.0558960,260 5.9756150,49.0552320,267 5.9748790,49.0551660,267 5.9738380,49.0550350,266 5.9713720,49.0547030,259 5.9700500,49.0545260,259 5.9639420,49.0537040,270 5.9595760,49.0531010,284 5.9617140,49.0505570,272 5.9623020,49.0499000,273 5.9628520,49.0493250,274 5.9629670,49.0492000,275 5.9632990,49.0488440,276 5.9633780,49.0488550,276 5.9636090,49.0488130,277 5.9636590,49.0488120,277 5.9637550,49.0488560,278 5.9637780,49.0488910,278 5.9638350,49.0489340,278 5.9639090,49.0489730,278 5.9638350,49.0489340,278 5.9637780,49.0488910,278 5.9637550,49.0488560,278 5.9636590,49.0488120,277 5.9636090,49.0488130,277 5.9633780,49.0488550,276 5.9632990,49.0488440,276 5.9635060,49.0486220,277 5.9636950,49.0483800,279 5.9638790,49.0480470,284 5.9643760,49.0476810,293 5.9646150,49.0475500,295 5.9653420,49.0473260,301 5.9661370,49.0472220,305 5.9668460,49.0471770,308 5.9672940,49.0471260,311 5.9675150,49.0470510,312 5.9678610,49.0468280,315 5.9680690,49.0464990,318 5.9680450,49.0464440,318 5.9680330,49.0463710,318 5.9680380,49.0463150,318 5.9680660,49.0462290,318 5.9681430,49.0461010,319 5.9683520,49.0458380,321 5.9683990,49.0457610,322 5.9684270,49.0456730,322 5.9684310,49.0456020,323 5.9684210,49.0455310,323 5.9685620,49.0453760,325 5.9686460,49.0452630,326 5.9687580,49.0450040,329 5.9687910,49.0448000,332 5.9688590,49.0442110,338 5.9689810,49.0436130,343 5.9691290,49.0436340,344 5.9700920,49.0439190,344 5.9723050,49.0445400,344 5.9726820,49.0446580,344 5.9741610,49.0450730,345 5.9747030,49.0452390,346 5.9765280,49.0457570,346 5.9845610,49.0480480,340 5.9847230,49.0480540,340 5.9848490,49.0480400,340 5.9849360,49.0479950,340 5.9854240,49.0472620,336 5.9864560,49.0457150,320 5.9871170,49.0447530,322 5.9873780,49.0443320,323 5.9875070,49.0441910,324 5.9876260,49.0441090,324 5.9878980,49.0439910,323 5.9880820,49.0439610,323 5.9882740,49.0439540,323 5.9890640,49.0439950,321 5.9896910,49.0439760,320 5.9904830,49.0438820,319 5.9907720,49.0438250,319 5.9910610,49.0436990,320 5.9912250,49.0435740,320 5.9913310,49.0434460,321 5.9914740,49.0432360,322 5.9915420,49.0430190,324 5.9915310,49.0427820,326 5.9914850,49.0425440,327 5.9911700,49.0417510,331 5.9911190,49.0415710,332 5.9910290,49.0408500,330 5.9910230,49.0406640,329 5.9910580,49.0405550,328 5.9911220,49.0404420,328 5.9912640,49.0403500,327 5.9915020,49.0402770,327 5.9919070,49.0402820,328 5.9920270,49.0402780,328 5.9990370,49.0400400,332 5.9992440,49.0400330,332 5.9993750,49.0399910,333 5.9994730,49.0399190,333 5.9992420,49.0370540,344 5.9992520,49.0369330,344 5.9992970,49.0368430,344 5.9993670,49.0367750,343 5.9994640,49.0367170,343 5.9995700,49.0366690,343 5.9997400,49.0366330,343 5.9999000,49.0366390,344 6.0000950,49.0367060,344 6.0023980,49.0376220,347 6.0071790,49.0395260,344 6.0089840,49.0402450,344 6.0136340,49.0420860,333 6.0138720,49.0421930,332 6.0139360,49.0422850,331 6.0139200,49.0424080,330 6.0138410,49.0424960,329 6.0137030,49.0425730,328 6.0126220,49.0431730,325 6.0103690,49.0443590,318 6.0100460,49.0445090,317 6.0099990,49.0447700,316 6.0099430,49.0449620,314 6.0098310,49.0451980,312 6.0096990,49.0453360,312 6.0093640,49.0455190,310 6.0091740,49.0455990,308 6.0085130,49.0457110,304 6.0078020,49.0459760,294 6.0076910,49.0460670,292 6.0075240,49.0462780,289 6.0073040,49.0465270,282 6.0072550,49.0471800,272 6.0072770,49.0472460,272 6.0072770,49.0475070,266 6.0074410,49.0476380,268 6.0074790,49.0479150,261 6.0076940,49.0482570,252 6.0076620,49.0483620,248 6.0075030,49.0485300,244 6.0073220,49.0486710,240 6.0072800,49.0486860,240 6.0065350,49.0489570,234 6.0063280,49.0490520,232 6.0063400,49.0489650,234 6.0062980,49.0488560,234 6.0062600,49.0487160,236 6.0062180,49.0485270,237 6.0062280,49.0484730,238 6.0061250,49.0476820,242 6.0060410,49.0473870,243 6.0060140,49.0472040,244 6.0059470,49.0470180,244 6.0056520,49.0465390,245 6.0056320,49.0465110,247 6.0056520,49.0465390,245 6.0059470,49.0470180,244 6.0060140,49.0472040,244 6.0057290,49.0472110,240 6.0055300,49.0472430,238 6.0053210,49.0473010,235 6.0052350,49.0472830,234 6.0052410,49.0472310,234 6.0052170,49.0472180,233 6.0051560,49.0472580,232 6.0051110,49.0472510,231 6.0049970,49.0471120,227 6.0049860,49.0470280,226 6.0049520,49.0469870,226 6.0048700,49.0471010,224 6.0048080,49.0473000,224 6.0047730,49.0476720,222 6.0046280,49.0477200,220 6.0042250,49.0477840,218 6.0037660,49.0477530,222 6.0036220,49.0477610,224 6.0035020,49.0478230,226 6.0034540,49.0478400,226 6.0033340,49.0485080,220 6.0033240,49.0486450,219 6.0033220,49.0491430,216 6.0031910,49.0495240,214 6.0031300,49.0497330,212 6.0031110,49.0499660,211 6.0031270,49.0501940,208 6.0030810,49.0501850,209 6.0027810,49.0501910,211 6.0024000,49.0502240,213 6.0018020,49.0503030,214 6.0014830,49.0503560,215 6.0007120,49.0505160,216 6.0003700,49.0506330,216 5.9999550,49.0507930,217 5.9994970,49.0510090,218 5.9988890,49.0513260,220 5.9986660,49.0514350,221</coordinates></LineString></Placemark>
</Document></kml>