<?xml version="1.0" encoding="UTF-8"?>
<gpx version="1.1" creator="olifant"
     xmlns="http://www.topografix.com/GPX/1/1"
     xmlns:xsi="http://www.w3.org/2001/XMLSchema-instance"
     xsi:schemaLocation="http://www.topografix.com/GPX/1/1 http://www.topografix.com/GPX/1/1/gpx.xsd">
  <metadata><name>Le tour du vallon de Gorze</name><desc>12.8 km. D+ 188 m. 64 % de chemins. Depart : Gorze, pres du palais abbatial (25 min de Metz). L'abbaye, la source qui alimentait l'aqueduc romain, puis le tour complet du vallon par les plateaux : montee au nord, plateau ouest, retour par le sud et la foret du Graoully, et un dernier belvedere avant de redescendre au village.</desc></metadata>
  <wpt lat="49.0516250" lon="5.9988240"><name>Gorze</name><desc>Village au fond de la vallee, ancienne abbaye benedictine et palais abbatial. Boulangerie et cafe sur la place.</desc></wpt>
  <wpt lat="49.0554390" lon="5.9970580"><name>Abbaye de Gorze</name><desc>Le palais abbatial et son jardin en terrasses.</desc></wpt>
  <wpt lat="49.0566900" lon="5.9951890"><name>Source des Bouillons, Gorze</name><desc>Resurgence qui alimentait l'aqueduc romain jusqu'a Metz.</desc></wpt>
  <wpt lat="49.0582640" lon="5.9903210"><name>Saint-Thiebaut</name><desc>Hameau accroche au versant nord du vallon, au-dessus de l'abbaye.</desc></wpt>
  <wpt lat="49.0546330" lon="5.9713960"><name>Croix Sergent</name><desc>Croix de chemin sur le plateau, a l'ouest du vallon.</desc></wpt>
  <wpt lat="49.0491050" lon="5.9638200"><name>Labauville</name><desc>Ferme isolee au bout du plateau, point le plus a l'ouest de la boucle.</desc></wpt>
  <wpt lat="49.0403300" lon="6.0064400"><name>Foret domaniale du Graoully</name></wpt>
  <wpt lat="49.0466350" lon="6.0052460"><name>Belvedere du vallon</name><desc>Point de vue sur Gorze et le fond du vallon, juste avant de redescendre au village.</desc></wpt>
  <trk><name>Le tour du vallon de Gorze</name><trkseg>
    <trkpt lat="49.0514350" lon="5.9986660"><ele>220.8</ele></trkpt>
    <trkpt lat="49.0515080" lon="5.9984330"><ele>221.8</ele></trkpt>
    <trkpt lat="49.0515190" lon="5.9982140"><ele>223.2</ele></trkpt>
    <trkpt lat="49.0515090" lon="5.9980030"><ele>224.5</ele></trkpt>
    <trkpt lat="49.0515450" lon="5.9980230"><ele>223.8</ele></trkpt>
    <trkpt lat="49.0518300" lon="5.9985570"><ele>216.0</ele></trkpt>
    <trkpt lat="49.0520270" lon="5.9982700"><ele>215.5</ele></trkpt>
    <trkpt lat="49.0523020" lon="5.9987160"><ele>211.0</ele></trkpt>
    <trkpt lat="49.0523580" lon="5.9986200"><ele>210.8</ele></trkpt>
    <trkpt lat="49.0524500" lon="5.9984610"><ele>210.8</ele></trkpt>
    <trkpt lat="49.0526400" lon="5.9981780"><ele>211.2</ele></trkpt>
    <trkpt lat="49.0527350" lon="5.9980340"><ele>211.5</ele></trkpt>
    <trkpt lat="49.0528100" lon="5.9979410"><ele>212.0</ele></trkpt>
    <trkpt lat="49.0528930" lon="5.9978460"><ele>212.0</ele></trkpt>
    <trkpt lat="49.0533410" lon="5.9974020"><ele>213.5</ele></trkpt>
    <trkpt lat="49.0534980" lon="5.9972920"><ele>213.2</ele></trkpt>
    <trkpt lat="49.0537020" lon="5.9971570"><ele>213.5</ele></trkpt>
    <trkpt lat="49.0538180" lon="5.9971490"><ele>214.0</ele></trkpt>
    <trkpt lat="49.0540820" lon="5.9972430"><ele>212.5</ele></trkpt>
    <trkpt lat="49.0540860" lon="5.9970350"><ele>213.5</ele></trkpt>
    <trkpt lat="49.0541180" lon="5.9970370"><ele>213.5</ele></trkpt>
    <trkpt lat="49.0549410" lon="5.9969990"><ele>213.8</ele></trkpt>
    <trkpt lat="49.0552030" lon="5.9970020"><ele>213.8</ele></trkpt>
    <trkpt lat="49.0553890" lon="5.9970270"><ele>212.8</ele></trkpt>
    <trkpt lat="49.0554380" lon="5.9970590"><ele>210.0</ele></trkpt>
    <trkpt lat="49.0553890" lon="5.9970270"><ele>212.8</ele></trkpt>
    <trkpt lat="49.0552030" lon="5.9970020"><ele>213.8</ele></trkpt>
    <trkpt lat="49.0549410" lon="5.9969990"><ele>213.8</ele></trkpt>
    <trkpt lat="49.0541180" lon="5.9970370"><ele>213.5</ele></trkpt>
    <trkpt lat="49.0540860" lon="5.9970350"><ele>213.5</ele></trkpt>
    <trkpt lat="49.0540880" lon="5.9969190"><ele>214.2</ele></trkpt>
    <trkpt lat="49.0541040" lon="5.9962690"><ele>218.8</ele></trkpt>
    <trkpt lat="49.0541130" lon="5.9961680"><ele>219.0</ele></trkpt>
    <trkpt lat="49.0541330" lon="5.9961010"><ele>219.2</ele></trkpt>
    <trkpt lat="49.0542360" lon="5.9958710"><ele>220.2</ele></trkpt>
    <trkpt lat="49.0544990" lon="5.9952750"><ele>224.5</ele></trkpt>
    <trkpt lat="49.0545980" lon="5.9951060"><ele>226.0</ele></trkpt>
    <trkpt lat="49.0550360" lon="5.9945120"><ele>229.0</ele></trkpt>
    <trkpt lat="49.0551770" lon="5.9944490"><ele>228.5</ele></trkpt>
    <trkpt lat="49.0552500" lon="5.9944010"><ele>228.5</ele></trkpt>
    <trkpt lat="49.0556310" lon="5.9940100"><ele>228.2</ele></trkpt>
    <trkpt lat="49.0557350" lon="5.9939360"><ele>227.8</ele></trkpt>
    <trkpt lat="49.0564190" lon="5.9936560"><ele>224.2</ele></trkpt>
    <trkpt lat="49.0557350" lon="5.9939360"><ele>227.8</ele></trkpt>
    <trkpt lat="49.0556310" lon="5.9940100"><ele>228.2</ele></trkpt>
    <trkpt lat="49.0552500" lon="5.9944010"><ele>228.5</ele></trkpt>
    <trkpt lat="49.0551770" lon="5.9944490"><ele>228.5</ele></trkpt>
    <trkpt lat="49.0550360" lon="5.9945120"><ele>229.0</ele></trkpt>
    <trkpt lat="49.0553560" lon="5.9940580"><ele>230.8</ele></trkpt>
    <trkpt lat="49.0557500" lon="5.9935110"><ele>234.0</ele></trkpt>
    <trkpt lat="49.0558400" lon="5.9933450"><ele>234.5</ele></trkpt>
    <trkpt lat="49.0559230" lon="5.9931590"><ele>235.8</ele></trkpt>
    <trkpt lat="49.0559850" lon="5.9929570"><ele>236.5</ele></trkpt>
    <trkpt lat="49.0560410" lon="5.9927260"><ele>237.0</ele></trkpt>
    <trkpt lat="49.0564110" lon="5.9894470"><ele>250.8</ele></trkpt>
    <trkpt lat="49.0564190" lon="5.9891550"><ele>251.0</ele></trkpt>
    <trkpt lat="49.0564550" lon="5.9890810"><ele>251.2</ele></trkpt>
    <trkpt lat="49.0564760" lon="5.9889740"><ele>251.5</ele></trkpt>
    <trkpt lat="49.0565250" lon="5.9885700"><ele>253.0</ele></trkpt>
    <trkpt lat="49.0577540" lon="5.9895740"><ele>254.8</ele></trkpt>
    <trkpt lat="49.0579280" lon="5.9894190"><ele>255.0</ele></trkpt>
    <trkpt lat="49.0580010" lon="5.9894010"><ele>255.0</ele></trkpt>
    <trkpt lat="49.0581690" lon="5.9893870"><ele>254.5</ele></trkpt>
    <trkpt lat="49.0580010" lon="5.9894010"><ele>255.0</ele></trkpt>
    <trkpt lat="49.0579280" lon="5.9894190"><ele>255.0</ele></trkpt>
    <trkpt lat="49.0577540" lon="5.9895740"><ele>254.8</ele></trkpt>
    <trkpt lat="49.0565250" lon="5.9885700"><ele>253.0</ele></trkpt>
    <trkpt lat="49.0565600" lon="5.9884070"><ele>254.0</ele></trkpt>
    <trkpt lat="49.0565930" lon="5.9882890"><ele>254.8</ele></trkpt>
    <trkpt lat="49.0569100" lon="5.9873840"><ele>257.2</ele></trkpt>
    <trkpt lat="49.0567180" lon="5.9874800"><ele>257.0</ele></trkpt>
    <trkpt lat="49.0565710" lon="5.9875350"><ele>256.5</ele></trkpt>
    <trkpt lat="49.0564650" lon="5.9875210"><ele>256.0</ele></trkpt>
    <trkpt lat="49.0564000" lon="5.9874970"><ele>256.0</ele></trkpt>
    <trkpt lat="49.0562370" lon="5.9874140"><ele>256.0</ele></trkpt>
    <trkpt lat="49.0561850" lon="5.9874280"><ele>256.0</ele></trkpt>
    <trkpt lat="49.0561600" lon="5.9872680"><ele>256.0</ele></trkpt>
    <trkpt lat="49.0560220" lon="5.9863770"><ele>257.0</ele></trkpt>
    <trkpt lat="49.0560040" lon="5.9862610"><ele>257.2</ele></trkpt>
    <trkpt lat="49.0559500" lon="5.9857790"><ele>258.5</ele></trkpt>
    <trkpt lat="49.0558960" lon="5.9851230"><ele>260.5</ele></trkpt>
    <trkpt lat="49.0552320" lon="5.9756150"><ele>267.0</ele></trkpt>
    <trkpt lat="49.0551660" lon="5.9748790"><ele>267.0</ele></trkpt>
    <trkpt lat="49.0550350" lon="5.9738380"><ele>266.0</ele></trkpt>
    <trkpt lat="49.0547030" lon="5.9713720"><ele>259.0</ele></trkpt>
    <trkpt lat="49.0545260" lon="5.9700500"><ele>259.0</ele></trkpt>
    <trkpt lat="49.0537040" lon="5.9639420"><ele>270.0</ele></trkpt>
    <trkpt lat="49.0531010" lon="5.9595760"><ele>284.0</ele></trkpt>
    <trkpt lat="49.0505570" lon="5.9617140"><ele>271.8</ele></trkpt>
    <trkpt lat="49.0499000" lon="5.9623020"><ele>273.0</ele></trkpt>
    <trkpt lat="49.0493250" lon="5.9628520"><ele>274.2</ele></trkpt>
    <trkpt lat="49.0492000" lon="5.9629670"><ele>274.8</ele></trkpt>
    <trkpt lat="49.0488440" lon="5.9632990"><ele>275.8</ele></trkpt>
    <trkpt lat="49.0488550" lon="5.9633780"><ele>276.0</ele></trkpt>
    <trkpt lat="49.0488130" lon="5.9636090"><ele>277.2</ele></trkpt>
    <trkpt lat="49.0488120" lon="5.9636590"><ele>277.2</ele></trkpt>
    <trkpt lat="49.0488560" lon="5.9637550"><ele>277.5</ele></trkpt>
    <trkpt lat="49.0488910" lon="5.9637780"><ele>277.5</ele></trkpt>
    <trkpt lat="49.0489340" lon="5.9638350"><ele>277.5</ele></trkpt>
    <trkpt lat="49.0489730" lon="5.9639090"><ele>277.8</ele></trkpt>
    <trkpt lat="49.0489340" lon="5.9638350"><ele>277.5</ele></trkpt>
    <trkpt lat="49.0488910" lon="5.9637780"><ele>277.5</ele></trkpt>
    <trkpt lat="49.0488560" lon="5.9637550"><ele>277.5</ele></trkpt>
    <trkpt lat="49.0488120" lon="5.9636590"><ele>277.2</ele></trkpt>
    <trkpt lat="49.0488130" lon="5.9636090"><ele>277.2</ele></trkpt>
    <trkpt lat="49.0488550" lon="5.9633780"><ele>276.0</ele></trkpt>
    <trkpt lat="49.0488440" lon="5.9632990"><ele>275.8</ele></trkpt>
    <trkpt lat="49.0486220" lon="5.9635060"><ele>277.0</ele></trkpt>
    <trkpt lat="49.0483800" lon="5.9636950"><ele>279.2</ele></trkpt>
    <trkpt lat="49.0480470" lon="5.9638790"><ele>284.0</ele></trkpt>
    <trkpt lat="49.0476810" lon="5.9643760"><ele>292.8</ele></trkpt>
    <trkpt lat="49.0475500" lon="5.9646150"><ele>294.8</ele></trkpt>
    <trkpt lat="49.0473260" lon="5.9653420"><ele>300.8</ele></trkpt>
    <trkpt lat="49.0472220" lon="5.9661370"><ele>305.0</ele></trkpt>
    <trkpt lat="49.0471770" lon="5.9668460"><ele>308.2</ele></trkpt>
    <trkpt lat="49.0471260" lon="5.9672940"><ele>310.8</ele></trkpt>
    <trkpt lat="49.0470510" lon="5.9675150"><ele>312.0</ele></trkpt>
    <trkpt lat="49.0468280" lon="5.9678610"><ele>315.2</ele></trkpt>
    <trkpt lat="49.0464990" lon="5.9680690"><ele>317.5</ele></trkpt>
    <trkpt lat="49.0464440" lon="5.9680450"><ele>317.8</ele></trkpt>
    <trkpt lat="49.0463710" lon="5.9680330"><ele>317.8</ele></trkpt>
    <trkpt lat="49.0463150" lon="5.9680380"><ele>318.0</ele></trkpt>
    <trkpt lat="49.0462290" lon="5.9680660"><ele>318.5</ele></trkpt>
    <trkpt lat="49.0461010" lon="5.9681430"><ele>319.2</ele></trkpt>
    <trkpt lat="49.0458380" lon="5.9683520"><ele>321.0</ele></trkpt>
    <trkpt lat="49.0457610" lon="5.9683990"><ele>321.8</ele></trkpt>
    <trkpt lat="49.0456730" lon="5.9684270"><ele>322.2</ele></trkpt>
    <trkpt lat="49.0456020" lon="5.9684310"><ele>323.0</ele></trkpt>
    <trkpt lat="49.0455310" lon="5.9684210"><ele>323.2</ele></trkpt>
    <trkpt lat="49.0453760" lon="5.9685620"><ele>325.0</ele></trkpt>
    <trkpt lat="49.0452630" lon="5.9686460"><ele>326.2</ele></trkpt>
    <trkpt lat="49.0450040" lon="5.9687580"><ele>329.2</ele></trkpt>
    <trkpt lat="49.0448000" lon="5.9687910"><ele>331.8</ele></trkpt>
    <trkpt lat="49.0442110" lon="5.9688590"><ele>337.5</ele></trkpt>
    <trkpt lat="49.0436130" lon="5.9689810"><ele>343.2</ele></trkpt>
    <trkpt lat="49.0436340" lon="5.9691290"><ele>343.5</ele></trkpt>
    <trkpt lat="49.0439190" lon="5.9700920"><ele>343.8</ele></trkpt>
    <trkpt lat="49.0445400" lon="5.9723050"><ele>344.2</ele></trkpt>
    <trkpt lat="49.0446580" lon="5.9726820"><ele>344.2</ele></trkpt>
    <trkpt lat="49.0450730" lon="5.9741610"><ele>345.2</ele></trkpt>
    <trkpt lat="49.0452390" lon="5.9747030"><ele>346.0</ele></trkpt>
    <trkpt lat="49.0457570" lon="5.9765280"><ele>346.2</ele></trkpt>
    <trkpt lat="49.0480480" lon="5.9845610"><ele>340.0</ele></trkpt>
    <trkpt lat="49.0480540" lon="5.9847230"><ele>339.8</ele></trkpt>
    <trkpt lat="49.0480400" lon="5.9848490"><ele>339.8</ele></trkpt>
    <trkpt lat="49.0479950" lon="5.9849360"><ele>339.8</ele></trkpt>
    <trkpt lat="49.0472620" lon="5.9854240"><ele>335.5</ele></trkpt>
    <trkpt lat="49.0457150" lon="5.9864560"><ele>320.2</ele></trkpt>
    <trkpt lat="49.0447530" lon="5.9871170"><ele>322.2</ele></trkpt>
    <trkpt lat="49.0443320" lon="5.9873780"><ele>323.2</ele></trkpt>
    <trkpt lat="49.0441910" lon="5.9875070"><ele>323.8</ele></trkpt>
    <trkpt lat="49.0441090" lon="5.9876260"><ele>323.5</ele></trkpt>
    <trkpt lat="49.0439910" lon="5.9878980"><ele>323.2</ele></trkpt>
    <trkpt lat="49.0439610" lon="5.9880820"><ele>322.8</ele></trkpt>
    <trkpt lat="49.0439540" lon="5.9882740"><ele>322.8</ele></trkpt>
    <trkpt lat="49.0439950" lon="5.9890640"><ele>321.0</ele></trkpt>
    <trkpt lat="49.0439760" lon="5.9896910"><ele>320.2</ele></trkpt>
    <trkpt lat="49.0438820" lon="5.9904830"><ele>319.2</ele></trkpt>
    <trkpt lat="49.0438250" lon="5.9907720"><ele>319.2</ele></trkpt>
    <trkpt lat="49.0436990" lon="5.9910610"><ele>319.5</ele></trkpt>
    <trkpt lat="49.0435740" lon="5.9912250"><ele>320.2</ele></trkpt>
    <trkpt lat="49.0434460" lon="5.9913310"><ele>321.0</ele></trkpt>
    <trkpt lat="49.0432360" lon="5.9914740"><ele>322.5</ele></trkpt>
    <trkpt lat="49.0430190" lon="5.9915420"><ele>324.2</ele></trkpt>
    <trkpt lat="49.0427820" lon="5.9915310"><ele>325.8</ele></trkpt>
    <trkpt lat="49.0425440" lon="5.9914850"><ele>327.2</ele></trkpt>
    <trkpt lat="49.0417510" lon="5.9911700"><ele>331.2</ele></trkpt>
    <trkpt lat="49.0415710" lon="5.9911190"><ele>332.2</ele></trkpt>
    <trkpt lat="49.0408500" lon="5.9910290"><ele>330.5</ele></trkpt>
    <trkpt lat="49.0406640" lon="5.9910230"><ele>329.2</ele></trkpt>
    <trkpt lat="49.0405550" lon="5.9910580"><ele>328.2</ele></trkpt>
    <trkpt lat="49.0404420" lon="5.9911220"><ele>327.8</ele></trkpt>
    <trkpt lat="49.0403500" lon="5.9912640"><ele>327.2</ele></trkpt>
    <trkpt lat="49.0402770" lon="5.9915020"><ele>327.0</ele></trkpt>
    <trkpt lat="49.0402820" lon="5.9919070"><ele>327.8</ele></trkpt>
    <trkpt lat="49.0402780" lon="5.9920270"><ele>327.8</ele></trkpt>
    <trkpt lat="49.0400400" lon="5.9990370"><ele>331.5</ele></trkpt>
    <trkpt lat="49.0400330" lon="5.9992440"><ele>332.0</ele></trkpt>
    <trkpt lat="49.0399910" lon="5.9993750"><ele>332.8</ele></trkpt>
    <trkpt lat="49.0399190" lon="5.9994730"><ele>333.2</ele></trkpt>
    <trkpt lat="49.0370540" lon="5.9992420"><ele>344.0</ele></trkpt>
    <trkpt lat="49.0369330" lon="5.9992520"><ele>343.8</ele></trkpt>
    <trkpt lat="49.0368430" lon="5.9992970"><ele>343.5</ele></trkpt>
    <trkpt lat="49.0367750" lon="5.9993670"><ele>343.2</ele></trkpt>
    <trkpt lat="49.0367170" lon="5.9994640"><ele>343.0</ele></trkpt>
    <trkpt lat="49.0366690" lon="5.9995700"><ele>343.0</ele></trkpt>
    <trkpt lat="49.0366330" lon="5.9997400"><ele>343.0</ele></trkpt>
    <trkpt lat="49.0366390" lon="5.9999000"><ele>343.5</ele></trkpt>
    <trkpt lat="49.0367060" lon="6.0000950"><ele>344.0</ele></trkpt>
    <trkpt lat="49.0376220" lon="6.0023980"><ele>347.2</ele></trkpt>
    <trkpt lat="49.0395260" lon="6.0071790"><ele>344.0</ele></trkpt>
    <trkpt lat="49.0402450" lon="6.0089840"><ele>344.0</ele></trkpt>
    <trkpt lat="49.0420860" lon="6.0136340"><ele>333.2</ele></trkpt>
    <trkpt lat="49.0421930" lon="6.0138720"><ele>332.0</ele></trkpt>
    <trkpt lat="49.0422850" lon="6.0139360"><ele>331.2</ele></trkpt>
    <trkpt lat="49.0424080" lon="6.0139200"><ele>329.8</ele></trkpt>
    <trkpt lat="49.0424960" lon="6.0138410"><ele>329.0</ele></trkpt>
    <trkpt lat="49.0425730" lon="6.0137030"><ele>328.0</ele></trkpt>
    <trkpt lat="49.0431730" lon="6.0126220"><ele>324.8</ele></trkpt>
    <trkpt lat="49.0443590" lon="6.0103690"><ele>318.2</ele></trkpt>
    <trkpt lat="49.0445090" lon="6.0100460"><ele>316.8</ele></trkpt>
    <trkpt lat="49.0447700" lon="6.0099990"><ele>315.5</ele></trkpt>
    <trkpt lat="49.0449620" lon="6.0099430"><ele>314.0</ele></trkpt>
    <trkpt lat="49.0451980" lon="6.0098310"><ele>312.5</ele></trkpt>
    <trkpt lat="49.0453360" lon="6.0096990"><ele>311.5</ele></trkpt>
    <trkpt lat="49.0455190" lon="6.0093640"><ele>309.5</ele></trkpt>
    <trkpt lat="49.0455990" lon="6.0091740"><ele>308.0</ele></trkpt>
    <trkpt lat="49.0457110" lon="6.0085130"><ele>303.5</ele></trkpt>
    <trkpt lat="49.0459760" lon="6.0078020"><ele>293.8</ele></trkpt>
    <trkpt lat="49.0460670" lon="6.0076910"><ele>291.8</ele></trkpt>
    <trkpt lat="49.0462780" lon="6.0075240"><ele>288.8</ele></trkpt>
    <trkpt lat="49.0465270" lon="6.0073040"><ele>281.5</ele></trkpt>
    <trkpt lat="49.0471800" lon="6.0072550"><ele>272.5</ele></trkpt>
    <trkpt lat="49.0472460" lon="6.0072770"><ele>272.0</ele></trkpt>
    <trkpt lat="49.0475070" lon="6.0072770"><ele>266.2</ele></trkpt>
    <trkpt lat="49.0476380" lon="6.0074410"><ele>267.5</ele></trkpt>
    <trkpt lat="49.0479150" lon="6.0074790"><ele>261.2</ele></trkpt>
    <trkpt lat="49.0482570" lon="6.0076940"><ele>251.5</ele></trkpt>
    <trkpt lat="49.0483620" lon="6.0076620"><ele>248.0</ele></trkpt>
    <trkpt lat="49.0485300" lon="6.0075030"><ele>244.0</ele></trkpt>
    <trkpt lat="49.0486710" lon="6.0073220"><ele>240.2</ele></trkpt>
    <trkpt lat="49.0486860" lon="6.0072800"><ele>239.8</ele></trkpt>
    <trkpt lat="49.0489570" lon="6.0065350"><ele>234.5</ele></trkpt>
    <trkpt lat="49.0490520" lon="6.0063280"><ele>232.2</ele></trkpt>
    <trkpt lat="49.0489650" lon="6.0063400"><ele>233.5</ele></trkpt>
    <trkpt lat="49.0488560" lon="6.0062980"><ele>234.5</ele></trkpt>
    <trkpt lat="49.0487160" lon="6.0062600"><ele>235.8</ele></trkpt>
    <trkpt lat="49.0485270" lon="6.0062180"><ele>237.2</ele></trkpt>
    <trkpt lat="49.0484730" lon="6.0062280"><ele>237.5</ele></trkpt>
    <trkpt lat="49.0476820" lon="6.0061250"><ele>242.5</ele></trkpt>
    <trkpt lat="49.0473870" lon="6.0060410"><ele>242.8</ele></trkpt>
    <trkpt lat="49.0472040" lon="6.0060140"><ele>243.8</ele></trkpt>
    <trkpt lat="49.0470180" lon="6.0059470"><ele>244.2</ele></trkpt>
    <trkpt lat="49.0465390" lon="6.0056520"><ele>244.8</ele></trkpt>
    <trkpt lat="49.0465110" lon="6.0056320"><ele>246.8</ele></trkpt>
    <trkpt lat="49.0465390" lon="6.0056520"><ele>244.8</ele></trkpt>
    <trkpt lat="49.0470180" lon="6.0059470"><ele>244.2</ele></trkpt>
    <trkpt lat="49.0472040" lon="6.0060140"><ele>243.8</ele></trkpt>
    <trkpt lat="49.0472110" lon="6.0057290"><ele>239.8</ele></trkpt>
    <trkpt lat="49.0472430" lon="6.0055300"><ele>237.5</ele></trkpt>
    <trkpt lat="49.0473010" lon="6.0053210"><ele>235.2</ele></trkpt>
    <trkpt lat="49.0472830" lon="6.0052350"><ele>233.8</ele></trkpt>
    <trkpt lat="49.0472310" lon="6.0052410"><ele>234.0</ele></trkpt>
    <trkpt lat="49.0472180" lon="6.0052170"><ele>233.2</ele></trkpt>
    <trkpt lat="49.0472580" lon="6.0051560"><ele>231.8</ele></trkpt>
    <trkpt lat="49.0472510" lon="6.0051110"><ele>230.8</ele></trkpt>
    <trkpt lat="49.0471120" lon="6.0049970"><ele>227.0</ele></trkpt>
    <trkpt lat="49.0470280" lon="6.0049860"><ele>226.2</ele></trkpt>
    <trkpt lat="49.0469870" lon="6.0049520"><ele>225.5</ele></trkpt>
    <trkpt lat="49.0471010" lon="6.0048700"><ele>224.5</ele></trkpt>
    <trkpt lat="49.0473000" lon="6.0048080"><ele>223.8</ele></trkpt>
    <trkpt lat="49.0476720" lon="6.0047730"><ele>222.2</ele></trkpt>
    <trkpt lat="49.0477200" lon="6.0046280"><ele>220.2</ele></trkpt>
    <trkpt lat="49.0477840" lon="6.0042250"><ele>217.8</ele></trkpt>
    <trkpt lat="49.0477530" lon="6.0037660"><ele>222.5</ele></trkpt>
    <trkpt lat="49.0477610" lon="6.0036220"><ele>224.0</ele></trkpt>
    <trkpt lat="49.0478230" lon="6.0035020"><ele>225.5</ele></trkpt>
    <trkpt lat="49.0478400" lon="6.0034540"><ele>226.2</ele></trkpt>
    <trkpt lat="49.0485080" lon="6.0033340"><ele>220.0</ele></trkpt>
    <trkpt lat="49.0486450" lon="6.0033240"><ele>219.0</ele></trkpt>
    <trkpt lat="49.0491430" lon="6.0033220"><ele>216.2</ele></trkpt>
    <trkpt lat="49.0495240" lon="6.0031910"><ele>214.0</ele></trkpt>
    <trkpt lat="49.0497330" lon="6.0031300"><ele>212.2</ele></trkpt>
    <trkpt lat="49.0499660" lon="6.0031110"><ele>210.8</ele></trkpt>
    <trkpt lat="49.0501940" lon="6.0031270"><ele>208.5</ele></trkpt>
    <trkpt lat="49.0501850" lon="6.0030810"><ele>208.8</ele></trkpt>
    <trkpt lat="49.0501910" lon="6.0027810"><ele>210.8</ele></trkpt>
    <trkpt lat="49.0502240" lon="6.0024000"><ele>212.8</ele></trkpt>
    <trkpt lat="49.0503030" lon="6.0018020"><ele>214.2</ele></trkpt>
    <trkpt lat="49.0503560" lon="6.0014830"><ele>214.8</ele></trkpt>
    <trkpt lat="49.0505160" lon="6.0007120"><ele>215.8</ele></trkpt>
    <trkpt lat="49.0506330" lon="6.0003700"><ele>215.8</ele></trkpt>
    <trkpt lat="49.0507930" lon="5.9999550"><ele>216.8</ele></trkpt>
    <trkpt lat="49.0510090" lon="5.9994970"><ele>218.0</ele></trkpt>
    <trkpt lat="49.0513260" lon="5.9988890"><ele>219.8</ele></trkpt>
    <trkpt lat="49.0514350" lon="5.9986660"><ele>220.8</ele></trkpt>
  </trkseg></trk>
</gpx>